{
"type": "FeatureCollection",
"name": "mitigation_zones",
"crs": { "type": "name", "properties": { "name": "urn:ogc:def:crs:OGC:1.3:CRS84" } },
"features": [
{ "type": "Feature", "properties": { "latitude": 8.80894, "longitude": 80.39244, "brightness": 341.51, "scan": 0.38, "track": 0.36, "acq_date": "2026-08-31T00:00:00", "acq_time": 807, "satellite": "N", "instrument": "VIIRS", "confidence": "n", "version": "2.0NRT", "brightness_bg": 306.81, "frp": 3.36, "daynight": "D", "source_left": "VIIRS_SNPP_NRT", "cross_source_count": 1, "state": "Tamil Nadu", "zone_type": "none", "source_right": "curated_research", "osm_id": "", "nearest_zone_dist_m": 171155.39718333649, "is_industrial": false, "facility_type": "none", "zone_name": "Cauvery Delta Rice (TN)", "temperature": 26.9, "humidity": 79, "wind_speed": 16.3, "wind_direction": 202, "aqi": 19, "persistence": 0.0, "ai_classification": "Wildfire", "ai_confidence": 100.0, "spread_speed_kmh": 1.87, "risk_level": "Moderate (Spreading)", "mitigation_strategy": "Establish Firebreak", "mitigation_type": "Firebreak" }, "geometry": { "type": "LineString", "coordinates": [ [ 80.383074420003922, 8.839863733783369 ], [ 80.420915209768751, 8.824756356096033 ] ] } },
{ "type": "Feature", "properties": { "latitude": 9.04133, "longitude": 80.45132, "brightness": 367.0, "scan": 0.38, "track": 0.36, "acq_date": "2026-08-31T00:00:00", "acq_time": 807, "satellite": "N", "instrument": "VIIRS", "confidence": "h", "version": "2.0NRT", "brightness_bg": 312.33, "frp": 19.68, "daynight": "D", "source_left": "VIIRS_SNPP_NRT", "cross_source_count": 2, "state": "Tamil Nadu", "zone_type": "none", "source_right": "curated_research", "osm_id": "", "nearest_zone_dist_m": 150817.72647196962, "is_industrial": false, "facility_type": "none", "zone_name": "Cauvery Delta Rice (TN)", "temperature": 26.9, "humidity": 78, "wind_speed": 16.1, "wind_direction": 198, "aqi": 21, "persistence": 0.0, "ai_classification": "Wildfire", "ai_confidence": 100.0, "spread_speed_kmh": 2.99, "risk_level": "Critical (Spreading)", "mitigation_strategy": "Establish Firebreak", "mitigation_type": "Firebreak" }, "geometry": { "type": "LineString", "coordinates": [ [ 80.432845527769913, 9.089707726837824 ], [ 80.495060263130128, 9.069746231218483 ] ] } },
{ "type": "Feature", "properties": { "latitude": 9.26766, "longitude": 80.71529, "brightness": 340.77, "scan": 0.38, "track": 0.36, "acq_date": "2026-08-31T00:00:00", "acq_time": 807, "satellite": "N", "instrument": "VIIRS", "confidence": "n", "version": "2.0NRT", "brightness_bg": 307.73, "frp": 6.53, "daynight": "D", "source_left": "VIIRS_SNPP_NRT", "cross_source_count": 1, "state": "Tamil Nadu", "zone_type": "none", "source_right": "curated_research", "osm_id": "", "nearest_zone_dist_m": 145602.54951912482, "is_industrial": false, "facility_type": "none", "zone_name": "Cauvery Delta Rice (TN)", "temperature": 27.3, "humidity": 76, "wind_speed": 17.3, "wind_direction": 197, "aqi": 21, "persistence": 0.0, "ai_classification": "Wildfire", "ai_confidence": 100.0, "spread_speed_kmh": 2.19, "risk_level": "Moderate (Spreading)", "mitigation_strategy": "Establish Firebreak", "mitigation_type": "Firebreak" }, "geometry": { "type": "LineString", "coordinates": [ [ 80.701133371818244, 9.302836906163325 ], [ 80.746957530457323, 9.289011043343884 ] ] } },
{ "type": "Feature", "properties": { "latitude": 8.66698, "longitude": 80.36886, "brightness": 337.97, "scan": 0.39, "track": 0.36, "acq_date": "2026-08-31T00:00:00", "acq_time": 807, "satellite": "N", "instrument": "VIIRS", "confidence": "n", "version": "2.0NRT", "brightness_bg": 307.33, "frp": 3.35, "daynight": "D", "source_left": "VIIRS_SNPP_NRT", "cross_source_count": 1, "state": "Tamil Nadu", "zone_type": "none", "source_right": "curated_research", "osm_id": "", "nearest_zone_dist_m": 184583.13401882921, "is_industrial": false, "facility_type": "none", "zone_name": "Cauvery Delta Rice (TN)", "temperature": 27.0, "humidity": 79, "wind_speed": 18.6, "wind_direction": 203, "aqi": 19, "persistence": 0.0, "ai_classification": "Wildfire", "ai_confidence": 100.0, "spread_speed_kmh": 2.09, "risk_level": "Moderate (Spreading)", "mitigation_strategy": "Establish Firebreak", "mitigation_type": "Firebreak" }, "geometry": { "type": "LineString", "coordinates": [ [ 80.358961581599374, 8.701881439114228 ], [ 80.401132459882746, 8.684186599144049 ] ] } },
{ "type": "Feature", "properties": { "latitude": 8.44716, "longitude": 80.87873, "brightness": 338.83, "scan": 0.38, "track": 0.36, "acq_date": "2026-08-31T00:00:00", "acq_time": 807, "satellite": "N", "instrument": "VIIRS", "confidence": "n", "version": "2.0NRT", "brightness_bg": 306.9, "frp": 7.37, "daynight": "D", "source_left": "VIIRS_SNPP_NRT", "cross_source_count": 1, "state": "Tamil Nadu", "zone_type": "none", "source_right": "curated_research", "osm_id": "", "nearest_zone_dist_m": 231142.88673079549, "is_industrial": false, "facility_type": "none", "zone_name": "Cauvery Delta Rice (TN)", "temperature": 26.7, "humidity": 79, "wind_speed": 18.0, "wind_direction": 228, "aqi": 16, "persistence": 0.0, "ai_classification": "Wildfire", "ai_confidence": 100.0, "spread_speed_kmh": 2.32, "risk_level": "Moderate (Spreading)", "mitigation_strategy": "Establish Firebreak", "mitigation_type": "Firebreak" }, "geometry": { "type": "LineString", "coordinates": [ [ 80.885304976512117, 8.486707011517904 ], [ 80.919180002447831, 8.449495139056864 ] ] } },
{ "type": "Feature", "properties": { "latitude": 8.47334, "longitude": 80.16677, "brightness": 342.12, "scan": 0.39, "track": 0.36, "acq_date": "2026-08-31T00:00:00", "acq_time": 807, "satellite": "N", "instrument": "VIIRS", "confidence": "n", "version": "2.0NRT", "brightness_bg": 309.88, "frp": 7.33, "daynight": "D", "source_left": "VIIRS_SNPP_NRT", "cross_source_count": 1, "state": "Tamil Nadu", "zone_type": "none", "source_right": "curated_research", "osm_id": "", "nearest_zone_dist_m": 197717.01621892065, "is_industrial": false, "facility_type": "none", "zone_name": "Cauvery Delta Rice (TN)", "temperature": 27.0, "humidity": 80, "wind_speed": 21.3, "wind_direction": 205, "aqi": 20, "persistence": 0.0, "ai_classification": "Wildfire", "ai_confidence": 100.0, "spread_speed_kmh": 2.64, "risk_level": "Critical (Spreading)", "mitigation_strategy": "Establish Firebreak", "mitigation_type": "Firebreak" }, "geometry": { "type": "LineString", "coordinates": [ [ 80.155846590485297, 8.517787026675704 ], [ 80.20821637457918, 8.493635192565284 ] ] } },
{ "type": "Feature", "properties": { "latitude": 8.5192, "longitude": 80.46411, "brightness": 331.95, "scan": 0.38, "track": 0.36, "acq_date": "2026-08-31T00:00:00", "acq_time": 807, "satellite": "N", "instrument": "VIIRS", "confidence": "n", "version": "2.0NRT", "brightness_bg": 300.33, "frp": 2.27, "daynight": "D", "source_left": "VIIRS_SNPP_NRT", "cross_source_count": 1, "state": "Tamil Nadu", "zone_type": "none", "source_right": "curated_research", "osm_id": "", "nearest_zone_dist_m": 203672.13978304315, "is_industrial": false, "facility_type": "none", "zone_name": "Cauvery Delta Rice (TN)", "temperature": 26.9, "humidity": 79, "wind_speed": 20.5, "wind_direction": 208, "aqi": 17, "persistence": 0.0, "ai_classification": "Wildfire", "ai_confidence": 100.0, "spread_speed_kmh": 2.21, "risk_level": "Moderate (Spreading)", "mitigation_strategy": "Establish Firebreak", "mitigation_type": "Firebreak" }, "geometry": { "type": "LineString", "coordinates": [ [ 80.456958575616156, 8.556766966566165 ], [ 80.49960157405981, 8.534345004727513 ] ] } },
{ "type": "Feature", "properties": { "latitude": 8.59252, "longitude": 80.60977, "brightness": 336.11, "scan": 0.38, "track": 0.36, "acq_date": "2026-08-31T00:00:00", "acq_time": 807, "satellite": "N", "instrument": "VIIRS", "confidence": "n", "version": "2.0NRT", "brightness_bg": 302.77, "frp": 3.19, "daynight": "D", "source_left": "VIIRS_SNPP_NRT", "cross_source_count": 1, "state": "Tamil Nadu", "zone_type": "none", "source_right": "curated_research", "osm_id": "", "nearest_zone_dist_m": 202955.93624759142, "is_industrial": false, "facility_type": "none", "zone_name": "Cauvery Delta Rice (TN)", "temperature": 26.5, "humidity": 80, "wind_speed": 20.2, "wind_direction": 215, "aqi": 16, "persistence": 0.0, "ai_classification": "Wildfire", "ai_confidence": 100.0, "spread_speed_kmh": 2.24, "risk_level": "Moderate (Spreading)", "mitigation_strategy": "Establish Firebreak", "mitigation_type": "Firebreak" }, "geometry": { "type": "LineString", "coordinates": [ [ 80.607262457459527, 8.631262797252521 ], [ 80.647448084729902, 8.603442169800278 ] ] } },
{ "type": "Feature", "properties": { "latitude": 8.57523, "longitude": 80.74078, "brightness": 334.55, "scan": 0.38, "track": 0.36, "acq_date": "2026-08-31T00:00:00", "acq_time": 807, "satellite": "N", "instrument": "VIIRS", "confidence": "n", "version": "2.0NRT", "brightness_bg": 302.39, "frp": 0.92, "daynight": "D", "source_left": "VIIRS_SNPP_NRT", "cross_source_count": 1, "state": "Tamil Nadu", "zone_type": "none", "source_right": "curated_research", "osm_id": "", "nearest_zone_dist_m": 211301.88884996608, "is_industrial": false, "facility_type": "none", "zone_name": "Cauvery Delta Rice (TN)", "temperature": 26.7, "humidity": 79, "wind_speed": 21.3, "wind_direction": 218, "aqi": 16, "persistence": 0.0, "ai_classification": "Wildfire", "ai_confidence": 100.0, "spread_speed_kmh": 2.19, "risk_level": "Moderate (Spreading)", "mitigation_strategy": "Establish Firebreak", "mitigation_type": "Firebreak" }, "geometry": { "type": "LineString", "coordinates": [ [ 80.740336579535395, 8.613203200417274 ], [ 80.778149941765506, 8.583992226547984 ] ] } },
{ "type": "Feature", "properties": { "latitude": 9.10032, "longitude": 78.18219, "brightness": 340.05, "scan": 0.51, "track": 0.41, "acq_date": "2026-08-31T00:00:00", "acq_time": 828, "satellite": "N20", "instrument": "VIIRS", "confidence": "n", "version": "2.0NRT", "brightness_bg": 305.68, "frp": 12.25, "daynight": "D", "source_left": "VIIRS_NOAA20_NRT", "cross_source_count": 1, "state": "Tamil Nadu", "zone_type": "parks", "source_right": "curated_research", "osm_id": "", "nearest_zone_dist_m": 0.0, "is_industrial": false, "facility_type": "protected_area", "zone_name": "Gulf of Mannar NP (Tamil Nadu)", "temperature": 28.6, "humidity": 65, "wind_speed": 15.7, "wind_direction": 267, "aqi": 18, "persistence": 0.0, "ai_classification": "Wildfire", "ai_confidence": 100.0, "spread_speed_kmh": 2.43, "risk_level": "Moderate (Spreading)", "mitigation_strategy": "Establish Firebreak", "mitigation_type": "Firebreak" }, "geometry": { "type": "LineString", "coordinates": [ [ 78.213975714639673, 9.128244109328016 ], [ 78.216757675034017, 9.075829553747113 ] ] } },
{ "type": "Feature", "properties": { "latitude": 9.30984, "longitude": 80.43034, "brightness": 335.04, "scan": 0.47, "track": 0.48, "acq_date": "2026-08-31T00:00:00", "acq_time": 828, "satellite": "N20", "instrument": "VIIRS", "confidence": "n", "version": "2.0NRT", "brightness_bg": 299.73, "frp": 3.09, "daynight": "D", "source_left": "VIIRS_NOAA20_NRT", "cross_source_count": 1, "state": "Tamil Nadu", "zone_type": "none", "source_right": "curated_research", "osm_id": "", "nearest_zone_dist_m": 123949.01085203541, "is_industrial": false, "facility_type": "none", "zone_name": "Cauvery Delta Rice (TN)", "temperature": 27.1, "humidity": 78, "wind_speed": 16.9, "wind_direction": 191, "aqi": 21, "persistence": 0.0, "ai_classification": "Wildfire", "ai_confidence": 100.0, "spread_speed_kmh": 1.91, "risk_level": "Moderate (Spreading)", "mitigation_strategy": "Establish Firebreak", "mitigation_type": "Firebreak" }, "geometry": { "type": "LineString", "coordinates": [ [ 80.414819481878183, 9.33905982770426 ], [ 80.455822527084209, 9.331195196614827 ] ] } },
{ "type": "Feature", "properties": { "latitude": 8.65821, "longitude": 80.88054, "brightness": 332.53, "scan": 0.49, "track": 0.49, "acq_date": "2026-08-31T00:00:00", "acq_time": 828, "satellite": "N20", "instrument": "VIIRS", "confidence": "n", "version": "2.0NRT", "brightness_bg": 299.8, "frp": 4.07, "daynight": "D", "source_left": "VIIRS_NOAA20_NRT", "cross_source_count": 1, "state": "Tamil Nadu", "zone_type": "none", "source_right": "curated_research", "osm_id": "", "nearest_zone_dist_m": 211222.47014632076, "is_industrial": false, "facility_type": "none", "zone_name": "Cauvery Delta Rice (TN)", "temperature": 27.1, "humidity": 77, "wind_speed": 19.2, "wind_direction": 214, "aqi": 18, "persistence": 0.0, "ai_classification": "Wildfire", "ai_confidence": 100.0, "spread_speed_kmh": 2.2, "risk_level": "Moderate (Spreading)", "mitigation_strategy": "Establish Firebreak", "mitigation_type": "Firebreak" }, "geometry": { "type": "LineString", "coordinates": [ [ 80.877403066636901, 8.696241303919146 ], [ 80.917384428734948, 8.669582613478871 ] ] } },
{ "type": "Feature", "properties": { "latitude": 8.80527, "longitude": 80.54754, "brightness": 341.81, "scan": 0.47, "track": 0.48, "acq_date": "2026-08-31T00:00:00", "acq_time": 828, "satellite": "N20", "instrument": "VIIRS", "confidence": "n", "version": "2.0NRT", "brightness_bg": 301.71, "frp": 5.75, "daynight": "D", "source_left": "VIIRS_NOAA20_NRT", "cross_source_count": 1, "state": "Tamil Nadu", "zone_type": "none", "source_right": "curated_research", "osm_id": "", "nearest_zone_dist_m": 178847.92047071562, "is_industrial": false, "facility_type": "none", "zone_name": "Cauvery Delta Rice (TN)", "temperature": 26.8, "humidity": 79, "wind_speed": 19.2, "wind_direction": 207, "aqi": 19, "persistence": 0.0, "ai_classification": "Wildfire", "ai_confidence": 100.0, "spread_speed_kmh": 2.32, "risk_level": "Moderate (Spreading)", "mitigation_strategy": "Establish Firebreak", "mitigation_type": "Firebreak" }, "geometry": { "type": "LineString", "coordinates": [ [ 80.539318474515497, 8.844633202715453 ], [ 80.584598495564151, 8.821835517620425 ] ] } },
{ "type": "Feature", "properties": { "latitude": 29.76927, "longitude": 72.40252, "brightness": 334.09, "scan": 0.45, "track": 0.39, "acq_date": "2026-08-31T00:00:00", "acq_time": 835, "satellite": "N20", "instrument": "VIIRS", "confidence": "n", "version": "2.0NRT", "brightness_bg": 303.52, "frp": 3.68, "daynight": "D", "source_left": "VIIRS_NOAA20_NRT", "cross_source_count": 1, "state": "Punjab", "zone_type": "none", "source_right": "curated_research", "osm_id": "", "nearest_zone_dist_m": 183901.72583244758, "is_industrial": false, "facility_type": "none", "zone_name": "Punjab Wheat Belt", "temperature": 31.5, "humidity": 54, "wind_speed": 7.5, "wind_direction": 220, "aqi": 116, "persistence": 0.0, "ai_classification": "Wildfire", "ai_confidence": 100.0, "spread_speed_kmh": 1.01, "risk_level": "Moderate (Spreading)", "mitigation_strategy": "Establish Firebreak", "mitigation_type": "Firebreak" }, "geometry": { "type": "LineString", "coordinates": [ [ 72.40298883590755, 29.786702494828415 ], [ 72.42221709422158, 29.772698758709058 ] ] } },
{ "type": "Feature", "properties": { "latitude": 10.04175, "longitude": 77.58042, "brightness": 339.12, "scan": 0.48, "track": 0.4, "acq_date": "2026-08-31T00:00:00", "acq_time": 828, "satellite": "N20", "instrument": "VIIRS", "confidence": "n", "version": "2.0NRT", "brightness_bg": 304.56, "frp": 29.4, "daynight": "D", "source_left": "VIIRS_NOAA20_NRT", "cross_source_count": 1, "state": "Kerala", "zone_type": "none", "source_right": "curated_research", "osm_id": "", "nearest_zone_dist_m": 8958.235242987701, "is_industrial": false, "facility_type": "none", "zone_name": "Kerala Western Ghats Forests", "temperature": 26.7, "humidity": 67, "wind_speed": 13.0, "wind_direction": 211, "aqi": 17, "persistence": 0.0, "ai_classification": "Wildfire", "ai_confidence": 100.0, "spread_speed_kmh": 3.36, "risk_level": "Critical (Spreading)", "mitigation_strategy": "Establish Firebreak", "mitigation_type": "Firebreak" }, "geometry": { "type": "LineString", "coordinates": [ [ 77.572549790491308, 10.099344136218866 ], [ 77.635760595608758, 10.061949587990801 ] ] } },
{ "type": "Feature", "properties": { "latitude": 11.19128, "longitude": 76.92039, "brightness": 332.0, "scan": 0.46, "track": 0.39, "acq_date": "2026-08-31T00:00:00", "acq_time": 828, "satellite": "N20", "instrument": "VIIRS", "confidence": "n", "version": "2.0NRT", "brightness_bg": 296.2, "frp": 2.29, "daynight": "D", "source_left": "VIIRS_NOAA20_NRT", "cross_source_count": 1, "state": "Tamil Nadu", "zone_type": "forest", "source_right": "curated_research", "osm_id": "", "nearest_zone_dist_m": 0.0, "is_industrial": false, "facility_type": "forest", "zone_name": "Nilgiris Biosphere Reserve", "temperature": 24.7, "humidity": 80, "wind_speed": 9.7, "wind_direction": 207, "aqi": 16, "persistence": 0.0, "ai_classification": "Wildfire", "ai_confidence": 100.0, "spread_speed_kmh": 1.13, "risk_level": "Moderate (Spreading)", "mitigation_strategy": "Establish Firebreak", "mitigation_type": "Firebreak" }, "geometry": { "type": "LineString", "coordinates": [ [ 76.916359629353082, 11.21043704113209 ], [ 76.938557998068717, 11.199342004118995 ] ] } },
{ "type": "Feature", "properties": { "latitude": 8.33133, "longitude": 80.39417, "brightness": 332.61, "scan": 0.45, "track": 0.47, "acq_date": "2026-08-31T00:00:00", "acq_time": 828, "satellite": "N20", "instrument": "VIIRS", "confidence": "n", "version": "2.0NRT", "brightness_bg": 302.07, "frp": 2.1, "daynight": "D", "source_left": "VIIRS_NOAA20_NRT", "cross_source_count": 1, "state": "Tamil Nadu", "zone_type": "none", "source_right": "curated_research", "osm_id": "", "nearest_zone_dist_m": 220363.56694219893, "is_industrial": false, "facility_type": "none", "zone_name": "Cauvery Delta Rice (TN)", "temperature": 26.7, "humidity": 81, "wind_speed": 23.1, "wind_direction": 211, "aqi": 17, "persistence": 0.0, "ai_classification": "Wildfire", "ai_confidence": 100.0, "spread_speed_kmh": 2.46, "risk_level": "Moderate (Spreading)", "mitigation_strategy": "Establish Firebreak", "mitigation_type": "Firebreak" }, "geometry": { "type": "LineString", "coordinates": [ [ 80.388440313035161, 8.373470795917138 ], [ 80.434465785344926, 8.346109746186242 ] ] } },
{ "type": "Feature", "properties": { "latitude": 8.16829, "longitude": 80.5834, "brightness": 335.75, "scan": 0.46, "track": 0.47, "acq_date": "2026-08-31T00:00:00", "acq_time": 828, "satellite": "N20", "instrument": "VIIRS", "confidence": "n", "version": "2.0NRT", "brightness_bg": 300.42, "frp": 3.59, "daynight": "D", "source_left": "VIIRS_NOAA20_NRT", "cross_source_count": 1, "state": "Tamil Nadu", "zone_type": "none", "source_right": "curated_research", "osm_id": "", "nearest_zone_dist_m": 244547.60441141136, "is_industrial": false, "facility_type": "none", "zone_name": "Cauvery Delta Rice (TN)", "temperature": 26.2, "humidity": 83, "wind_speed": 23.7, "wind_direction": 218, "aqi": 15, "persistence": 0.0, "ai_classification": "Wildfire", "ai_confidence": 100.0, "spread_speed_kmh": 2.62, "risk_level": "Critical (Spreading)", "mitigation_strategy": "Establish Firebreak", "mitigation_type": "Firebreak" }, "geometry": { "type": "LineString", "coordinates": [ [ 80.582870678594418, 8.213650531468193 ], [ 80.627993471081822, 8.178756835786654 ] ] } },
{ "type": "Feature", "properties": { "latitude": 8.34843, "longitude": 80.29674, "brightness": 343.2, "scan": 0.44, "track": 0.46, "acq_date": "2026-08-31T00:00:00", "acq_time": 828, "satellite": "N20", "instrument": "VIIRS", "confidence": "n", "version": "2.0NRT", "brightness_bg": 303.86, "frp": 9.99, "daynight": "D", "source_left": "VIIRS_NOAA20_NRT", "cross_source_count": 1, "state": "Tamil Nadu", "zone_type": "none", "source_right": "curated_research", "osm_id": "", "nearest_zone_dist_m": 215072.43038458691, "is_industrial": false, "facility_type": "none", "zone_name": "Cauvery Delta Rice (TN)", "temperature": 26.9, "humidity": 80, "wind_speed": 23.9, "wind_direction": 210, "aqi": 17, "persistence": 0.0, "ai_classification": "Wildfire", "ai_confidence": 100.0, "spread_speed_kmh": 3.09, "risk_level": "Critical (Spreading)", "mitigation_strategy": "Establish Firebreak", "mitigation_type": "Firebreak" }, "geometry": { "type": "LineString", "coordinates": [ [ 80.288601346439549, 8.401283138917721 ], [ 80.347073067482143, 8.367885301079882 ] ] } },
{ "type": "Feature", "properties": { "latitude": 8.16395, "longitude": 80.584, "brightness": 335.73, "scan": 0.46, "track": 0.47, "acq_date": "2026-08-31T00:00:00", "acq_time": 828, "satellite": "N20", "instrument": "VIIRS", "confidence": "n", "version": "2.0NRT", "brightness_bg": 299.59, "frp": 2.2, "daynight": "D", "source_left": "VIIRS_NOAA20_NRT", "cross_source_count": 1, "state": "Tamil Nadu", "zone_type": "none", "source_right": "curated_research", "osm_id": "", "nearest_zone_dist_m": 245017.20191435848, "is_industrial": false, "facility_type": "none", "zone_name": "Cauvery Delta Rice (TN)", "temperature": 26.2, "humidity": 83, "wind_speed": 23.7, "wind_direction": 218, "aqi": 15, "persistence": 0.0, "ai_classification": "Wildfire", "ai_confidence": 100.0, "spread_speed_kmh": 2.52, "risk_level": "Critical (Spreading)", "mitigation_strategy": "Establish Firebreak", "mitigation_type": "Firebreak" }, "geometry": { "type": "LineString", "coordinates": [ [ 80.583490389376465, 8.207626794501094 ], [ 80.62693768253115, 8.174028317447645 ] ] } },
{ "type": "Feature", "properties": { "latitude": 8.11853, "longitude": 80.619, "brightness": 336.09, "scan": 0.46, "track": 0.47, "acq_date": "2026-08-31T00:00:00", "acq_time": 828, "satellite": "N20", "instrument": "VIIRS", "confidence": "n", "version": "2.0NRT", "brightness_bg": 302.05, "frp": 4.81, "daynight": "D", "source_left": "VIIRS_NOAA20_NRT", "cross_source_count": 1, "state": "Tamil Nadu", "zone_type": "none", "source_right": "curated_research", "osm_id": "", "nearest_zone_dist_m": 251123.05709290283, "is_industrial": false, "facility_type": "none", "zone_name": "Cauvery Delta Rice (TN)", "temperature": 26.0, "humidity": 84, "wind_speed": 23.4, "wind_direction": 217, "aqi": 16, "persistence": 0.0, "ai_classification": "Wildfire", "ai_confidence": 100.0, "spread_speed_kmh": 2.68, "risk_level": "Critical (Spreading)", "mitigation_strategy": "Establish Firebreak", "mitigation_type": "Firebreak" }, "geometry": { "type": "LineString", "coordinates": [ [ 80.617643007157753, 8.164832841725953 ], [ 80.664334989296535, 8.130003041240091 ] ] } },
{ "type": "Feature", "properties": { "latitude": 8.00052, "longitude": 80.37166, "brightness": 346.44, "scan": 0.44, "track": 0.46, "acq_date": "2026-08-31T00:00:00", "acq_time": 828, "satellite": "N20", "instrument": "VIIRS", "confidence": "n", "version": "2.0NRT", "brightness_bg": 301.25, "frp": 4.87, "daynight": "D", "source_left": "VIIRS_NOAA20_NRT", "cross_source_count": 1, "state": "Tamil Nadu", "zone_type": "none", "source_right": "curated_research", "osm_id": "", "nearest_zone_dist_m": 248125.02404698328, "is_industrial": false, "facility_type": "none", "zone_name": "Gulf of Mannar NP (Tamil Nadu)", "temperature": 26.2, "humidity": 84, "wind_speed": 20.5, "wind_direction": 208, "aqi": 15, "persistence": 0.0, "ai_classification": "Wildfire", "ai_confidence": 100.0, "spread_speed_kmh": 2.39, "risk_level": "Moderate (Spreading)", "mitigation_strategy": "Establish Firebreak", "mitigation_type": "Firebreak" }, "geometry": { "type": "LineString", "coordinates": [ [ 80.363929482202877, 8.041182257396462 ], [ 80.410025438283895, 8.016912861516142 ] ] } },
{ "type": "Feature", "properties": { "latitude": 8.00086, "longitude": 80.2176, "brightness": 350.56, "scan": 0.43, "track": 0.46, "acq_date": "2026-08-31T00:00:00", "acq_time": 828, "satellite": "N20", "instrument": "VIIRS", "confidence": "n", "version": "2.0NRT", "brightness_bg": 303.05, "frp": 18.92, "daynight": "D", "source_left": "VIIRS_NOAA20_NRT", "cross_source_count": 1, "state": "Tamil Nadu", "zone_type": "none", "source_right": "curated_research", "osm_id": "", "nearest_zone_dist_m": 232788.68693987778, "is_industrial": false, "facility_type": "none", "zone_name": "Tuticorin Port Industrial (TN)", "temperature": 26.7, "humidity": 83, "wind_speed": 17.7, "wind_direction": 204, "aqi": 15, "persistence": 0.0, "ai_classification": "Wildfire", "ai_confidence": 100.0, "spread_speed_kmh": 3.09, "risk_level": "Critical (Spreading)", "mitigation_strategy": "Establish Firebreak", "mitigation_type": "Firebreak" }, "geometry": { "type": "LineString", "coordinates": [ [ 80.203911258394399, 8.052667564308056 ], [ 80.265639487282371, 8.025454464452192 ] ] } },
{ "type": "Feature", "properties": { "latitude": 8.00891, "longitude": 79.94204, "brightness": 331.5, "scan": 0.42, "track": 0.45, "acq_date": "2026-08-31T00:00:00", "acq_time": 828, "satellite": "N20", "instrument": "VIIRS", "confidence": "n", "version": "2.0NRT", "brightness_bg": 300.57, "frp": 3.64, "daynight": "D", "source_left": "VIIRS_NOAA20_NRT", "cross_source_count": 1, "state": "Tamil Nadu", "zone_type": "none", "source_right": "curated_research", "osm_id": "", "nearest_zone_dist_m": 204183.22904256068, "is_industrial": false, "facility_type": "none", "zone_name": "Tuticorin Port Industrial (TN)", "temperature": 27.2, "humidity": 82, "wind_speed": 17.4, "wind_direction": 206, "aqi": 17, "persistence": 0.0, "ai_classification": "Wildfire", "ai_confidence": 100.0, "spread_speed_kmh": 1.99, "risk_level": "Moderate (Spreading)", "mitigation_strategy": "Establish Firebreak", "mitigation_type": "Firebreak" }, "geometry": { "type": "LineString", "coordinates": [ [ 79.93439851952256, 8.042592223979048 ], [ 79.973548397246176, 8.023684920981969 ] ] } },
{ "type": "Feature", "properties": { "latitude": 8.0623, "longitude": 80.6608, "brightness": 333.65, "scan": 0.47, "track": 0.47, "acq_date": "2026-08-31T00:00:00", "acq_time": 828, "satellite": "N20", "instrument": "VIIRS", "confidence": "n", "version": "2.0NRT", "brightness_bg": 303.31, "frp": 3.46, "daynight": "D", "source_left": "VIIRS_NOAA20_NRT", "cross_source_count": 1, "state": "Tamil Nadu", "zone_type": "none", "source_right": "curated_research", "osm_id": "", "nearest_zone_dist_m": 258631.71894604652, "is_industrial": false, "facility_type": "none", "zone_name": "Cauvery Delta Rice (TN)", "temperature": 25.9, "humidity": 82, "wind_speed": 25.3, "wind_direction": 226, "aqi": 16, "persistence": 0.0, "ai_classification": "Wildfire", "ai_confidence": 100.0, "spread_speed_kmh": 2.77, "risk_level": "Critical (Spreading)", "mitigation_strategy": "Establish Firebreak", "mitigation_type": "Firebreak" }, "geometry": { "type": "LineString", "coordinates": [ [ 80.666989131411327, 8.109881823921427 ], [ 80.709044934970365, 8.066764985121452 ] ] } },
{ "type": "Feature", "properties": { "latitude": 8.07497, "longitude": 80.56109, "brightness": 344.08, "scan": 0.46, "track": 0.47, "acq_date": "2026-08-31T00:00:00", "acq_time": 828, "satellite": "N20", "instrument": "VIIRS", "confidence": "n", "version": "2.0NRT", "brightness_bg": 299.79, "frp": 6.7, "daynight": "D", "source_left": "VIIRS_NOAA20_NRT", "cross_source_count": 1, "state": "Tamil Nadu", "zone_type": "none", "source_right": "curated_research", "osm_id": "", "nearest_zone_dist_m": 253263.89084149661, "is_industrial": false, "facility_type": "none", "zone_name": "Cauvery Delta Rice (TN)", "temperature": 26.2, "humidity": 84, "wind_speed": 22.5, "wind_direction": 216, "aqi": 15, "persistence": 0.0, "ai_classification": "Wildfire", "ai_confidence": 100.0, "spread_speed_kmh": 2.72, "risk_level": "Critical (Spreading)", "mitigation_strategy": "Establish Firebreak", "mitigation_type": "Firebreak" }, "geometry": { "type": "LineString", "coordinates": [ [ 80.558882771760111, 8.121973617412056 ], [ 80.606924056143285, 8.087418199012419 ] ] } },
{ "type": "Feature", "properties": { "latitude": 8.39514, "longitude": 80.60126, "brightness": 331.06, "scan": 0.47, "track": 0.47, "acq_date": "2026-08-31T00:00:00", "acq_time": 828, "satellite": "N20", "instrument": "VIIRS", "confidence": "n", "version": "2.0NRT", "brightness_bg": 300.38, "frp": 2.53, "daynight": "D", "source_left": "VIIRS_NOAA20_NRT", "cross_source_count": 1, "state": "Tamil Nadu", "zone_type": "none", "source_right": "curated_research", "osm_id": "", "nearest_zone_dist_m": 222320.68383276425, "is_industrial": false, "facility_type": "none", "zone_name": "Cauvery Delta Rice (TN)", "temperature": 26.7, "humidity": 80, "wind_speed": 21.7, "wind_direction": 217, "aqi": 16, "persistence": 0.0, "ai_classification": "Wildfire", "ai_confidence": 100.0, "spread_speed_kmh": 2.35, "risk_level": "Moderate (Spreading)", "mitigation_strategy": "Establish Firebreak", "mitigation_type": "Firebreak" }, "geometry": { "type": "LineString", "coordinates": [ [ 80.600069406258925, 8.435741262679784 ], [ 80.641040310659619, 8.405200288823782 ] ] } },
{ "type": "Feature", "properties": { "latitude": 8.45679, "longitude": 80.5248, "brightness": 340.68, "scan": 0.46, "track": 0.47, "acq_date": "2026-08-31T00:00:00", "acq_time": 828, "satellite": "N20", "instrument": "VIIRS", "confidence": "n", "version": "2.0NRT", "brightness_bg": 298.18, "frp": 2.27, "daynight": "D", "source_left": "VIIRS_NOAA20_NRT", "cross_source_count": 1, "state": "Tamil Nadu", "zone_type": "none", "source_right": "curated_research", "osm_id": "", "nearest_zone_dist_m": 212645.24138919494, "is_industrial": false, "facility_type": "none", "zone_name": "Cauvery Delta Rice (TN)", "temperature": 26.9, "humidity": 79, "wind_speed": 20.6, "wind_direction": 210, "aqi": 17, "persistence": 0.0, "ai_classification": "Wildfire", "ai_confidence": 100.0, "spread_speed_kmh": 2.22, "risk_level": "Moderate (Spreading)", "mitigation_strategy": "Establish Firebreak", "mitigation_type": "Firebreak" }, "geometry": { "type": "LineString", "coordinates": [ [ 80.51895328340413, 8.49475194281699 ], [ 80.560961462337588, 8.470763834708883 ] ] } },
{ "type": "Feature", "properties": { "latitude": 8.3909, "longitude": 80.38186, "brightness": 349.29, "scan": 0.45, "track": 0.47, "acq_date": "2026-08-31T00:00:00", "acq_time": 828, "satellite": "N20", "instrument": "VIIRS", "confidence": "n", "version": "2.0NRT", "brightness_bg": 300.79, "frp": 40.32, "daynight": "D", "source_left": "VIIRS_NOAA20_NRT", "cross_source_count": 1, "state": "Tamil Nadu", "zone_type": "none", "source_right": "curated_research", "osm_id": "", "nearest_zone_dist_m": 213701.18928657129, "is_industrial": false, "facility_type": "none", "zone_name": "Cauvery Delta Rice (TN)", "temperature": 27.0, "humidity": 79, "wind_speed": 23.6, "wind_direction": 210, "aqi": 17, "persistence": 0.0, "ai_classification": "Wildfire", "ai_confidence": 100.0, "spread_speed_kmh": 5.18, "risk_level": "Critical (Spreading)", "mitigation_strategy": "Establish Firebreak", "mitigation_type": "Firebreak" }, "geometry": { "type": "LineString", "coordinates": [ [ 80.368202523340173, 8.479562838548278 ], [ 80.466307681271857, 8.42353689260233 ] ] } }
]
}
