{"type":"FeatureCollection","name":"India Agricultural / Farmland","crs":{"type":"name","properties":{"name":"EPSG:4326"}},"features":[{"type":"Feature","geometry":{"type":"Polygon","coordinates":[[[75.0,31.22072072072072],[75.081987689443,31.21725025345744],[75.16318579261761,31.20687227416449],[75.2428123274029,31.189686728455644],[75.32010044674058,31.16585912253066],[75.39430582379144,31.135618929260076],[75.46471382020971,31.099257378236068],[75.53064636850094,31.057124651072243],[75.59146850218269,31.009626508963276],[75.64659447085884,30.957220384982808],[75.69549338131614,30.900410978752866],[75.73769431031602,30.83974539591063],[75.7727908398428,30.775807879182047],[75.80044497113147,30.709214181805017],[75.8203903797804,30.640605637489102],[75.83243498060105,30.570642984021305],[75.83646277750326,30.5],[75.83243498060105,30.429357015978695],[75.8203903797804,30.359394362510898],[75.80044497113147,30.290785818194983],[75.7727908398428,30.224192120817953],[75.73769431031602,30.16025460408937],[75.69549338131614,30.099589021247134],[75.64659447085884,30.042779615017192],[75.59146850218269,29.990373491036724],[75.53064636850094,29.942875348927757],[75.46471382020971,29.900742621763932],[75.39430582379144,29.864381070739924],[75.32010044674058,29.83414087746934],[75.2428123274029,29.810313271544356],[75.16318579261761,29.79312772583551],[75.081987689443,29.78274974654256],[75.0,29.77927927927928],[74.918012310557,29.78274974654256],[74.83681420738239,29.79312772583551],[74.7571876725971,29.810313271544352],[74.67989955325942,29.83414087746934],[74.60569417620856,29.864381070739924],[74.53528617979029,29.900742621763932],[74.46935363149906,29.942875348927757],[74.40853149781731,29.990373491036724],[74.35340552914116,30.042779615017192],[74.30450661868386,30.099589021247134],[74.26230568968398,30.16025460408937],[74.2272091601572,30.224192120817953],[74.19955502886853,30.290785818194983],[74.1796096202196,30.359394362510898],[74.16756501939895,30.429357015978695],[74.16353722249674,30.5],[74.16756501939895,30.570642984021305],[74.1796096202196,30.640605637489102],[74.19955502886853,30.709214181805017],[74.2272091601572,30.775807879182047],[74.26230568968398,30.83974539591063],[74.30450661868386,30.900410978752866],[74.35340552914116,30.957220384982808],[74.40853149781731,31.009626508963276],[74.46935363149906,31.057124651072243],[74.53528617979029,31.099257378236068],[74.60569417620856,31.135618929260076],[74.67989955325942,31.16585912253066],[74.7571876725971,31.189686728455644],[74.83681420738239,31.20687227416449],[74.918012310557,31.21725025345744],[75.0,31.22072072072072]]]},"properties":{"zone_type":"agricultural","zone_label":"Agricultural / Farmland","zone_color":"#f59e0b","name":"Punjab Wheat Belt","state":"Punjab","subtype":"wheat","area_sqkm":20106.19,"source":"curated_research","osm_id":""}},{"type":"Feature","geometry":{"type":"Polygon","coordinates":[[[76.0,30.13063063063063],[76.0710199419697,30.12759397177526],[76.14135592307477,30.11851323989393],[76.21033056936761,30.10347588739869],[76.27727961729909,30.082626732214326],[76.34155831093949,30.056166563102565],[76.40254761133079,30.02435020595656],[76.45966015817007,29.98748406968821],[76.51234592641036,29.945923195342868],[76.56009752330256,29.900067836859957],[76.60245507486489,29.85035960640876],[76.63901065472083,29.7972772214218],[76.66941221265306,29.74133189428429],[76.6933669650395,29.68306240907939],[76.71064421451968,29.623029932802964],[76.72107757173637,29.56181261101864],[76.72456655775615,29.5],[76.72107757173637,29.43818738898136],[76.71064421451968,29.376970067197036],[76.6933669650395,29.31693759092061],[76.66941221265306,29.25866810571571],[76.63901065472083,29.2027227785782],[76.60245507486489,29.14964039359124],[76.56009752330256,29.099932163140043],[76.51234592641036,29.054076804657132],[76.45966015817007,29.01251593031179],[76.40254761133079,28.97564979404344],[76.34155831093949,28.943833436897435],[76.27727961729909,28.917373267785674],[76.21033056936761,28.89652411260131],[76.14135592307477,28.88148676010607],[76.0710199419697,28.87240602822474],[76.0,28.86936936936937],[75.9289800580303,28.87240602822474],[75.85864407692523,28.88148676010607],[75.78966943063239,28.89652411260131],[75.72272038270091,28.917373267785674],[75.65844168906051,28.943833436897435],[75.59745238866921,28.97564979404344],[75.54033984182993,29.01251593031179],[75.48765407358964,29.054076804657132],[75.43990247669744,29.099932163140043],[75.39754492513511,29.14964039359124],[75.36098934527917,29.2027227785782],[75.33058778734694,29.25866810571571],[75.3066330349605,29.31693759092061],[75.28935578548032,29.376970067197036],[75.27892242826363,29.43818738898136],[75.27543344224385,29.5],[75.27892242826363,29.56181261101864],[75.28935578548032,29.623029932802964],[75.3066330349605,29.68306240907939],[75.33058778734694,29.74133189428429],[75.36098934527917,29.7972772214218],[75.39754492513511,29.85035960640876],[75.43990247669744,29.900067836859957],[75.48765407358964,29.945923195342868],[75.54033984182993,29.98748406968821],[75.59745238866921,30.02435020595656],[75.65844168906051,30.056166563102565],[75.72272038270091,30.082626732214326],[75.78966943063237,30.10347588739869],[75.85864407692523,30.11851323989393],[75.9289800580303,30.12759397177526],[76.0,30.13063063063063]]]},"properties":{"zone_type":"agricultural","zone_label":"Agricultural / Farmland","zone_color":"#f59e0b","name":"Haryana Wheat Zone","state":"Haryana","subtype":"wheat","area_sqkm":15393.8,"source":"curated_research","osm_id":""}},{"type":"Feature","geometry":{"type":"Polygon","coordinates":[[[80.0,28.9009009009009],[80.1000101599923,28.8965628168218],[80.19905716747274,28.883590342705613],[80.29618714561472,28.862108410569558],[80.39046467963206,28.83232390316332],[80.48098182533484,28.794523661575095],[80.56686685312823,28.749071722795087],[80.64729264324505,28.696405813840304],[80.72148465136127,28.637033136204096],[80.78872836788125,28.57152548122851],[80.84837619905575,28.500513723441085],[80.89985370366375,28.424681744888286],[80.94266512519538,28.34475984897756],[80.9763981662582,28.261517727256273],[81.00072795922644,28.175757046861378],[81.01542019489378,28.08830373002663],[81.02033337899914,28.0],[81.01542019489378,27.91169626997337],[81.00072795922644,27.824242953138622],[80.9763981662582,27.738482272743727],[80.94266512519538,27.65524015102244],[80.89985370366375,27.575318255111714],[80.84837619905575,27.499486276558915],[80.78872836788125,27.42847451877149],[80.72148465136127,27.362966863795904],[80.64729264324505,27.303594186159696],[80.56686685312823,27.250928277204913],[80.48098182533484,27.205476338424905],[80.39046467963206,27.16767609683668],[80.29618714561472,27.137891589430442],[80.19905716747274,27.116409657294387],[80.1000101599923,27.1034371831782],[80.0,27.0990990990991],[79.8999898400077,27.1034371831782],[79.80094283252726,27.116409657294387],[79.70381285438528,27.137891589430442],[79.60953532036794,27.16767609683668],[79.51901817466516,27.205476338424905],[79.43313314687177,27.250928277204913],[79.35270735675495,27.303594186159696],[79.27851534863873,27.362966863795904],[79.21127163211875,27.42847451877149],[79.15162380094425,27.499486276558915],[79.10014629633625,27.575318255111714],[79.05733487480462,27.655240151022443],[79.0236018337418,27.738482272743727],[78.99927204077356,27.824242953138622],[78.98457980510622,27.91169626997337],[78.97966662100086,28.0],[78.98457980510622,28.08830373002663],[78.99927204077356,28.175757046861378],[79.0236018337418,28.261517727256273],[79.05733487480462,28.34475984897756],[79.10014629633625,28.424681744888286],[79.15162380094425,28.50051372344108],[79.21127163211875,28.57152548122851],[79.27851534863873,28.637033136204096],[79.35270735675495,28.696405813840304],[79.43313314687177,28.749071722795087],[79.51901817466516,28.794523661575095],[79.60953532036794,28.83232390316332],[79.70381285438528,28.862108410569558],[79.80094283252726,28.883590342705613],[79.8999898400077,28.8965628168218],[80.0,28.9009009009009]]]},"properties":{"zone_type":"agricultural","zone_label":"Agricultural / Farmland","zone_color":"#f59e0b","name":"UP Gangetic Plains (North)","state":"Uttar Pradesh","subtype":"wheat_rice","area_sqkm":31415.93,"source":"curated_research","osm_id":""}},{"type":"Feature","geometry":{"type":"Polygon","coordinates":[[[82.0,26.9009009009009],[82.09824690137883,26.8965628168218],[82.19554763139016,26.883590342705613],[82.29096513081399,26.862108410569558],[82.38358047697037,26.83232390316332],[82.4725017334471,26.794523661575095],[82.55687253993501,26.749071722795087],[82.63588035944585,26.696405813840304],[82.70876430348767,26.637033136204096],[82.77482245983693,26.57152548122851],[82.8334186523369,26.500513723441085],[82.8839885676219,26.424681744888286],[82.9260451897634,26.34475984897756],[82.95918349049967,26.261517727256273],[82.9830843298794,26.175757046861378],[82.99751752975384,26.08830373002663],[83.00234409051819,26.0],[82.99751752975384,25.91169626997337],[82.9830843298794,25.824242953138622],[82.95918349049967,25.738482272743727],[82.9260451897634,25.65524015102244],[82.8839885676219,25.575318255111714],[82.8334186523369,25.499486276558915],[82.77482245983693,25.42847451877149],[82.70876430348767,25.362966863795904],[82.63588035944585,25.303594186159696],[82.55687253993501,25.250928277204913],[82.4725017334471,25.205476338424905],[82.38358047697037,25.16767609683668],[82.29096513081399,25.137891589430442],[82.19554763139016,25.116409657294387],[82.09824690137883,25.1034371831782],[82.0,25.0990990990991],[81.90175309862117,25.1034371831782],[81.80445236860984,25.116409657294387],[81.70903486918601,25.137891589430442],[81.61641952302963,25.16767609683668],[81.5274982665529,25.205476338424905],[81.44312746006499,25.250928277204913],[81.36411964055415,25.303594186159696],[81.29123569651233,25.362966863795904],[81.22517754016307,25.42847451877149],[81.1665813476631,25.499486276558915],[81.1160114323781,25.575318255111714],[81.0739548102366,25.655240151022443],[81.04081650950033,25.738482272743727],[81.0169156701206,25.824242953138622],[81.00248247024616,25.91169626997337],[80.99765590948181,26.0],[81.00248247024616,26.08830373002663],[81.0169156701206,26.175757046861378],[81.04081650950033,26.261517727256273],[81.0739548102366,26.34475984897756],[81.1160114323781,26.424681744888286],[81.1665813476631,26.50051372344108],[81.22517754016307,26.57152548122851],[81.29123569651233,26.637033136204096],[81.36411964055415,26.696405813840304],[81.44312746006499,26.749071722795087],[81.5274982665529,26.794523661575095],[81.61641952302963,26.83232390316332],[81.70903486918601,26.862108410569558],[81.80445236860984,26.883590342705613],[81.90175309862117,26.8965628168218],[82.0,26.9009009009009]]]},"properties":{"zone_type":"agricultural","zone_label":"Agricultural / Farmland","zone_color":"#f59e0b","name":"UP Gangetic Plains (East)","state":"Uttar Pradesh","subtype":"rice_wheat","area_sqkm":31415.93,"source":"curated_research","osm_id":""}},{"type":"Feature","geometry":{"type":"Polygon","coordinates":[[[86.0,26.31081081081081],[86.08805080074092,26.306906535139618],[86.17525362413723,26.295231308435053],[86.26076865932971,26.2758975695126],[86.34377234978221,26.249091512846988],[86.42346532458123,26.215071295417584],[86.49908009681484,26.174164550515577],[86.56988845489118,26.126765232456272],[86.6352084756142,26.073329822583688],[86.69441109147678,26.01437293310566],[86.74692614892473,25.950462351096974],[86.79224789924717,25.882213570399458],[86.82993986921309,25.810283864079803],[86.85963906454722,25.735365954530646],[86.88105946576324,25.65818134217524],[86.89399478268787,25.579473357023968],[86.89832044114794,25.5],[86.89399478268787,25.420526642976032],[86.88105946576324,25.34181865782476],[86.85963906454722,25.264634045469354],[86.82993986921309,25.189716135920197],[86.79224789924717,25.117786429600542],[86.74692614892473,25.049537648903026],[86.69441109147678,24.98562706689434],[86.6352084756142,24.926670177416312],[86.56988845489118,24.873234767543728],[86.49908009681484,24.825835449484423],[86.42346532458123,24.784928704582416],[86.34377234978221,24.750908487153012],[86.26076865932971,24.7241024304874],[86.17525362413723,24.704768691564947],[86.08805080074092,24.693093464860382],[86.0,24.68918918918919],[85.91194919925908,24.693093464860382],[85.82474637586277,24.704768691564947],[85.73923134067029,24.7241024304874],[85.65622765021779,24.750908487153012],[85.57653467541877,24.784928704582416],[85.50091990318516,24.825835449484423],[85.43011154510882,24.873234767543728],[85.3647915243858,24.926670177416312],[85.30558890852322,24.98562706689434],[85.25307385107527,25.049537648903026],[85.20775210075283,25.117786429600542],[85.17006013078691,25.189716135920197],[85.14036093545278,25.264634045469354],[85.11894053423676,25.34181865782476],[85.10600521731213,25.420526642976032],[85.10167955885206,25.5],[85.10600521731213,25.579473357023968],[85.11894053423676,25.65818134217524],[85.14036093545278,25.735365954530646],[85.17006013078691,25.810283864079803],[85.20775210075283,25.882213570399458],[85.25307385107527,25.950462351096974],[85.30558890852322,26.01437293310566],[85.3647915243858,26.073329822583688],[85.43011154510882,26.126765232456272],[85.50091990318516,26.174164550515577],[85.57653467541877,26.215071295417584],[85.65622765021779,26.249091512846988],[85.73923134067029,26.2758975695126],[85.82474637586277,26.295231308435053],[85.91194919925908,26.306906535139618],[86.0,26.31081081081081]]]},"properties":{"zone_type":"agricultural","zone_label":"Agricultural / Farmland","zone_color":"#f59e0b","name":"Bihar Paddy Belt","state":"Bihar","subtype":"rice","area_sqkm":25446.9,"source":"curated_research","osm_id":""}},{"type":"Feature","geometry":{"type":"Polygon","coordinates":[[[88.5,23.13063063063063],[88.56690548804629,23.12759397177526],[88.63316663966843,23.11851323989393],[88.69814532375426,23.10347588739869],[88.76121576005511,23.082626732214326],[88.82177054579155,23.056166563102565],[88.87922650527435,23.02435020595656],[88.93303030620507,22.98748406968821],[88.98266378856859,22.945923195342868],[89.02764895479731,22.900067836859957],[89.06755257314909,22.85035960640876],[89.10199034996565,22.7972772214218],[89.13063063063063,22.74133189428429],[89.15319759358488,22.68306240907939],[89.16947390663877,22.623029932802964],[89.17930282000006,22.56181261101864],[89.18258967586007,22.5],[89.17930282000006,22.43818738898136],[89.16947390663877,22.376970067197036],[89.15319759358488,22.31693759092061],[89.13063063063063,22.25866810571571],[89.10199034996565,22.2027227785782],[89.06755257314909,22.14964039359124],[89.02764895479731,22.099932163140043],[88.98266378856859,22.054076804657132],[88.93303030620507,22.01251593031179],[88.87922650527435,21.97564979404344],[88.82177054579155,21.943833436897435],[88.76121576005511,21.917373267785674],[88.69814532375426,21.89652411260131],[88.63316663966843,21.88148676010607],[88.56690548804629,21.87240602822474],[88.5,21.86936936936937],[88.43309451195371,21.87240602822474],[88.36683336033157,21.88148676010607],[88.30185467624574,21.89652411260131],[88.23878423994489,21.917373267785674],[88.17822945420845,21.943833436897435],[88.12077349472565,21.97564979404344],[88.06696969379493,22.01251593031179],[88.01733621143141,22.054076804657132],[87.97235104520269,22.099932163140043],[87.93244742685091,22.14964039359124],[87.89800965003435,22.2027227785782],[87.86936936936937,22.25866810571571],[87.84680240641512,22.31693759092061],[87.83052609336123,22.376970067197036],[87.82069717999994,22.43818738898136],[87.81741032413993,22.5],[87.82069717999994,22.56181261101864],[87.83052609336123,22.623029932802964],[87.84680240641512,22.68306240907939],[87.86936936936937,22.74133189428429],[87.89800965003435,22.7972772214218],[87.93244742685091,22.85035960640876],[87.97235104520269,22.900067836859957],[88.01733621143141,22.945923195342868],[88.06696969379493,22.98748406968821],[88.12077349472565,23.02435020595656],[88.17822945420845,23.056166563102565],[88.23878423994489,23.082626732214326],[88.30185467624574,23.10347588739869],[88.36683336033157,23.11851323989393],[88.43309451195371,23.12759397177526],[88.5,23.13063063063063]]]},"properties":{"zone_type":"agricultural","zone_label":"Agricultural / Farmland","zone_color":"#f59e0b","name":"West Bengal Rice Delta","state":"West Bengal","subtype":"rice","area_sqkm":15393.8,"source":"curated_research","osm_id":""}},{"type":"Feature","geometry":{"type":"Polygon","coordinates":[[[80.5,16.72072072072072],[80.57348985642494,16.71725025345744],[80.64627196535888,16.70687227416449],[80.71764539530601,16.689686728455644],[80.78692278111927,16.66585912253066],[80.8534369437024,16.635618929260076],[80.9165473153094,16.599257378236068],[80.97564610856205,16.557124651072243],[81.03016416977462,16.509626508963276],[81.07957646021505,16.457220384982808],[81.12340711251488,16.400410978752866],[81.16123401353221,16.33974539591063],[81.19269286953194,16.275807879182047],[81.21748071453364,16.209214181805017],[81.23535882803952,16.140605637489102],[81.24615503404337,16.070642984021305],[81.24976535917953,16.0],[81.24615503404337,15.929357015978695],[81.23535882803952,15.859394362510898],[81.21748071453364,15.790785818194982],[81.19269286953194,15.724192120817953],[81.16123401353221,15.66025460408937],[81.12340711251488,15.599589021247134],[81.07957646021505,15.542779615017192],[81.03016416977462,15.490373491036722],[80.97564610856205,15.442875348927757],[80.9165473153094,15.400742621763932],[80.8534369437024,15.364381070739924],[80.78692278111927,15.334140877469343],[80.71764539530601,15.310313271544354],[80.64627196535888,15.29312772583551],[80.57348985642494,15.28274974654256],[80.5,15.27927927927928],[80.42651014357506,15.28274974654256],[80.35372803464112,15.29312772583551],[80.28235460469399,15.310313271544354],[80.21307721888073,15.334140877469343],[80.1465630562976,15.364381070739924],[80.0834526846906,15.400742621763932],[80.02435389143795,15.442875348927757],[79.96983583022538,15.490373491036722],[79.92042353978495,15.542779615017192],[79.87659288748512,15.599589021247134],[79.83876598646779,15.66025460408937],[79.80730713046806,15.724192120817953],[79.78251928546636,15.790785818194982],[79.76464117196048,15.859394362510898],[79.75384496595663,15.929357015978695],[79.75023464082047,16.0],[79.75384496595663,16.070642984021305],[79.76464117196048,16.140605637489102],[79.78251928546636,16.209214181805017],[79.80730713046806,16.275807879182047],[79.83876598646779,16.33974539591063],[79.87659288748512,16.400410978752866],[79.92042353978495,16.457220384982808],[79.96983583022538,16.509626508963276],[80.02435389143795,16.557124651072243],[80.0834526846906,16.599257378236068],[80.1465630562976,16.635618929260076],[80.21307721888073,16.66585912253066],[80.28235460469399,16.689686728455644],[80.35372803464112,16.70687227416449],[80.42651014357506,16.71725025345744],[80.5,16.72072072072072]]]},"properties":{"zone_type":"agricultural","zone_label":"Agricultural / Farmland","zone_color":"#f59e0b","name":"Andhra Rice Bowl (Krishna)","state":"Andhra Pradesh","subtype":"rice","area_sqkm":20106.19,"source":"curated_research","osm_id":""}},{"type":"Feature","geometry":{"type":"Polygon","coordinates":[[[81.8,17.04054054054054],[81.8552577675336,17.03793769009308],[81.90998337255888,17.03015420562337],[81.96364977758341,17.017265046341734],[82.01574014578974,16.999394341897993],[82.06575281845653,16.976714196945057],[82.11320614620634,16.949443033677053],[82.15764312755228,16.917843488304182],[82.19863581007226,16.88221988172246],[82.23578941182475,16.842915288737107],[82.26874612331466,16.80030823406465],[82.29718855339434,16.754809046932973],[82.32084278591391,16.706855909386537],[82.33948101768351,16.656910636353764],[82.3529237523425,16.605454228116827],[82.36104152900757,16.55298223801598],[82.36375616905178,16.5],[82.36104152900757,16.44701776198402],[82.3529237523425,16.394545771883173],[82.33948101768351,16.343089363646236],[82.32084278591391,16.293144090613463],[82.29718855339434,16.245190953067027],[82.26874612331466,16.19969176593535],[82.23578941182475,16.157084711262893],[82.19863581007226,16.11778011827754],[82.15764312755228,16.082156511695818],[82.11320614620634,16.050556966322947],[82.06575281845653,16.023285803054943],[82.01574014578974,16.000605658102007],[81.96364977758341,15.982734953658266],[81.90998337255888,15.969845794376631],[81.8552577675336,15.962062309906921],[81.8,15.95945945945946],[81.7447422324664,15.962062309906921],[81.69001662744111,15.969845794376631],[81.63635022241658,15.982734953658266],[81.58425985421027,16.000605658102007],[81.53424718154346,16.023285803054943],[81.48679385379366,16.050556966322947],[81.44235687244772,16.082156511695818],[81.40136418992773,16.11778011827754],[81.36421058817524,16.157084711262893],[81.33125387668534,16.19969176593535],[81.30281144660566,16.245190953067027],[81.27915721408608,16.293144090613467],[81.26051898231648,16.343089363646236],[81.24707624765749,16.394545771883173],[81.23895847099243,16.44701776198402],[81.23624383094821,16.5],[81.23895847099243,16.55298223801598],[81.24707624765749,16.605454228116827],[81.26051898231648,16.656910636353764],[81.27915721408608,16.706855909386537],[81.30281144660566,16.754809046932973],[81.33125387668534,16.80030823406465],[81.36421058817524,16.842915288737107],[81.40136418992773,16.88221988172246],[81.44235687244772,16.917843488304182],[81.48679385379366,16.949443033677053],[81.53424718154346,16.976714196945057],[81.58425985421027,16.999394341897993],[81.63635022241658,17.017265046341734],[81.69001662744111,17.03015420562337],[81.7447422324664,17.03793769009308],[81.8,17.04054054054054]]]},"properties":{"zone_type":"agricultural","zone_label":"Agricultural / Farmland","zone_color":"#f59e0b","name":"Godavari Delta Rice (AP)","state":"Andhra Pradesh","subtype":"rice","area_sqkm":11309.73,"source":"curated_research","osm_id":""}},{"type":"Feature","geometry":{"type":"Polygon","coordinates":[[[79.5,11.430630630630631],[79.5629272251806,11.42759397177526],[79.6252484267832,11.41851323989393],[79.68636341756812,11.403475887398692],[79.74568362676526,11.382626732214325],[79.8026377683323,11.356166563102567],[79.85667734275168,11.324350205956561],[79.90728191938068,11.287484069688213],[79.95396414848311,11.245923195342868],[79.9962744546736,11.200067836859958],[80.03380536657437,11.15035960640876],[80.06619544098733,11.097277221421802],[80.09313274378968,11.041331894284292],[80.11435785402999,10.983062409079391],[80.12966636229382,10.923029932802965],[80.13891083927811,10.861812611018642],[80.14200225561598,10.8],[80.13891083927811,10.738187388981359],[80.12966636229382,10.676970067197036],[80.11435785402999,10.61693759092061],[80.09313274378968,10.55866810571571],[80.06619544098733,10.5027227785782],[80.03380536657437,10.449640393591242],[79.9962744546736,10.399932163140043],[79.95396414848311,10.354076804657133],[79.90728191938068,10.312515930311788],[79.85667734275168,10.27564979404344],[79.8026377683323,10.243833436897434],[79.74568362676526,10.217373267785677],[79.68636341756812,10.19652411260131],[79.6252484267832,10.181486760106072],[79.5629272251806,10.172406028224742],[79.5,10.16936936936937],[79.4370727748194,10.172406028224742],[79.3747515732168,10.181486760106072],[79.31363658243188,10.19652411260131],[79.25431637323474,10.217373267785675],[79.1973622316677,10.243833436897434],[79.14332265724832,10.27564979404344],[79.09271808061932,10.312515930311788],[79.04603585151689,10.354076804657133],[79.0037255453264,10.399932163140043],[78.96619463342563,10.449640393591242],[78.93380455901267,10.5027227785782],[78.90686725621032,10.55866810571571],[78.88564214597001,10.61693759092061],[78.87033363770618,10.676970067197036],[78.86108916072189,10.738187388981359],[78.85799774438402,10.8],[78.86108916072189,10.861812611018642],[78.87033363770618,10.923029932802965],[78.88564214597001,10.983062409079391],[78.90686725621032,11.041331894284292],[78.93380455901267,11.097277221421802],[78.96619463342563,11.150359606408758],[79.0037255453264,11.200067836859958],[79.04603585151689,11.245923195342868],[79.09271808061932,11.287484069688213],[79.14332265724832,11.324350205956561],[79.1973622316677,11.356166563102567],[79.25431637323474,11.382626732214327],[79.31363658243188,11.403475887398692],[79.3747515732168,11.41851323989393],[79.4370727748194,11.42759397177526],[79.5,11.430630630630631]]]},"properties":{"zone_type":"agricultural","zone_label":"Agricultural / Farmland","zone_color":"#f59e0b","name":"Cauvery Delta Rice (TN)","state":"Tamil Nadu","subtype":"rice","area_sqkm":15393.8,"source":"curated_research","osm_id":""}},{"type":"Feature","geometry":{"type":"Polygon","coordinates":[[[76.5,20.81081081081081],[76.58457378004896,20.806906535139618],[76.6683330683633,20.795231308435053],[76.75047121720908,20.7758975695126],[76.83019719131167,20.749091512846988],[76.90674318595777,20.715071295417584],[76.97937202137464,20.674164550515577],[77.04738424217427,20.626765232456272],[77.11012485349112,20.573329822583688],[77.16698962894067,20.51437293310566],[77.2174309296499,20.450462351096974],[77.26096297831896,20.382213570399458],[77.29716653752212,20.310283864079803],[77.32569294719339,20.235365954530646],[77.34626748241352,20.15818134217524],[77.35869199916114,20.079473357023968],[77.36284684254804,20.0],[77.35869199916114,19.920526642976032],[77.34626748241352,19.84181865782476],[77.32569294719339,19.764634045469354],[77.29716653752212,19.689716135920197],[77.26096297831896,19.617786429600542],[77.2174309296499,19.549537648903026],[77.16698962894067,19.48562706689434],[77.11012485349112,19.426670177416312],[77.04738424217427,19.373234767543728],[76.97937202137464,19.325835449484423],[76.90674318595777,19.284928704582416],[76.83019719131167,19.250908487153012],[76.75047121720908,19.2241024304874],[76.6683330683633,19.204768691564947],[76.58457378004896,19.193093464860382],[76.5,19.18918918918919],[76.41542621995104,19.193093464860382],[76.3316669316367,19.204768691564947],[76.24952878279092,19.2241024304874],[76.16980280868833,19.250908487153012],[76.09325681404223,19.284928704582416],[76.02062797862536,19.325835449484423],[75.95261575782573,19.373234767543728],[75.88987514650888,19.426670177416312],[75.83301037105933,19.48562706689434],[75.7825690703501,19.549537648903026],[75.73903702168104,19.617786429600542],[75.70283346247788,19.689716135920197],[75.67430705280661,19.764634045469354],[75.65373251758648,19.84181865782476],[75.64130800083886,19.920526642976032],[75.63715315745196,20.0],[75.64130800083886,20.079473357023968],[75.65373251758648,20.15818134217524],[75.67430705280661,20.235365954530646],[75.70283346247788,20.310283864079803],[75.73903702168104,20.382213570399458],[75.7825690703501,20.450462351096974],[75.83301037105933,20.51437293310566],[75.88987514650888,20.573329822583688],[75.95261575782573,20.626765232456272],[76.02062797862536,20.674164550515577],[76.09325681404223,20.715071295417584],[76.16980280868833,20.749091512846988],[76.24952878279092,20.7758975695126],[76.3316669316367,20.795231308435053],[76.41542621995104,20.806906535139618],[76.5,20.81081081081081]]]},"properties":{"zone_type":"agricultural","zone_label":"Agricultural / Farmland","zone_color":"#f59e0b","name":"Central Maharashtra Cotton","state":"Maharashtra","subtype":"cotton","area_sqkm":25446.9,"source":"curated_research","osm_id":""}},{"type":"Feature","geometry":{"type":"Polygon","coordinates":[[[78.5,21.22072072072072],[78.57541911122395,21.21725025345744],[78.65011189517853,21.20687227416449],[78.72335901952303,21.189686728455644],[78.79445507440907,21.16585912253066],[78.86271536596304,21.135618929260076],[78.92748251026238,21.099257378236068],[78.9881327643022,21.057124651072243],[79.04408203298127,21.009626508963276],[79.09479149425722,20.957220384982808],[79.13977278829739,20.900410978752866],[79.17859272065087,20.83974539591063],[79.21087743414796,20.775807879182047],[79.23631600934908,20.709214181805017],[79.25466345886889,20.640605637489102],[79.26574308673878,20.570642984021305],[79.26944819008563,20.5],[79.26574308673878,20.429357015978695],[79.25466345886889,20.359394362510898],[79.23631600934908,20.290785818194983],[79.21087743414796,20.224192120817953],[79.17859272065087,20.16025460408937],[79.13977278829739,20.099589021247134],[79.09479149425722,20.042779615017192],[79.04408203298127,19.990373491036724],[78.9881327643022,19.942875348927757],[78.92748251026238,19.900742621763932],[78.86271536596304,19.864381070739924],[78.79445507440907,19.83414087746934],[78.72335901952303,19.810313271544356],[78.65011189517853,19.79312772583551],[78.57541911122395,19.78274974654256],[78.5,19.77927927927928],[78.42458088877605,19.78274974654256],[78.34988810482147,19.79312772583551],[78.27664098047697,19.810313271544352],[78.20554492559093,19.83414087746934],[78.13728463403696,19.864381070739924],[78.07251748973762,19.900742621763932],[78.0118672356978,19.942875348927757],[77.95591796701873,19.990373491036724],[77.90520850574278,20.042779615017192],[77.86022721170261,20.099589021247134],[77.82140727934913,20.16025460408937],[77.78912256585204,20.224192120817953],[77.76368399065092,20.290785818194983],[77.74533654113111,20.359394362510898],[77.73425691326122,20.429357015978695],[77.73055180991437,20.5],[77.73425691326122,20.570642984021305],[77.74533654113111,20.640605637489102],[77.76368399065092,20.709214181805017],[77.78912256585204,20.775807879182047],[77.82140727934913,20.83974539591063],[77.86022721170261,20.900410978752866],[77.90520850574278,20.957220384982808],[77.95591796701873,21.009626508963276],[78.0118672356978,21.057124651072243],[78.07251748973762,21.099257378236068],[78.13728463403696,21.135618929260076],[78.20554492559093,21.16585912253066],[78.27664098047697,21.189686728455644],[78.34988810482147,21.20687227416449],[78.42458088877605,21.21725025345744],[78.5,21.22072072072072]]]},"properties":{"zone_type":"agricultural","zone_label":"Agricultural / Farmland","zone_color":"#f59e0b","name":"Vidarbha Cotton Zone (MH)","state":"Maharashtra","subtype":"cotton_soybean","area_sqkm":20106.19,"source":"curated_research","osm_id":""}},{"type":"Feature","geometry":{"type":"Polygon","coordinates":[[[71.5,23.22072072072072],[71.57646341491004,23.21725025345744],[71.65219044533535,23.20687227416449],[71.7264517985763,23.189686728455644],[71.79853229720584,23.16585912253066],[71.86773776661892,23.135618929260076],[71.93340172031354,23.099257378236068],[71.99489177852007,23.057124651072243],[72.0516157583641,23.009626508963276],[72.10302737691121,22.957220384982808],[72.1486315121704,22.900410978752866],[72.1879889713893,22.83974539591063],[72.22072072072072,22.775807879182047],[72.24651153552557,22.709214181805017],[72.2651130361586,22.640605637489102],[72.27634608000008,22.570642984021305],[72.28010248669722,22.5],[72.27634608000008,22.429357015978695],[72.2651130361586,22.359394362510898],[72.24651153552557,22.290785818194983],[72.22072072072072,22.224192120817953],[72.1879889713893,22.16025460408937],[72.1486315121704,22.099589021247134],[72.10302737691121,22.042779615017192],[72.0516157583641,21.990373491036724],[71.99489177852007,21.942875348927757],[71.93340172031354,21.900742621763932],[71.86773776661892,21.864381070739924],[71.79853229720584,21.83414087746934],[71.7264517985763,21.810313271544356],[71.65219044533535,21.79312772583551],[71.57646341491004,21.78274974654256],[71.5,21.77927927927928],[71.42353658508996,21.78274974654256],[71.34780955466465,21.79312772583551],[71.2735482014237,21.810313271544352],[71.20146770279416,21.83414087746934],[71.13226223338108,21.864381070739924],[71.06659827968646,21.900742621763932],[71.00510822147993,21.942875348927757],[70.9483842416359,21.990373491036724],[70.89697262308879,22.042779615017192],[70.8513684878296,22.099589021247134],[70.8120110286107,22.16025460408937],[70.77927927927928,22.224192120817953],[70.75348846447443,22.290785818194983],[70.7348869638414,22.359394362510898],[70.72365391999992,22.429357015978695],[70.71989751330278,22.5],[70.72365391999992,22.570642984021305],[70.7348869638414,22.640605637489102],[70.75348846447443,22.709214181805017],[70.77927927927928,22.775807879182047],[70.8120110286107,22.83974539591063],[70.8513684878296,22.900410978752866],[70.89697262308879,22.957220384982808],[70.9483842416359,23.009626508963276],[71.00510822147993,23.057124651072243],[71.06659827968646,23.099257378236068],[71.13226223338108,23.135618929260076],[71.20146770279416,23.16585912253066],[71.2735482014237,23.189686728455644],[71.34780955466465,23.20687227416449],[71.42353658508996,23.21725025345744],[71.5,23.22072072072072]]]},"properties":{"zone_type":"agricultural","zone_label":"Agricultural / Farmland","zone_color":"#f59e0b","name":"Gujarat Cotton & Groundnut","state":"Gujarat","subtype":"cotton_groundnut","area_sqkm":20106.19,"source":"curated_research","osm_id":""}},{"type":"Feature","geometry":{"type":"Polygon","coordinates":[[[74.0,26.9009009009009],[74.09824690137883,26.8965628168218],[74.19554763139016,26.883590342705613],[74.29096513081399,26.862108410569558],[74.38358047697037,26.83232390316332],[74.4725017334471,26.794523661575095],[74.55687253993501,26.749071722795087],[74.63588035944585,26.696405813840304],[74.70876430348767,26.637033136204096],[74.77482245983693,26.57152548122851],[74.8334186523369,26.500513723441085],[74.8839885676219,26.424681744888286],[74.9260451897634,26.34475984897756],[74.95918349049967,26.261517727256273],[74.9830843298794,26.175757046861378],[74.99751752975384,26.08830373002663],[75.00234409051819,26.0],[74.99751752975384,25.91169626997337],[74.9830843298794,25.824242953138622],[74.95918349049967,25.738482272743727],[74.9260451897634,25.65524015102244],[74.8839885676219,25.575318255111714],[74.8334186523369,25.499486276558915],[74.77482245983693,25.42847451877149],[74.70876430348767,25.362966863795904],[74.63588035944585,25.303594186159696],[74.55687253993501,25.250928277204913],[74.4725017334471,25.205476338424905],[74.38358047697037,25.16767609683668],[74.29096513081399,25.137891589430442],[74.19554763139016,25.116409657294387],[74.09824690137883,25.1034371831782],[74.0,25.0990990990991],[73.90175309862117,25.1034371831782],[73.80445236860984,25.116409657294387],[73.70903486918601,25.137891589430442],[73.61641952302963,25.16767609683668],[73.5274982665529,25.205476338424905],[73.44312746006499,25.250928277204913],[73.36411964055415,25.303594186159696],[73.29123569651233,25.362966863795904],[73.22517754016307,25.42847451877149],[73.1665813476631,25.499486276558915],[73.1160114323781,25.575318255111714],[73.0739548102366,25.655240151022443],[73.04081650950033,25.738482272743727],[73.0169156701206,25.824242953138622],[73.00248247024616,25.91169626997337],[72.99765590948181,26.0],[73.00248247024616,26.08830373002663],[73.0169156701206,26.175757046861378],[73.04081650950033,26.261517727256273],[73.0739548102366,26.34475984897756],[73.1160114323781,26.424681744888286],[73.1665813476631,26.50051372344108],[73.22517754016307,26.57152548122851],[73.29123569651233,26.637033136204096],[73.36411964055415,26.696405813840304],[73.44312746006499,26.749071722795087],[73.5274982665529,26.794523661575095],[73.61641952302963,26.83232390316332],[73.70903486918601,26.862108410569558],[73.80445236860984,26.883590342705613],[73.90175309862117,26.8965628168218],[74.0,26.9009009009009]]]},"properties":{"zone_type":"agricultural","zone_label":"Agricultural / Farmland","zone_color":"#f59e0b","name":"Rajasthan Kharif Crops","state":"Rajasthan","subtype":"bajra_jowar","area_sqkm":31415.93,"source":"curated_research","osm_id":""}},{"type":"Feature","geometry":{"type":"Polygon","coordinates":[[[77.0,23.9009009009009],[77.09592967347803,23.8965628168218],[77.19093549175996,23.883590342705613],[77.2841024968803,23.862108410569558],[77.37453343964945,23.83232390316332],[77.46135742065398,23.794523661575095],[77.54373827749399,23.749071722795087],[77.62088263748414,23.696405813840304],[77.69204755826637,23.637033136204096],[77.75654768275079,23.57152548122851],[77.8137618394793,23.500513723441085],[77.86313902484616,23.424681744888286],[77.90420370956396,23.34475984897756],[77.93656041827063,23.261517727256273],[77.95989753817335,23.175757046861378],[77.97399032005009,23.08830373002663],[77.97870304270748,23.0],[77.97399032005009,22.91169626997337],[77.95989753817335,22.824242953138622],[77.93656041827063,22.738482272743727],[77.90420370956396,22.65524015102244],[77.86313902484616,22.575318255111714],[77.8137618394793,22.499486276558915],[77.75654768275079,22.42847451877149],[77.69204755826637,22.362966863795904],[77.62088263748414,22.303594186159696],[77.54373827749399,22.250928277204913],[77.46135742065398,22.205476338424905],[77.37453343964945,22.16767609683668],[77.2841024968803,22.137891589430442],[77.19093549175996,22.116409657294387],[77.09592967347803,22.1034371831782],[77.0,22.0990990990991],[76.90407032652197,22.1034371831782],[76.80906450824003,22.116409657294387],[76.7158975031197,22.137891589430442],[76.62546656035055,22.16767609683668],[76.53864257934602,22.205476338424905],[76.45626172250601,22.250928277204913],[76.37911736251586,22.303594186159696],[76.30795244173363,22.362966863795904],[76.24345231724921,22.42847451877149],[76.1862381605207,22.499486276558915],[76.13686097515384,22.575318255111714],[76.09579629043604,22.655240151022443],[76.06343958172937,22.738482272743727],[76.04010246182665,22.824242953138622],[76.02600967994991,22.91169626997337],[76.02129695729252,23.0],[76.02600967994991,23.08830373002663],[76.04010246182665,23.175757046861378],[76.06343958172937,23.261517727256273],[76.09579629043604,23.34475984897756],[76.13686097515384,23.424681744888286],[76.1862381605207,23.50051372344108],[76.24345231724921,23.57152548122851],[76.30795244173363,23.637033136204096],[76.37911736251586,23.696405813840304],[76.45626172250601,23.749071722795087],[76.53864257934602,23.794523661575095],[76.62546656035055,23.83232390316332],[76.7158975031197,23.862108410569558],[76.80906450824003,23.883590342705613],[76.90407032652197,23.8965628168218],[77.0,23.9009009009009]]]},"properties":{"zone_type":"agricultural","zone_label":"Agricultural / Farmland","zone_color":"#f59e0b","name":"MP Soybean Belt","state":"Madhya Pradesh","subtype":"soybean_wheat","area_sqkm":31415.93,"source":"curated_research","osm_id":""}},{"type":"Feature","geometry":{"type":"Polygon","coordinates":[[[81.5,21.72072072072072],[81.57566887867,21.71725025345744],[81.6506090246736,21.70687227416449],[81.72409872343832,21.689686728455644],[81.79543022899149,21.66585912253066],[81.8639165799409,21.635618929260076],[81.92889821528844,21.599257378236068],[81.98974932636312,21.557124651072243],[82.04588388370072,21.509626508963276],[82.0967612808278,21.457220384982808],[82.14189154059761,21.400410978752866],[82.18084003393786,21.33974539591063],[82.21323166556625,21.275807879182047],[82.23875448636316,21.209214181805017],[82.25716269761212,21.140605637489102],[82.26827901817583,21.070642984021305],[82.27199639181048,21.0],[82.26827901817583,20.929357015978695],[82.25716269761212,20.859394362510898],[82.23875448636316,20.790785818194983],[82.21323166556625,20.724192120817953],[82.18084003393786,20.66025460408937],[82.14189154059761,20.599589021247134],[82.0967612808278,20.542779615017192],[82.04588388370072,20.490373491036724],[81.98974932636312,20.442875348927757],[81.92889821528844,20.400742621763932],[81.8639165799409,20.364381070739924],[81.79543022899149,20.33414087746934],[81.72409872343832,20.310313271544356],[81.6506090246736,20.29312772583551],[81.57566887867,20.28274974654256],[81.5,20.27927927927928],[81.42433112133,20.28274974654256],[81.3493909753264,20.29312772583551],[81.27590127656168,20.310313271544352],[81.20456977100851,20.33414087746934],[81.1360834200591,20.364381070739924],[81.07110178471156,20.400742621763932],[81.01025067363688,20.442875348927757],[80.95411611629928,20.490373491036724],[80.9032387191722,20.542779615017192],[80.85810845940239,20.599589021247134],[80.81915996606214,20.66025460408937],[80.78676833443375,20.724192120817953],[80.76124551363684,20.790785818194983],[80.74283730238788,20.859394362510898],[80.73172098182417,20.929357015978695],[80.72800360818952,21.0],[80.73172098182417,21.070642984021305],[80.74283730238788,21.140605637489102],[80.76124551363684,21.209214181805017],[80.78676833443375,21.275807879182047],[80.81915996606214,21.33974539591063],[80.85810845940239,21.400410978752866],[80.9032387191722,21.457220384982808],[80.95411611629928,21.509626508963276],[81.01025067363688,21.557124651072243],[81.07110178471156,21.599257378236068],[81.1360834200591,21.635618929260076],[81.20456977100851,21.66585912253066],[81.27590127656168,21.689686728455644],[81.3493909753264,21.70687227416449],[81.42433112133,21.71725025345744],[81.5,21.72072072072072]]]},"properties":{"zone_type":"agricultural","zone_label":"Agricultural / Farmland","zone_color":"#f59e0b","name":"Chhattisgarh Rice Bowl","state":"Chhattisgarh","subtype":"rice","area_sqkm":20106.19,"source":"curated_research","osm_id":""}},{"type":"Feature","geometry":{"type":"Polygon","coordinates":[[[83.0,21.22072072072072],[83.07541911122395,21.21725025345744],[83.15011189517853,21.20687227416449],[83.22335901952303,21.189686728455644],[83.29445507440907,21.16585912253066],[83.36271536596304,21.135618929260076],[83.42748251026238,21.099257378236068],[83.4881327643022,21.057124651072243],[83.54408203298127,21.009626508963276],[83.59479149425722,20.957220384982808],[83.63977278829739,20.900410978752866],[83.67859272065087,20.83974539591063],[83.71087743414796,20.775807879182047],[83.73631600934908,20.709214181805017],[83.75466345886889,20.640605637489102],[83.76574308673878,20.570642984021305],[83.76944819008563,20.5],[83.76574308673878,20.429357015978695],[83.75466345886889,20.359394362510898],[83.73631600934908,20.290785818194983],[83.71087743414796,20.224192120817953],[83.67859272065087,20.16025460408937],[83.63977278829739,20.099589021247134],[83.59479149425722,20.042779615017192],[83.54408203298127,19.990373491036724],[83.4881327643022,19.942875348927757],[83.42748251026238,19.900742621763932],[83.36271536596304,19.864381070739924],[83.29445507440907,19.83414087746934],[83.22335901952303,19.810313271544356],[83.15011189517853,19.79312772583551],[83.07541911122395,19.78274974654256],[83.0,19.77927927927928],[82.92458088877605,19.78274974654256],[82.84988810482147,19.79312772583551],[82.77664098047697,19.810313271544352],[82.70554492559093,19.83414087746934],[82.63728463403696,19.864381070739924],[82.57251748973762,19.900742621763932],[82.5118672356978,19.942875348927757],[82.45591796701873,19.990373491036724],[82.40520850574278,20.042779615017192],[82.36022721170261,20.099589021247134],[82.32140727934913,20.16025460408937],[82.28912256585204,20.224192120817953],[82.26368399065092,20.290785818194983],[82.24533654113111,20.359394362510898],[82.23425691326122,20.429357015978695],[82.23055180991437,20.5],[82.23425691326122,20.570642984021305],[82.24533654113111,20.640605637489102],[82.26368399065092,20.709214181805017],[82.28912256585204,20.775807879182047],[82.32140727934913,20.83974539591063],[82.36022721170261,20.900410978752866],[82.40520850574278,20.957220384982808],[82.45591796701873,21.009626508963276],[82.5118672356978,21.057124651072243],[82.57251748973762,21.099257378236068],[82.63728463403696,21.135618929260076],[82.70554492559093,21.16585912253066],[82.77664098047697,21.189686728455644],[82.84988810482147,21.20687227416449],[82.92458088877605,21.21725025345744],[83.0,21.22072072072072]]]},"properties":{"zone_type":"agricultural","zone_label":"Agricultural / Farmland","zone_color":"#f59e0b","name":"Odisha Rice Belt","state":"Odisha","subtype":"rice","area_sqkm":20106.19,"source":"curated_research","osm_id":""}},{"type":"Feature","geometry":{"type":"Polygon","coordinates":[[[84.5,23.54054054054054],[84.55755780408681,23.53793769009308],[84.61456129505598,23.53015420562337],[84.67046149812818,23.517265046341734],[84.72472006378968,23.499394341897993],[84.77681445239239,23.476714196945057],[84.8262429664964,23.449443033677053],[84.87252958249049,23.417843488304182],[84.91522853495982,23.38221988172246],[84.95392860965048,23.342915288737107],[84.98825710368759,23.30030823406465],[85.0178834149077,23.254809046932973],[85.04252222573837,23.206855909386537],[85.06193625096238,23.156910636353764],[85.07593852290401,23.105454228116827],[85.08439419203005,23.05298223801598],[85.08722182562448,23.0],[85.08439419203005,22.94701776198402],[85.07593852290401,22.894545771883173],[85.06193625096238,22.843089363646236],[85.04252222573837,22.793144090613463],[85.0178834149077,22.745190953067027],[84.98825710368759,22.69969176593535],[84.95392860965048,22.657084711262893],[84.91522853495982,22.61778011827754],[84.87252958249049,22.582156511695818],[84.8262429664964,22.550556966322947],[84.77681445239239,22.523285803054943],[84.72472006378968,22.500605658102007],[84.67046149812818,22.482734953658266],[84.61456129505598,22.46984579437663],[84.55755780408681,22.46206230990692],[84.5,22.45945945945946],[84.44244219591319,22.46206230990692],[84.38543870494402,22.46984579437663],[84.32953850187182,22.482734953658266],[84.27527993621032,22.500605658102007],[84.22318554760761,22.523285803054943],[84.1737570335036,22.550556966322947],[84.12747041750951,22.582156511695818],[84.08477146504018,22.61778011827754],[84.04607139034952,22.657084711262893],[84.01174289631241,22.69969176593535],[83.9821165850923,22.745190953067027],[83.95747777426163,22.793144090613467],[83.93806374903762,22.843089363646236],[83.92406147709599,22.894545771883173],[83.91560580796995,22.94701776198402],[83.91277817437552,23.0],[83.91560580796995,23.05298223801598],[83.92406147709599,23.105454228116827],[83.93806374903762,23.156910636353764],[83.95747777426163,23.206855909386537],[83.9821165850923,23.254809046932973],[84.01174289631241,23.30030823406465],[84.04607139034952,23.342915288737107],[84.08477146504018,23.38221988172246],[84.12747041750951,23.417843488304182],[84.1737570335036,23.449443033677053],[84.22318554760761,23.476714196945057],[84.27527993621032,23.499394341897993],[84.32953850187182,23.517265046341734],[84.38543870494402,23.53015420562337],[84.44244219591319,23.53793769009308],[84.5,23.54054054054054]]]},"properties":{"zone_type":"agricultural","zone_label":"Agricultural / Farmland","zone_color":"#f59e0b","name":"Jharkhand Paddy Fields","state":"Jharkhand","subtype":"rice","area_sqkm":11309.73,"source":"curated_research","osm_id":""}},{"type":"Feature","geometry":{"type":"Polygon","coordinates":[[[76.5,16.22072072072072],[76.57330920664253,16.21725025345744],[76.6459124055502,16.20687227416449],[76.71711038822859,16.189686728455644],[76.78621747918373,16.16585912253066],[76.85256813935194,16.135618929260076],[76.91552337560483,16.099257378236068],[76.97447689460247,16.057124651072243],[77.02886094172965,16.009626508963276],[77.07815176888316,15.957220384982808],[77.12187467845241,15.900410978752866],[77.1596085949169,15.83974539591063],[77.1909901200336,15.775807879182047],[77.21571703256075,15.709214181805018],[77.23355119881361,15.640605637489102],[77.24432086602202,15.570642984021305],[77.24792231640347,15.5],[77.24432086602202,15.429357015978695],[77.23355119881361,15.359394362510898],[77.21571703256075,15.290785818194982],[77.1909901200336,15.224192120817953],[77.1596085949169,15.16025460408937],[77.12187467845241,15.099589021247134],[77.07815176888316,15.042779615017192],[77.02886094172965,14.990373491036722],[76.97447689460247,14.942875348927757],[76.91552337560483,14.900742621763932],[76.85256813935194,14.864381070739924],[76.78621747918373,14.834140877469343],[76.71711038822859,14.810313271544354],[76.6459124055502,14.79312772583551],[76.57330920664253,14.78274974654256],[76.5,14.77927927927928],[76.42669079335747,14.78274974654256],[76.3540875944498,14.79312772583551],[76.28288961177141,14.810313271544354],[76.21378252081627,14.834140877469343],[76.14743186064806,14.864381070739924],[76.08447662439517,14.900742621763932],[76.02552310539753,14.942875348927757],[75.97113905827035,14.990373491036722],[75.92184823111684,15.042779615017192],[75.87812532154759,15.099589021247134],[75.8403914050831,15.16025460408937],[75.8090098799664,15.224192120817953],[75.78428296743925,15.290785818194982],[75.76644880118639,15.359394362510898],[75.75567913397798,15.429357015978695],[75.75207768359653,15.5],[75.75567913397798,15.570642984021305],[75.76644880118639,15.640605637489102],[75.78428296743925,15.709214181805018],[75.8090098799664,15.775807879182047],[75.8403914050831,15.83974539591063],[75.87812532154759,15.900410978752866],[75.92184823111684,15.957220384982808],[75.97113905827035,16.009626508963276],[76.02552310539753,16.057124651072243],[76.08447662439517,16.099257378236068],[76.14743186064806,16.135618929260076],[76.21378252081627,16.16585912253066],[76.28288961177141,16.189686728455644],[76.3540875944498,16.20687227416449],[76.42669079335747,16.21725025345744],[76.5,16.22072072072072]]]},"properties":{"zone_type":"agricultural","zone_label":"Agricultural / Farmland","zone_color":"#f59e0b","name":"Karnataka Maize & Ragi Belt","state":"Karnataka","subtype":"maize_ragi","area_sqkm":20106.19,"source":"curated_research","osm_id":""}},{"type":"Feature","geometry":{"type":"Polygon","coordinates":[[[76.5,10.63063063063063],[76.56276617017848,10.627593971775259],[76.62492786782664,10.618513239893929],[76.68588644181513,10.603475887398691],[76.74505482775307,10.582626732214324],[76.80186320173915,10.556166563102567],[76.85576446807727,10.52435020595656],[76.90623952810716,10.487484069688213],[76.95280227940827,10.445923195342868],[76.99500429723177,10.400067836859957],[77.03243915307607,10.350359606408759],[77.06474632881537,10.297277221421801],[77.09161468868646,10.241331894284292],[77.112785475696,10.18306240907939],[77.12805480359197,10.123029932802964],[77.13727562039966,10.061812611018642],[77.14035912461263,10.0],[77.13727562039966,9.938187388981358],[77.12805480359197,9.876970067197036],[77.112785475696,9.81693759092061],[77.09161468868646,9.75866810571571],[77.06474632881537,9.702722778578199],[77.03243915307607,9.649640393591241],[76.99500429723177,9.599932163140043],[76.95280227940827,9.554076804657132],[76.90623952810716,9.512515930311787],[76.85576446807727,9.47564979404344],[76.80186320173915,9.443833436897433],[76.74505482775307,9.417373267785676],[76.68588644181513,9.396524112601309],[76.62492786782664,9.381486760106071],[76.56276617017848,9.372406028224741],[76.5,9.36936936936937],[76.43723382982152,9.372406028224741],[76.37507213217336,9.381486760106071],[76.31411355818487,9.396524112601309],[76.25494517224693,9.417373267785674],[76.19813679826085,9.443833436897433],[76.14423553192273,9.47564979404344],[76.09376047189284,9.512515930311787],[76.04719772059173,9.554076804657132],[76.00499570276823,9.599932163140043],[75.96756084692393,9.649640393591241],[75.93525367118463,9.702722778578199],[75.90838531131354,9.75866810571571],[75.887214524304,9.81693759092061],[75.87194519640803,9.876970067197036],[75.86272437960034,9.938187388981358],[75.85964087538737,10.0],[75.86272437960034,10.061812611018642],[75.87194519640803,10.123029932802964],[75.887214524304,10.18306240907939],[75.90838531131355,10.241331894284292],[75.93525367118463,10.297277221421801],[75.96756084692393,10.350359606408757],[76.00499570276823,10.400067836859957],[76.04719772059173,10.445923195342868],[76.09376047189284,10.487484069688213],[76.14423553192273,10.52435020595656],[76.19813679826085,10.556166563102567],[76.25494517224693,10.582626732214326],[76.31411355818487,10.603475887398691],[76.37507213217336,10.618513239893929],[76.43723382982152,10.627593971775259],[76.5,10.63063063063063]]]},"properties":{"zone_type":"agricultural","zone_label":"Agricultural / Farmland","zone_color":"#f59e0b","name":"Kerala Coconut Plantation","state":"Kerala","subtype":"coconut_rubber","area_sqkm":15393.8,"source":"curated_research","osm_id":""}},{"type":"Feature","geometry":{"type":"Polygon","coordinates":[[[94.0,27.13063063063063],[94.069069435336,27.12759397177526],[94.13747369425253,27.11851323989393],[94.20455400634265,27.10347588739869],[94.26966435153108,27.082626732214326],[94.33217768160074,27.056166563102565],[94.3914919590098,27.02435020595656],[94.4470359548423,26.98748406968821],[94.49827475005499,26.945923195342868],[94.54471488703994,26.900067836859957],[94.58590912189126,26.85035960640876],[94.62146073160827,26.7972772214218],[94.65102733475487,26.74133189428429],[94.67432418878006,26.68306240907939],[94.6911269322442,26.623029932802964],[94.70127374554241,26.56181261101864],[94.70466690931582,26.5],[94.70127374554241,26.43818738898136],[94.6911269322442,26.376970067197036],[94.67432418878006,26.31693759092061],[94.65102733475487,26.25866810571571],[94.62146073160827,26.2027227785782],[94.58590912189126,26.14964039359124],[94.54471488703994,26.099932163140043],[94.49827475005499,26.054076804657132],[94.4470359548423,26.01251593031179],[94.3914919590098,25.97564979404344],[94.33217768160074,25.943833436897435],[94.26966435153108,25.917373267785674],[94.20455400634265,25.89652411260131],[94.13747369425253,25.88148676010607],[94.069069435336,25.87240602822474],[94.0,25.86936936936937],[93.930930564664,25.87240602822474],[93.86252630574747,25.88148676010607],[93.79544599365735,25.89652411260131],[93.73033564846892,25.917373267785674],[93.66782231839926,25.943833436897435],[93.6085080409902,25.97564979404344],[93.5529640451577,26.01251593031179],[93.50172524994501,26.054076804657132],[93.45528511296006,26.099932163140043],[93.41409087810874,26.14964039359124],[93.37853926839173,26.2027227785782],[93.34897266524513,26.25866810571571],[93.32567581121994,26.31693759092061],[93.3088730677558,26.376970067197036],[93.29872625445759,26.43818738898136],[93.29533309068418,26.5],[93.29872625445759,26.56181261101864],[93.3088730677558,26.623029932802964],[93.32567581121994,26.68306240907939],[93.34897266524513,26.74133189428429],[93.37853926839173,26.7972772214218],[93.41409087810874,26.85035960640876],[93.45528511296006,26.900067836859957],[93.50172524994501,26.945923195342868],[93.5529640451577,26.98748406968821],[93.6085080409902,27.02435020595656],[93.66782231839926,27.056166563102565],[93.73033564846892,27.082626732214326],[93.79544599365735,27.10347588739869],[93.86252630574747,27.11851323989393],[93.930930564664,27.12759397177526],[94.0,27.13063063063063]]]},"properties":{"zone_type":"agricultural","zone_label":"Agricultural / Farmland","zone_color":"#f59e0b","name":"Assam Tea Gardens","state":"Assam","subtype":"tea","area_sqkm":15393.8,"source":"curated_research","osm_id":""}},{"type":"Feature","geometry":{"type":"Polygon","coordinates":[[[88.3,27.225225225225227],[88.32477639827246,27.22414070420545],[88.34931418628541,27.220897585676404],[88.37337705172655,27.21552710264239],[88.3967332560476,27.208080975790832],[88.4191578662331,27.198630915393775],[88.4404349210285,27.18726793069877],[88.46035951076483,27.174101453460075],[88.47873975075109,27.159258284051024],[88.49539862922852,27.142881370307126],[88.51017571209073,27.125128430860272],[88.52292868795176,27.106170436222072],[88.5335347386826,27.08618996224439],[88.54189172221686,27.06537943181407],[88.54791915623471,27.043939261715344],[88.55155899325162,27.02207593250666],[88.55277617964738,27.0],[88.55155899325162,26.97792406749334],[88.54791915623471,26.956060738284656],[88.54189172221686,26.93462056818593],[88.5335347386826,26.91381003775561],[88.52292868795176,26.893829563777928],[88.51017571209073,26.874871569139728],[88.49539862922852,26.857118629692874],[88.47873975075109,26.840741715948976],[88.46035951076483,26.825898546539925],[88.4404349210285,26.81273206930123],[88.4191578662331,26.801369084606225],[88.3967332560476,26.791919024209168],[88.37337705172655,26.78447289735761],[88.34931418628541,26.779102414323596],[88.32477639827246,26.77585929579455],[88.3,26.774774774774773],[88.27522360172753,26.77585929579455],[88.25068581371458,26.779102414323596],[88.22662294827344,26.78447289735761],[88.2032667439524,26.791919024209168],[88.18084213376689,26.801369084606225],[88.1595650789715,26.81273206930123],[88.13964048923516,26.825898546539925],[88.1212602492489,26.840741715948976],[88.10460137077148,26.857118629692874],[88.08982428790927,26.874871569139728],[88.07707131204823,26.893829563777928],[88.06646526131739,26.91381003775561],[88.05810827778313,26.93462056818593],[88.05208084376528,26.956060738284656],[88.04844100674838,26.97792406749334],[88.04722382035261,27.0],[88.04844100674838,27.022075932506656],[88.05208084376528,27.043939261715344],[88.05810827778313,27.06537943181407],[88.06646526131739,27.08618996224439],[88.07707131204823,27.106170436222072],[88.08982428790927,27.125128430860272],[88.10460137077148,27.142881370307126],[88.1212602492489,27.159258284051024],[88.13964048923516,27.174101453460075],[88.1595650789715,27.18726793069877],[88.18084213376689,27.198630915393775],[88.2032667439524,27.208080975790832],[88.22662294827344,27.21552710264239],[88.25068581371458,27.220897585676404],[88.27522360172753,27.22414070420545],[88.3,27.225225225225227]]]},"properties":{"zone_type":"agricultural","zone_label":"Agricultural / Farmland","zone_color":"#f59e0b","name":"Darjeeling Tea (WB)","state":"West Bengal","subtype":"tea","area_sqkm":1963.5,"source":"curated_research","osm_id":""}},{"type":"Feature","geometry":{"type":"Polygon","coordinates":[[[77.8,29.13063063063063],[77.87033614858888,29.12759397177526],[77.9399949216172,29.11851323989393],[78.00830546702133,29.10347588739869],[78.0746099169067,29.082626732214326],[78.13826972317521,29.056166563102565],[78.1986718070925,29.02435020595656],[78.25523446357131,28.98748406968821],[78.30741296330946,28.945923195342868],[78.3547047988308,28.900067836859957],[78.39665452390689,28.85035960640876],[78.43285813975324,28.7972772214218],[78.46296698575831,28.74133189428429],[78.48669109727591,28.68306240907939],[78.5038019981432,28.623029932802964],[78.51413490103106,28.56181261101864],[78.51759029443615,28.5],[78.51413490103106,28.43818738898136],[78.5038019981432,28.376970067197036],[78.48669109727591,28.31693759092061],[78.46296698575831,28.25866810571571],[78.43285813975324,28.2027227785782],[78.39665452390689,28.14964039359124],[78.3547047988308,28.099932163140043],[78.30741296330946,28.054076804657132],[78.25523446357131,28.01251593031179],[78.1986718070925,27.97564979404344],[78.13826972317521,27.943833436897435],[78.0746099169067,27.917373267785674],[78.00830546702133,27.89652411260131],[77.9399949216172,27.88148676010607],[77.87033614858888,27.87240602822474],[77.8,27.86936936936937],[77.72966385141112,27.87240602822474],[77.6600050783828,27.88148676010607],[77.59169453297866,27.89652411260131],[77.5253900830933,27.917373267785674],[77.46173027682478,27.943833436897435],[77.4013281929075,27.97564979404344],[77.34476553642868,28.01251593031179],[77.29258703669053,28.054076804657132],[77.2452952011692,28.099932163140043],[77.2033454760931,28.14964039359124],[77.16714186024676,28.2027227785782],[77.13703301424168,28.25866810571571],[77.11330890272409,28.31693759092061],[77.09619800185679,28.376970067197036],[77.08586509896894,28.43818738898136],[77.08240970556385,28.5],[77.08586509896894,28.56181261101864],[77.09619800185679,28.623029932802964],[77.11330890272409,28.68306240907939],[77.13703301424168,28.74133189428429],[77.16714186024676,28.7972772214218],[77.2033454760931,28.85035960640876],[77.2452952011692,28.900067836859957],[77.29258703669053,28.945923195342868],[77.34476553642868,28.98748406968821],[77.4013281929075,29.02435020595656],[77.46173027682478,29.056166563102565],[77.5253900830933,29.082626732214326],[77.59169453297866,29.10347588739869],[77.6600050783828,29.11851323989393],[77.72966385141112,29.12759397177526],[77.8,29.13063063063063]]]},"properties":{"zone_type":"agricultural","zone_label":"Agricultural / Farmland","zone_color":"#f59e0b","name":"Sugarcane Belt (UP Western)","state":"Uttar Pradesh","subtype":"sugarcane","area_sqkm":15393.8,"source":"curated_research","osm_id":""}},{"type":"Feature","geometry":{"type":"Polygon","coordinates":[[[74.5,18.54054054054054],[74.5557088218294,18.53793769009308],[74.61088113725104,18.53015420562337],[74.66498560670718,18.517265046341734],[74.71750117458039,18.499394341897993],[74.76792208724417,18.476714196945057],[74.81576276374668,18.449443033677053],[74.86056247222082,18.417843488304182],[74.90188976698398,18.38221988172246],[74.9393466435958,18.342915288737107],[74.97257237185846,18.30030823406465],[75.00124696984581,18.254809046932973],[75.02509428550407,18.206855909386537],[75.04388465614718,18.156910636353764],[75.05743712023401,18.105454228116827],[75.06562116012687,18.05298223801598],[75.06835795904772,18.0],[75.06562116012687,17.94701776198402],[75.05743712023401,17.894545771883173],[75.04388465614718,17.843089363646236],[75.02509428550407,17.793144090613463],[75.00124696984581,17.745190953067027],[74.97257237185846,17.69969176593535],[74.9393466435958,17.657084711262893],[74.90188976698398,17.61778011827754],[74.86056247222082,17.582156511695818],[74.81576276374668,17.550556966322947],[74.76792208724417,17.523285803054943],[74.71750117458039,17.500605658102007],[74.66498560670718,17.482734953658266],[74.61088113725104,17.46984579437663],[74.5557088218294,17.46206230990692],[74.5,17.45945945945946],[74.4442911781706,17.46206230990692],[74.38911886274896,17.46984579437663],[74.33501439329282,17.482734953658266],[74.28249882541961,17.500605658102007],[74.23207791275583,17.523285803054943],[74.18423723625332,17.550556966322947],[74.13943752777918,17.582156511695818],[74.09811023301602,17.61778011827754],[74.0606533564042,17.657084711262893],[74.02742762814154,17.69969176593535],[73.99875303015419,17.745190953067027],[73.97490571449593,17.793144090613467],[73.95611534385282,17.843089363646236],[73.94256287976599,17.894545771883173],[73.93437883987313,17.94701776198402],[73.93164204095228,18.0],[73.93437883987313,18.05298223801598],[73.94256287976599,18.105454228116827],[73.95611534385282,18.156910636353764],[73.97490571449593,18.206855909386537],[73.99875303015419,18.254809046932973],[74.02742762814154,18.30030823406465],[74.0606533564042,18.342915288737107],[74.09811023301602,18.38221988172246],[74.13943752777918,18.417843488304182],[74.18423723625332,18.449443033677053],[74.23207791275583,18.476714196945057],[74.28249882541961,18.499394341897993],[74.33501439329282,18.517265046341734],[74.38911886274896,18.53015420562337],[74.4442911781706,18.53793769009308],[74.5,18.54054054054054]]]},"properties":{"zone_type":"agricultural","zone_label":"Agricultural / Farmland","zone_color":"#f59e0b","name":"Sugarcane Belt (Maharashtra)","state":"Maharashtra","subtype":"sugarcane","area_sqkm":11309.73,"source":"curated_research","osm_id":""}},{"type":"Feature","geometry":{"type":"Polygon","coordinates":[[[78.5,18.22072072072072],[78.5740712262332,18.21725025345744],[78.64742910606631,18.20687227416449],[78.71936716301506,18.189686728455644],[78.7891925942657,18.16585912253066],[78.8562329427448,18.135618929260076],[78.91984257324852,18.099257378236068],[78.97940889026256,18.057124651072243],[79.03435823759183,18.009626508963276],[79.08416142298316,17.957220384982808],[79.12833881453604,17.900410978752866],[79.16646495982,17.83974539591063],[79.1981726832141,17.775807879182047],[79.22315662200883,17.709214181805017],[79.24117616721598,17.640605637489102],[79.25205778076476,17.570642984021305],[79.25569666676815,17.5],[79.25205778076476,17.429357015978695],[79.24117616721598,17.359394362510898],[79.22315662200883,17.290785818194983],[79.1981726832141,17.224192120817953],[79.16646495982,17.16025460408937],[79.12833881453604,17.099589021247134],[79.08416142298316,17.042779615017192],[79.03435823759183,16.990373491036724],[78.97940889026256,16.942875348927757],[78.91984257324852,16.900742621763932],[78.8562329427448,16.864381070739924],[78.7891925942657,16.83414087746934],[78.71936716301506,16.810313271544356],[78.64742910606631,16.79312772583551],[78.5740712262332,16.78274974654256],[78.5,16.77927927927928],[78.4259287737668,16.78274974654256],[78.35257089393369,16.79312772583551],[78.28063283698494,16.810313271544352],[78.2108074057343,16.83414087746934],[78.1437670572552,16.864381070739924],[78.08015742675148,16.900742621763932],[78.02059110973744,16.942875348927757],[77.96564176240817,16.990373491036724],[77.91583857701684,17.042779615017192],[77.87166118546396,17.099589021247134],[77.83353504018,17.16025460408937],[77.8018273167859,17.224192120817953],[77.77684337799117,17.290785818194983],[77.75882383278402,17.359394362510898],[77.74794221923524,17.429357015978695],[77.74430333323185,17.5],[77.74794221923524,17.570642984021305],[77.75882383278402,17.640605637489102],[77.77684337799117,17.709214181805017],[77.8018273167859,17.775807879182047],[77.83353504018,17.83974539591063],[77.87166118546396,17.900410978752866],[77.91583857701684,17.957220384982808],[77.96564176240817,18.009626508963276],[78.02059110973744,18.057124651072243],[78.08015742675148,18.099257378236068],[78.1437670572552,18.135618929260076],[78.2108074057343,18.16585912253066],[78.28063283698494,18.189686728455644],[78.35257089393369,18.20687227416449],[78.4259287737668,18.21725025345744],[78.5,18.22072072072072]]]},"properties":{"zone_type":"agricultural","zone_label":"Agricultural / Farmland","zone_color":"#f59e0b","name":"Telangana Cotton Zone","state":"Telangana","subtype":"cotton","area_sqkm":20106.19,"source":"curated_research","osm_id":""}},{"type":"Feature","geometry":{"type":"Polygon","coordinates":[[[78.0,29.86036036036036],[78.04058282398267,29.858625126728718],[78.08077481318558,29.853436137082245],[78.1201888967815,29.844843364227824],[78.15844549559948,29.832929561265328],[78.19517617767971,29.817809464630038],[78.23002720647474,29.799628689118034],[78.26266294752575,29.77856232553612],[78.29276910080593,29.75481325448164],[78.32005572760146,29.728610192491402],[78.34426004277994,29.700205489376433],[78.36514894555476,29.669872697955313],[78.38252126437318,29.637903939591023],[78.39620969430828,29.60460709090251],[78.40608240829695,29.57030281874455],[78.41204432670649,29.535321492010652],[78.41403803300351,29.5],[78.41204432670649,29.464678507989348],[78.40608240829695,29.42969718125545],[78.39620969430828,29.39539290909749],[78.38252126437318,29.362096060408977],[78.36514894555476,29.330127302044687],[78.34426004277994,29.299794510623567],[78.32005572760146,29.271389807508598],[78.29276910080593,29.24518674551836],[78.26266294752575,29.22143767446388],[78.23002720647474,29.200371310881966],[78.19517617767971,29.182190535369962],[78.15844549559948,29.167070438734672],[78.1201888967815,29.155156635772176],[78.08077481318558,29.146563862917755],[78.04058282398267,29.141374873271282],[78.0,29.13963963963964],[77.95941717601733,29.141374873271282],[77.91922518681442,29.146563862917755],[77.8798111032185,29.155156635772176],[77.84155450440052,29.167070438734672],[77.80482382232029,29.182190535369962],[77.76997279352526,29.200371310881966],[77.73733705247425,29.22143767446388],[77.70723089919407,29.24518674551836],[77.67994427239854,29.271389807508598],[77.65573995722006,29.299794510623567],[77.63485105444524,29.330127302044687],[77.61747873562682,29.362096060408977],[77.60379030569172,29.39539290909749],[77.59391759170305,29.42969718125545],[77.58795567329351,29.464678507989348],[77.58596196699649,29.5],[77.58795567329351,29.535321492010652],[77.59391759170305,29.57030281874455],[77.60379030569172,29.60460709090251],[77.61747873562682,29.637903939591023],[77.63485105444524,29.669872697955313],[77.65573995722006,29.700205489376433],[77.67994427239854,29.728610192491402],[77.70723089919407,29.75481325448164],[77.73733705247425,29.77856232553612],[77.76997279352526,29.799628689118034],[77.80482382232029,29.817809464630038],[77.84155450440052,29.832929561265328],[77.8798111032185,29.844843364227824],[77.91922518681442,29.853436137082245],[77.95941717601733,29.858625126728718],[78.0,29.86036036036036]]]},"properties":{"zone_type":"agricultural","zone_label":"Agricultural / Farmland","zone_color":"#f59e0b","name":"Potato Belt (UP Hills)","state":"Uttar Pradesh","subtype":"potato","area_sqkm":5026.55,"source":"curated_research","osm_id":""}},{"type":"Feature","geometry":{"type":"Polygon","coordinates":[[[74.0,18.86036036036036],[74.03724624163569,18.858625126728718],[74.07413378160356,18.853436137082245],[74.11030737272895,18.844843364227824],[74.1454186435548,18.832929561265328],[74.17912945334932,18.817809464630038],[74.21111514858596,18.799628689118034],[74.24106768953443,18.77856232553612],[74.26869861685168,18.75481325448164],[74.29374182960305,18.728610192491402],[74.31595614795972,18.700205489376433],[74.33512763589235,18.669872697955313],[74.35107166149191,18.637903939591023],[74.36363467507603,18.60460709090251],[74.37269568795624,18.57030281874455],[74.37816743762522,18.535321492010652],[74.37999722814254,18.5],[74.37816743762522,18.464678507989348],[74.37269568795624,18.42969718125545],[74.36363467507603,18.39539290909749],[74.35107166149191,18.362096060408977],[74.33512763589235,18.330127302044687],[74.31595614795972,18.299794510623567],[74.29374182960305,18.271389807508598],[74.26869861685168,18.24518674551836],[74.24106768953443,18.22143767446388],[74.21111514858596,18.200371310881966],[74.17912945334932,18.182190535369962],[74.1454186435548,18.167070438734672],[74.11030737272895,18.155156635772176],[74.07413378160356,18.146563862917755],[74.03724624163569,18.141374873271282],[74.0,18.13963963963964],[73.96275375836431,18.141374873271282],[73.92586621839644,18.146563862917755],[73.88969262727105,18.155156635772176],[73.8545813564452,18.167070438734672],[73.82087054665068,18.182190535369962],[73.78888485141404,18.200371310881966],[73.75893231046557,18.22143767446388],[73.73130138314832,18.24518674551836],[73.70625817039695,18.271389807508598],[73.68404385204028,18.299794510623567],[73.66487236410765,18.330127302044687],[73.64892833850809,18.362096060408977],[73.63636532492397,18.39539290909749],[73.62730431204376,18.42969718125545],[73.62183256237478,18.464678507989348],[73.62000277185746,18.5],[73.62183256237478,18.535321492010652],[73.62730431204376,18.57030281874455],[73.63636532492397,18.60460709090251],[73.64892833850809,18.637903939591023],[73.66487236410765,18.669872697955313],[73.68404385204028,18.700205489376433],[73.70625817039695,18.728610192491402],[73.73130138314832,18.75481325448164],[73.75893231046557,18.77856232553612],[73.78888485141404,18.799628689118034],[73.82087054665068,18.817809464630038],[73.8545813564452,18.832929561265328],[73.88969262727105,18.844843364227824],[73.92586621839644,18.853436137082245],[73.96275375836431,18.858625126728718],[74.0,18.86036036036036]]]},"properties":{"zone_type":"agricultural","zone_label":"Agricultural / Farmland","zone_color":"#f59e0b","name":"Onion Belt (Maharashtra)","state":"Maharashtra","subtype":"onion","area_sqkm":5026.55,"source":"curated_research","osm_id":""}},{"type":"Feature","geometry":{"type":"Polygon","coordinates":[[[70.8,22.75045045045045],[70.84772092654879,22.7482814084109],[70.894982274488,22.741795171352805],[70.94132889120131,22.731054205284778],[70.9863144334341,22.71616195158166],[71.02950566582311,22.697261830787546],[71.07048663318967,22.674535861397544],[71.10886266641559,22.64820290692015],[71.14426418332242,22.61851656810205],[71.1763502479499,22.585762740614257],[71.20481185395566,22.55025686172054],[71.22937490051515,22.512340872444145],[71.24980283206249,22.47237992448878],[71.26589891644981,22.430758863628135],[71.27750813958548,22.38787852343069],[71.28451869830444,22.344151865013316],[71.28686307709387,22.3],[71.28451869830444,22.255848134986685],[71.27750813958548,22.212121476569312],[71.26589891644981,22.169241136371866],[71.24980283206249,22.12762007551122],[71.22937490051515,22.087659127555856],[71.20481185395566,22.04974313827946],[71.1763502479499,22.014237259385744],[71.14426418332242,21.981483431897953],[71.10886266641559,21.95179709307985],[71.07048663318967,21.925464138602457],[71.02950566582311,21.902738169212455],[70.9863144334341,21.88383804841834],[70.94132889120131,21.868945794715223],[70.894982274488,21.858204828647196],[70.84772092654879,21.8517185915891],[70.8,21.84954954954955],[70.7522790734512,21.8517185915891],[70.705017725512,21.858204828647196],[70.65867110879869,21.868945794715223],[70.61368556656589,21.88383804841834],[70.57049433417689,21.902738169212455],[70.52951336681032,21.925464138602457],[70.4911373335844,21.95179709307985],[70.45573581667757,21.981483431897953],[70.4236497520501,22.014237259385744],[70.39518814604433,22.04974313827946],[70.37062509948484,22.087659127555856],[70.35019716793751,22.12762007551122],[70.33410108355018,22.169241136371866],[70.32249186041452,22.212121476569312],[70.31548130169556,22.255848134986685],[70.31313692290612,22.3],[70.31548130169556,22.344151865013316],[70.32249186041452,22.38787852343069],[70.33410108355018,22.430758863628135],[70.35019716793751,22.47237992448878],[70.37062509948484,22.512340872444145],[70.39518814604433,22.55025686172054],[70.4236497520501,22.585762740614257],[70.45573581667757,22.61851656810205],[70.4911373335844,22.64820290692015],[70.52951336681032,22.674535861397544],[70.57049433417689,22.697261830787546],[70.61368556656589,22.71616195158166],[70.65867110879869,22.731054205284778],[70.705017725512,22.741795171352805],[70.7522790734512,22.7482814084109],[70.8,22.75045045045045]]]},"properties":{"zone_type":"agricultural","zone_label":"Agricultural / Farmland","zone_color":"#f59e0b","name":"Groundnut Zone (Rajkot/Gujarat)","state":"Gujarat","subtype":"groundnut","area_sqkm":7853.98,"source":"curated_research","osm_id":""}},{"type":"Feature","geometry":{"type":"Polygon","coordinates":[[[77.72,11.51018018018018],[77.73801176050954,11.50931256336436],[77.75585005791915,11.506718068541122],[77.77334309967335,11.502421682113912],[77.79032241821741,11.496464780632664],[77.80662449343188,11.488904732315019],[77.82209232742085,11.479814344559017],[77.83657695648739,11.46928116276806],[77.84993888573553,11.45740662724082],[77.86204943248221,11.444305096245701],[77.87279196554196,11.430102744688217],[77.88206302844897,11.414936348977657],[77.88977333579935,11.398951969795512],[77.89584863311842,11.382303545451254],[77.90023041197193,11.365151409372276],[77.90287647343419,11.347660746005326],[77.90376133448683,11.33],[77.90287647343419,11.312339253994674],[77.90023041197193,11.294848590627725],[77.89584863311842,11.277696454548746],[77.88977333579935,11.261048030204488],[77.88206302844897,11.245063651022344],[77.87279196554196,11.229897255311784],[77.86204943248221,11.215694903754299],[77.84993888573553,11.20259337275918],[77.83657695648739,11.19071883723194],[77.82209232742085,11.180185655440983],[77.80662449343188,11.171095267684981],[77.79032241821741,11.163535219367336],[77.77334309967335,11.157578317886088],[77.75585005791915,11.153281931458878],[77.73801176050954,11.150687436635641],[77.72,11.14981981981982],[77.70198823949046,11.150687436635641],[77.68414994208085,11.153281931458878],[77.66665690032664,11.157578317886088],[77.64967758178258,11.163535219367336],[77.63337550656811,11.171095267684981],[77.61790767257915,11.180185655440983],[77.6034230435126,11.19071883723194],[77.59006111426447,11.20259337275918],[77.57795056751779,11.215694903754299],[77.56720803445803,11.229897255311784],[77.55793697155103,11.245063651022344],[77.55022666420065,11.261048030204488],[77.54415136688158,11.277696454548746],[77.53976958802807,11.294848590627725],[77.53712352656581,11.312339253994674],[77.53623866551317,11.33],[77.53712352656581,11.347660746005326],[77.53976958802807,11.365151409372276],[77.54415136688158,11.382303545451254],[77.55022666420065,11.398951969795512],[77.55793697155103,11.414936348977657],[77.56720803445803,11.430102744688217],[77.57795056751779,11.444305096245701],[77.59006111426447,11.45740662724082],[77.6034230435126,11.46928116276806],[77.61790767257915,11.479814344559017],[77.63337550656811,11.488904732315019],[77.64967758178258,11.496464780632664],[77.66665690032664,11.502421682113912],[77.68414994208085,11.506718068541122],[77.70198823949046,11.50931256336436],[77.72,11.51018018018018]]]},"properties":{"zone_type":"agricultural","zone_label":"Agricultural / Farmland","zone_color":"#f59e0b","name":"Turmeric Belt (Erode, TN)","state":"Tamil Nadu","subtype":"turmeric","area_sqkm":1256.64,"source":"curated_research","osm_id":""}},{"type":"Feature","geometry":{"type":"Polygon","coordinates":[[[76.9,9.06036036036036],[76.93573263576236,9.05862512672872],[76.97112114670888,9.053436137082244],[77.00582472213382,9.044843364227821],[77.03950914763494,9.032929561265329],[77.07185002378087,9.017809464630037],[77.10253589025501,8.999628689118033],[77.13127122538863,8.97856232553612],[77.15777929219603,8.954813254481637],[77.18180480350308,8.928610192491403],[77.20311638050224,8.900205489376432],[77.22150878105688,8.869872697955314],[77.23680487629538,8.837903939591023],[77.24885735645887,8.804607090902508],[77.25755014957483,8.77030281874455],[77.2627995392936,8.735321492010652],[77.26455497112256,8.7],[77.2627995392936,8.664678507989347],[77.25755014957483,8.629697181255448],[77.24885735645887,8.595392909097491],[77.23680487629538,8.562096060408976],[77.22150878105688,8.530127302044685],[77.20311638050224,8.499794510623566],[77.18180480350308,8.471389807508595],[77.15777929219603,8.445186745518361],[77.13127122538863,8.421437674463878],[77.10253589025501,8.400371310881965],[77.07185002378087,8.382190535369961],[77.03950914763494,8.36707043873467],[77.00582472213382,8.355156635772177],[76.97112114670888,8.346563862917755],[76.93573263576236,8.34137487327128],[76.9,8.339639639639639],[76.86426736423765,8.34137487327128],[76.82887885329113,8.346563862917755],[76.79417527786619,8.355156635772175],[76.76049085236507,8.36707043873467],[76.72814997621914,8.382190535369961],[76.697464109745,8.400371310881965],[76.66872877461138,8.421437674463878],[76.64222070780399,8.445186745518361],[76.61819519649693,8.471389807508595],[76.59688361949777,8.499794510623566],[76.57849121894313,8.530127302044685],[76.56319512370463,8.562096060408976],[76.55114264354114,8.595392909097491],[76.54244985042519,8.629697181255448],[76.53720046070642,8.664678507989347],[76.53544502887745,8.7],[76.53720046070642,8.735321492010652],[76.54244985042519,8.77030281874455],[76.55114264354114,8.804607090902508],[76.56319512370463,8.837903939591023],[76.57849121894313,8.869872697955314],[76.59688361949777,8.900205489376432],[76.61819519649693,8.928610192491403],[76.64222070780399,8.954813254481637],[76.66872877461138,8.97856232553612],[76.697464109745,8.999628689118033],[76.72814997621914,9.017809464630037],[76.76049085236507,9.032929561265329],[76.79417527786619,9.044843364227821],[76.82887885329113,9.053436137082244],[76.86426736423765,9.05862512672872],[76.9,9.06036036036036]]]},"properties":{"zone_type":"agricultural","zone_label":"Agricultural / Farmland","zone_color":"#f59e0b","name":"Pepper Plantation (Kerala)","state":"Kerala","subtype":"pepper_spices","area_sqkm":5026.55,"source":"curated_research","osm_id":""}},{"type":"Feature","geometry":{"type":"Polygon","coordinates":[[[78.5,15.04054054054054],[78.55472537018764,15.037937690093079],[78.60892370514443,15.030154205623369],[78.66207304527694,15.017265046341734],[78.71366153338529,14.999394341897993],[78.76319234412786,14.976714196945057],[78.81018846872091,14.949443033677051],[78.85419730879391,14.917843488304182],[78.89479503515929,14.882219881722458],[78.93159066951915,14.842915288737105],[78.9642298498001,14.80030823406465],[78.99239824285362,14.754809046932971],[79.0158245716562,14.706855909386535],[79.03428322785533,14.656910636353764],[79.0475964445013,14.605454228116827],[79.05563600804004,14.552982238015979],[79.05832449307982,14.5],[79.05563600804004,14.447017761984021],[79.0475964445013,14.394545771883173],[79.03428322785533,14.343089363646236],[79.0158245716562,14.293144090613465],[78.99239824285362,14.245190953067029],[78.9642298498001,14.19969176593535],[78.93159066951915,14.157084711262895],[78.89479503515929,14.117780118277542],[78.85419730879391,14.082156511695818],[78.81018846872091,14.050556966322949],[78.76319234412786,14.023285803054943],[78.71366153338529,14.000605658102007],[78.66207304527694,13.982734953658266],[78.60892370514443,13.969845794376631],[78.55472537018764,13.962062309906921],[78.5,13.95945945945946],[78.44527462981236,13.962062309906921],[78.39107629485557,13.969845794376631],[78.33792695472306,13.982734953658266],[78.28633846661471,14.000605658102007],[78.23680765587214,14.023285803054943],[78.18981153127909,14.050556966322949],[78.14580269120609,14.082156511695818],[78.10520496484071,14.117780118277542],[78.06840933048085,14.157084711262893],[78.0357701501999,14.19969176593535],[78.00760175714638,14.245190953067029],[77.9841754283438,14.293144090613465],[77.96571677214467,14.343089363646236],[77.9524035554987,14.394545771883173],[77.94436399195996,14.447017761984021],[77.94167550692018,14.5],[77.94436399195996,14.552982238015979],[77.9524035554987,14.605454228116827],[77.96571677214467,14.656910636353762],[77.9841754283438,14.706855909386535],[78.00760175714638,14.754809046932971],[78.0357701501999,14.80030823406465],[78.06840933048085,14.842915288737105],[78.10520496484071,14.882219881722458],[78.14580269120609,14.917843488304182],[78.18981153127909,14.949443033677051],[78.23680765587214,14.976714196945057],[78.28633846661471,14.999394341897993],[78.33792695472306,15.017265046341734],[78.39107629485557,15.030154205623369],[78.44527462981236,15.037937690093079],[78.5,15.04054054054054]]]},"properties":{"zone_type":"agricultural","zone_label":"Agricultural / Farmland","zone_color":"#f59e0b","name":"Mango Belt (AP)","state":"Andhra Pradesh","subtype":"mango","area_sqkm":11309.73,"source":"curated_research","osm_id":""}}]}