{"type":"FeatureCollection","name":"India Forest / Jungle","crs":{"type":"name","properties":{"name":"EPSG:4326"}},"features":[{"type":"Feature","geometry":{"type":"Polygon","coordinates":[[[75.5,14.35135135135135],[75.59070743269113,14.348458004376491],[75.68102644222982,14.339790353207851],[75.7705702687512,14.32538551405842],[75.85895547184307,14.305305170660903],[75.94580357249669,14.279635310128521],[76.03074267381184,14.248485854744981],[76.11340905351665,14.211990191260389],[76.19344872148203,14.1703045997087],[76.27051893556182,14.123607584192628],[76.34428966926733,14.07209910850167],[76.41444502499132,14.015999739836456],[76.48068458673016,13.955549704306145],[76.54272470651117,13.891007858243336],[76.6002997190169,13.822650579741515],[76.6531630792047,13.750770585161625],[76.70108841805055,13.675675675675675],[76.74387051189584,13.597687419214866],[76.78132616124672,13.517139773466338],[76.81329497526237,13.434377655815084],[76.83964005857324,13.349755466354758],[76.86024859748801,13.263635570292065],[76.87503234307918,13.176386746243313],[76.88392798907847,13.08838260706776],[76.88689744296404,13.0],[76.88392798907847,12.91161739293224],[76.87503234307918,12.823613253756687],[76.86024859748801,12.736364429707935],[76.83964005857324,12.650244533645242],[76.81329497526237,12.565622344184916],[76.78132616124672,12.482860226533663],[76.74387051189584,12.402312580785134],[76.70108841805055,12.324324324324325],[76.6531630792047,12.249229414838375],[76.6002997190169,12.177349420258485],[76.54272470651117,12.108992141756664],[76.48068458673016,12.044450295693855],[76.41444502499132,11.984000260163544],[76.34428966926733,11.92790089149833],[76.27051893556182,11.876392415807372],[76.19344872148203,11.8296954002913],[76.11340905351665,11.788009808739611],[76.03074267381184,11.751514145255019],[75.94580357249669,11.720364689871479],[75.85895547184307,11.694694829339097],[75.7705702687512,11.67461448594158],[75.68102644222982,11.660209646792149],[75.59070743269113,11.651541995623509],[75.5,11.64864864864865],[75.40929256730887,11.651541995623509],[75.31897355777018,11.660209646792149],[75.2294297312488,11.67461448594158],[75.14104452815693,11.694694829339097],[75.05419642750331,11.720364689871479],[74.96925732618816,11.751514145255017],[74.88659094648335,11.788009808739611],[74.80655127851797,11.8296954002913],[74.72948106443818,11.876392415807372],[74.65571033073267,11.92790089149833],[74.58555497500868,11.984000260163544],[74.51931541326984,12.044450295693855],[74.45727529348883,12.108992141756664],[74.3997002809831,12.177349420258485],[74.3468369207953,12.249229414838375],[74.29891158194945,12.324324324324325],[74.25612948810416,12.402312580785134],[74.21867383875328,12.482860226533663],[74.18670502473763,12.565622344184916],[74.16035994142676,12.650244533645242],[74.13975140251199,12.736364429707935],[74.12496765692082,12.823613253756687],[74.11607201092153,12.91161739293224],[74.11310255703596,13.0],[74.11607201092153,13.08838260706776],[74.12496765692082,13.176386746243313],[74.13975140251199,13.263635570292065],[74.16035994142676,13.349755466354758],[74.18670502473763,13.434377655815084],[74.21867383875328,13.517139773466338],[74.25612948810416,13.597687419214866],[74.29891158194945,13.675675675675675],[74.3468369207953,13.750770585161623],[74.3997002809831,13.822650579741515],[74.45727529348883,13.891007858243336],[74.51931541326984,13.955549704306145],[74.58555497500868,14.015999739836456],[74.65571033073267,14.07209910850167],[74.72948106443818,14.123607584192628],[74.80655127851797,14.1703045997087],[74.88659094648335,14.211990191260389],[74.96925732618816,14.248485854744983],[75.05419642750331,14.279635310128521],[75.14104452815693,14.305305170660903],[75.2294297312488,14.32538551405842],[75.31897355777018,14.339790353207851],[75.40929256730887,14.348458004376491],[75.5,14.35135135135135]]]},"properties":{"zone_type":"forest","zone_label":"Forest / Jungle","zone_color":"#22c55e","name":"Western Ghats Forest Belt","state":"Karnataka","subtype":"reserve_forest","area_sqkm":70685.83,"source":"curated_research","osm_id":""}},{"type":"Feature","geometry":{"type":"Polygon","coordinates":[[[80.5,17.31081081081081],[80.55530712636818,17.309074802625894],[80.61037741913034,17.30387421192471],[80.66497505883834,17.295231308435053],[80.71886625001696,17.283183102396542],[80.77182022231204,17.267781186077112],[80.82361021868459,17.249091512846988],[80.8740144664192,17.227194114756234],[80.92281712678884,17.20218275982522],[80.96980921930951,17.174164550515577],[81.01478951662666,17.143259465101],[81.05756540620172,17.109599843901872],[81.0979537151084,17.073329822583688],[81.13578149440747,17.034604714946003],[81.17088675974054,16.993590347844908],[81.20311918497198,16.950462351096974],[81.23234074590856,16.905405405405407],[81.25842631134016,16.85861245152892],[81.28126417887087,16.810283864079803],[81.3007565532458,16.76062659348905],[81.31681996512536,16.709853279812855],[81.32938562851376,16.65818134217524],[81.33839973531127,16.605832047745988],[81.34382368572871,16.553029564240656],[81.34563425357767,16.5],[81.34382368572871,16.446970435759344],[81.33839973531127,16.394167952254012],[81.32938562851376,16.34181865782476],[81.31681996512536,16.290146720187145],[81.3007565532458,16.23937340651095],[81.28126417887087,16.189716135920197],[81.25842631134016,16.14138754847108],[81.23234074590856,16.094594594594593],[81.20311918497198,16.049537648903026],[81.17088675974054,16.006409652155092],[81.13578149440747,15.965395285053997],[81.0979537151084,15.926670177416312],[81.05756540620172,15.890400156098126],[81.01478951662666,15.856740534898998],[80.96980921930951,15.825835449484423],[80.92281712678884,15.79781724017478],[80.8740144664192,15.772805885243766],[80.82361021868459,15.75090848715301],[80.77182022231204,15.732218813922888],[80.71886625001696,15.716816897603458],[80.66497505883834,15.704768691564949],[80.61037741913034,15.696125788075289],[80.55530712636818,15.690925197374105],[80.5,15.68918918918919],[80.44469287363182,15.690925197374105],[80.38962258086966,15.696125788075289],[80.33502494116166,15.704768691564949],[80.28113374998304,15.716816897603458],[80.22817977768796,15.732218813922888],[80.17638978131541,15.75090848715301],[80.1259855335808,15.772805885243766],[80.07718287321116,15.79781724017478],[80.03019078069049,15.825835449484423],[79.98521048337334,15.856740534898998],[79.94243459379828,15.890400156098126],[79.9020462848916,15.926670177416312],[79.86421850559253,15.965395285053997],[79.82911324025946,16.006409652155092],[79.79688081502802,16.049537648903026],[79.76765925409144,16.094594594594593],[79.74157368865984,16.14138754847108],[79.71873582112913,16.189716135920197],[79.6992434467542,16.23937340651095],[79.68318003487464,16.290146720187145],[79.67061437148624,16.34181865782476],[79.66160026468873,16.394167952254012],[79.65617631427129,16.446970435759344],[79.65436574642233,16.5],[79.65617631427129,16.553029564240656],[79.66160026468873,16.605832047745988],[79.67061437148624,16.65818134217524],[79.68318003487464,16.709853279812855],[79.6992434467542,16.76062659348905],[79.71873582112913,16.810283864079803],[79.74157368865984,16.85861245152892],[79.76765925409144,16.905405405405407],[79.79688081502802,16.950462351096974],[79.82911324025946,16.993590347844908],[79.86421850559253,17.034604714946003],[79.9020462848916,17.073329822583688],[79.94243459379828,17.109599843901872],[79.98521048337334,17.143259465101],[80.03019078069049,17.174164550515577],[80.07718287321116,17.20218275982522],[80.1259855335808,17.227194114756234],[80.17638978131541,17.249091512846988],[80.22817977768796,17.267781186077112],[80.28113374998304,17.283183102396542],[80.33502494116166,17.295231308435053],[80.38962258086966,17.30387421192471],[80.44469287363182,17.309074802625894],[80.5,17.31081081081081]]]},"properties":{"zone_type":"forest","zone_label":"Forest / Jungle","zone_color":"#22c55e","name":"Eastern Ghats Forests","state":"Andhra Pradesh","subtype":"reserve_forest","area_sqkm":25446.9,"source":"curated_research","osm_id":""}},{"type":"Feature","geometry":{"type":"Polygon","coordinates":[[[81.5,21.58108108108108],[81.5754864791181,21.57876640350119],[81.65064971354373,21.57183228256628],[81.7251678427678,21.560308411246737],[81.79872176872074,21.54424413652872],[81.87099652219942,21.523708248102817],[81.94168261161361,21.498788683795986],[82.01047734827652,21.46959215300831],[82.07708614256421,21.43624367976696],[82.14122376539358,21.398886067354102],[82.20261556961705,21.357679286801336],[82.26099866610392,21.312799791869164],[82.3161230494719,21.264439763444916],[82.36775266864854,21.21280628659467],[82.41566643767821,21.15812046379321],[82.45965918244609,21.1006164681293],[82.49954251926516,21.04054054054054],[82.53514566156419,20.978149935371892],[82.56631615122194,20.91371181877307],[82.59292051141634,20.847502124652067],[82.61484481819264,20.779804373083806],[82.63199518830334,20.710908456233653],[82.64429818123065,20.64110939699465],[82.6517011136701,20.57070608565421],[82.65417228512844,20.5],[82.6517011136701,20.42929391434579],[82.64429818123065,20.35889060300535],[82.63199518830334,20.289091543766347],[82.61484481819264,20.220195626916194],[82.59292051141634,20.152497875347933],[82.56631615122194,20.08628818122693],[82.53514566156419,20.021850064628108],[82.49954251926516,19.95945945945946],[82.45965918244609,19.8993835318707],[82.41566643767821,19.84187953620679],[82.36775266864854,19.78719371340533],[82.3161230494719,19.735560236555084],[82.26099866610392,19.687200208130836],[82.20261556961705,19.642320713198664],[82.14122376539358,19.601113932645898],[82.07708614256421,19.56375632023304],[82.01047734827652,19.53040784699169],[81.94168261161361,19.501211316204014],[81.87099652219942,19.476291751897183],[81.79872176872074,19.45575586347128],[81.7251678427678,19.439691588753263],[81.65064971354373,19.42816771743372],[81.5754864791181,19.42123359649881],[81.5,19.41891891891892],[81.4245135208819,19.42123359649881],[81.34935028645627,19.42816771743372],[81.2748321572322,19.439691588753263],[81.20127823127926,19.45575586347128],[81.12900347780058,19.476291751897183],[81.05831738838639,19.501211316204014],[80.98952265172348,19.53040784699169],[80.92291385743577,19.56375632023304],[80.85877623460642,19.601113932645898],[80.79738443038295,19.642320713198664],[80.73900133389608,19.687200208130836],[80.6838769505281,19.735560236555084],[80.63224733135146,19.78719371340533],[80.58433356232179,19.84187953620679],[80.54034081755391,19.8993835318707],[80.50045748073484,19.95945945945946],[80.46485433843581,20.021850064628108],[80.43368384877806,20.08628818122693],[80.40707948858366,20.152497875347933],[80.38515518180736,20.220195626916194],[80.36800481169666,20.289091543766347],[80.35570181876935,20.35889060300535],[80.3482988863299,20.42929391434579],[80.34582771487156,20.5],[80.3482988863299,20.57070608565421],[80.35570181876935,20.64110939699465],[80.36800481169666,20.710908456233653],[80.38515518180736,20.779804373083806],[80.40707948858366,20.847502124652067],[80.43368384877806,20.91371181877307],[80.46485433843581,20.978149935371892],[80.50045748073484,21.04054054054054],[80.54034081755391,21.1006164681293],[80.58433356232179,21.15812046379321],[80.63224733135146,21.21280628659467],[80.6838769505281,21.264439763444916],[80.73900133389608,21.312799791869164],[80.79738443038295,21.357679286801336],[80.85877623460642,21.398886067354102],[80.92291385743577,21.43624367976696],[80.98952265172348,21.46959215300831],[81.05831738838639,21.498788683795986],[81.12900347780058,21.523708248102817],[81.20127823127926,21.54424413652872],[81.2748321572322,21.560308411246737],[81.34935028645627,21.57183228256628],[81.4245135208819,21.57876640350119],[81.5,21.58108108108108]]]},"properties":{"zone_type":"forest","zone_label":"Forest / Jungle","zone_color":"#22c55e","name":"Chhattisgarh Forest Cover","state":"Chhattisgarh","subtype":"reserve_forest","area_sqkm":45238.93,"source":"curated_research","osm_id":""}},{"type":"Feature","geometry":{"type":"Polygon","coordinates":[[[78.0,24.4009009009009],[78.06425068508699,24.39897200291766],[78.12822623887651,24.393193568805234],[78.19165270822549,24.383590342705613],[78.25425849125479,24.37020344710727],[78.31577550039007,24.35309020675235],[78.37594031035395,24.33232390316332],[78.43449528619348,24.307993460840258],[78.4911896865126,24.280203066472467],[78.54578073718525,24.249071722795087],[78.5980346709515,24.214732739001114],[78.64772772844479,24.17733315989097],[78.69464711636391,24.137033136204096],[78.73859191868658,24.094005238828892],[78.77937395702276,24.048433719827678],[78.81681859642327,24.000513723441085],[78.85076549319365,23.95045045045045],[78.88106928151028,23.89845827947658],[78.90760019589925,23.84475984897756],[78.93024462691207,23.78958510387672],[78.9489056076187,23.733170310903173],[78.96350322883487,23.675757046861378],[78.97397498130546,23.61759116416221],[78.98027602337874,23.558921738045175],[78.9823793730252,23.5],[78.98027602337874,23.441078261954825],[78.97397498130546,23.38240883583779],[78.96350322883487,23.324242953138622],[78.9489056076187,23.266829689096827],[78.93024462691207,23.21041489612328],[78.90760019589925,23.15524015102244],[78.88106928151028,23.10154172052342],[78.85076549319365,23.04954954954955],[78.81681859642327,22.999486276558915],[78.77937395702276,22.951566280172322],[78.73859191868658,22.905994761171108],[78.69464711636391,22.862966863795904],[78.64772772844479,22.82266684010903],[78.5980346709515,22.785267260998886],[78.54578073718525,22.750928277204913],[78.4911896865126,22.719796933527533],[78.43449528619348,22.692006539159742],[78.37594031035395,22.66767609683668],[78.31577550039007,22.64690979324765],[78.2542584912548,22.62979655289273],[78.19165270822549,22.616409657294387],[78.12822623887651,22.606806431194766],[78.06425068508699,22.60102799708234],[78.0,22.5990990990991],[77.93574931491301,22.60102799708234],[77.87177376112349,22.606806431194766],[77.80834729177451,22.616409657294387],[77.7457415087452,22.62979655289273],[77.68422449960993,22.64690979324765],[77.62405968964605,22.66767609683668],[77.56550471380652,22.692006539159742],[77.5088103134874,22.719796933527533],[77.45421926281475,22.750928277204913],[77.4019653290485,22.785267260998886],[77.35227227155521,22.82266684010903],[77.30535288363609,22.862966863795904],[77.26140808131342,22.905994761171108],[77.22062604297724,22.951566280172322],[77.18318140357673,22.999486276558915],[77.14923450680635,23.04954954954955],[77.11893071848972,23.10154172052342],[77.09239980410075,23.155240151022443],[77.06975537308793,23.21041489612328],[77.0510943923813,23.266829689096827],[77.03649677116513,23.324242953138622],[77.02602501869454,23.38240883583779],[77.01972397662126,23.441078261954825],[77.0176206269748,23.5],[77.01972397662126,23.558921738045175],[77.02602501869454,23.61759116416221],[77.03649677116513,23.675757046861378],[77.0510943923813,23.733170310903173],[77.06975537308793,23.78958510387672],[77.09239980410075,23.84475984897756],[77.11893071848972,23.89845827947658],[77.14923450680635,23.95045045045045],[77.18318140357673,24.00051372344108],[77.22062604297724,24.048433719827678],[77.26140808131342,24.094005238828892],[77.30535288363609,24.137033136204096],[77.35227227155521,24.17733315989097],[77.4019653290485,24.214732739001114],[77.45421926281475,24.249071722795087],[77.5088103134874,24.280203066472467],[77.56550471380652,24.307993460840258],[77.62405968964605,24.33232390316332],[77.68422449960993,24.35309020675235],[77.74574150874521,24.37020344710727],[77.80834729177451,24.383590342705613],[77.87177376112349,24.393193568805234],[77.93574931491301,24.39897200291766],[78.0,24.4009009009009]]]},"properties":{"zone_type":"forest","zone_label":"Forest / Jungle","zone_color":"#22c55e","name":"Madhya Pradesh Vindhya Forests","state":"Madhya Pradesh","subtype":"reserve_forest","area_sqkm":31415.93,"source":"curated_research","osm_id":""}},{"type":"Feature","geometry":{"type":"Polygon","coordinates":[[[78.0,23.13063063063063],[78.04464350078143,23.12928040204236],[78.08909583123874,23.125235498163665],[78.13316663966843,23.11851323989393],[78.17666720810294,23.10914241297509],[78.21941126042992,23.097163144726643],[78.26121576005511,23.082626732214326],[78.30190169369317,23.06559542258818],[78.34129483793004,23.046142146530727],[78.37922650527435,23.02435020595656],[78.41553426650317,23.00031291730078],[78.45006264620885,22.97413321192368],[78.48266378856859,22.945923195342868],[78.51319809048577,22.915803667180224],[78.5415347993919,22.883903603879375],[78.56755257314909,22.85035960640876],[78.59113999965581,22.815315315315317],[78.61219607393053,22.778920795633603],[78.63063063063063,22.74133189428429],[78.64636473015419,22.702709572713704],[78.65933099667153,22.66321921763222],[78.66947390663877,22.623029932802964],[78.67675002655828,22.582313814913547],[78.68112819896751,22.541245216631623],[78.68258967586007,22.5],[78.68112819896751,22.458754783368377],[78.67675002655828,22.417686185086453],[78.66947390663877,22.376970067197036],[78.65933099667153,22.33678078236778],[78.64636473015419,22.297290427286296],[78.63063063063063,22.25866810571571],[78.61219607393053,22.221079204366397],[78.59113999965581,22.184684684684683],[78.56755257314909,22.14964039359124],[78.5415347993919,22.116096396120625],[78.51319809048577,22.084196332819776],[78.48266378856859,22.054076804657132],[78.45006264620885,22.02586678807632],[78.41553426650317,21.99968708269922],[78.37922650527435,21.97564979404344],[78.34129483793004,21.953857853469273],[78.30190169369317,21.93440457741182],[78.26121576005511,21.917373267785674],[78.21941126042992,21.902836855273357],[78.17666720810294,21.89085758702491],[78.13316663966843,21.88148676010607],[78.08909583123874,21.874764501836335],[78.04464350078143,21.87071959795764],[78.0,21.86936936936937],[77.95535649921857,21.87071959795764],[77.91090416876126,21.874764501836335],[77.86683336033157,21.88148676010607],[77.82333279189706,21.89085758702491],[77.78058873957008,21.902836855273357],[77.73878423994489,21.917373267785674],[77.69809830630683,21.93440457741182],[77.65870516206996,21.953857853469273],[77.62077349472565,21.97564979404344],[77.58446573349683,21.99968708269922],[77.54993735379115,22.02586678807632],[77.51733621143141,22.054076804657132],[77.48680190951423,22.084196332819776],[77.4584652006081,22.116096396120625],[77.43244742685091,22.14964039359124],[77.40886000034419,22.184684684684683],[77.38780392606947,22.221079204366397],[77.36936936936937,22.25866810571571],[77.35363526984581,22.297290427286296],[77.34066900332847,22.33678078236778],[77.33052609336123,22.376970067197036],[77.32324997344172,22.417686185086453],[77.31887180103249,22.458754783368377],[77.31741032413993,22.5],[77.31887180103249,22.541245216631623],[77.32324997344172,22.582313814913547],[77.33052609336123,22.623029932802964],[77.34066900332847,22.66321921763222],[77.35363526984581,22.702709572713704],[77.36936936936937,22.74133189428429],[77.38780392606947,22.778920795633603],[77.40886000034419,22.815315315315317],[77.43244742685091,22.85035960640876],[77.4584652006081,22.883903603879375],[77.48680190951423,22.915803667180224],[77.51733621143141,22.945923195342868],[77.54993735379115,22.97413321192368],[77.58446573349683,23.00031291730078],[77.62077349472565,23.02435020595656],[77.65870516206996,23.046142146530727],[77.69809830630683,23.06559542258818],[77.73878423994489,23.082626732214326],[77.78058873957008,23.097163144726643],[77.82333279189706,23.10914241297509],[77.86683336033157,23.11851323989393],[77.91090416876126,23.125235498163665],[77.95535649921857,23.12928040204236],[78.0,23.13063063063063]]]},"properties":{"zone_type":"forest","zone_label":"Forest / Jungle","zone_color":"#22c55e","name":"Satpura Range Forests","state":"Madhya Pradesh","subtype":"reserve_forest","area_sqkm":15393.8,"source":"curated_research","osm_id":""}},{"type":"Feature","geometry":{"type":"Polygon","coordinates":[[[85.0,24.22072072072072],[85.0514005480696,24.219177602334128],[85.1025809911012,24.214554855044188],[85.1533221665804,24.20687227416449],[85.20340679300384,24.196162757685816],[85.25262040031205,24.18247216540188],[85.30075224828316,24.16585912253066],[85.34759622895479,24.14639476867221],[85.39295174921008,24.124162453177973],[85.4366245897482,24.099257378236068],[85.4784277367612,24.07178619120089],[85.51818218275584,24.041866527912777],[85.55571769309113,24.009626508963276],[85.59087353494927,23.975204191063114],[85.6234991656182,23.93874697586214],[85.65345487713863,23.900410978752866],[85.68061239455493,23.86036036036036],[85.70485542520822,23.81876662358126],[85.7260801567194,23.775807879182047],[85.74419570152966,23.73166808310138],[85.75912448609496,23.686536248722536],[85.77080258306789,23.640605637489102],[85.77917998504437,23.594072931329766],[85.78422081870299,23.547137390436138],[85.78590349842015,23.5],[85.78422081870299,23.452862609563862],[85.77917998504437,23.405927068670234],[85.77080258306789,23.359394362510898],[85.75912448609496,23.313463751277464],[85.74419570152966,23.26833191689862],[85.7260801567194,23.224192120817953],[85.70485542520822,23.18123337641874],[85.68061239455493,23.13963963963964],[85.65345487713863,23.099589021247134],[85.6234991656182,23.06125302413786],[85.59087353494927,23.024795808936886],[85.55571769309113,22.990373491036724],[85.51818218275584,22.958133472087223],[85.4784277367612,22.92821380879911],[85.4366245897482,22.900742621763932],[85.39295174921008,22.875837546822027],[85.34759622895479,22.85360523132779],[85.30075224828316,22.83414087746934],[85.25262040031205,22.81752783459812],[85.20340679300384,22.803837242314184],[85.1533221665804,22.79312772583551],[85.1025809911012,22.785445144955812],[85.0514005480696,22.780822397665872],[85.0,22.77927927927928],[84.9485994519304,22.780822397665872],[84.8974190088988,22.785445144955812],[84.8466778334196,22.79312772583551],[84.79659320699616,22.803837242314184],[84.74737959968795,22.81752783459812],[84.69924775171684,22.83414087746934],[84.65240377104521,22.85360523132779],[84.60704825078992,22.875837546822027],[84.5633754102518,22.900742621763932],[84.5215722632388,22.92821380879911],[84.48181781724416,22.958133472087223],[84.44428230690887,22.990373491036724],[84.40912646505073,23.024795808936886],[84.3765008343818,23.06125302413786],[84.34654512286137,23.099589021247134],[84.31938760544507,23.13963963963964],[84.29514457479178,23.18123337641874],[84.2739198432806,23.224192120817953],[84.25580429847034,23.26833191689862],[84.24087551390504,23.313463751277464],[84.22919741693211,23.359394362510898],[84.22082001495563,23.405927068670234],[84.21577918129701,23.452862609563862],[84.21409650157985,23.5],[84.21577918129701,23.547137390436138],[84.22082001495563,23.594072931329766],[84.22919741693211,23.640605637489102],[84.24087551390504,23.686536248722536],[84.25580429847034,23.73166808310138],[84.2739198432806,23.775807879182047],[84.29514457479178,23.81876662358126],[84.31938760544507,23.86036036036036],[84.34654512286137,23.900410978752866],[84.3765008343818,23.93874697586214],[84.40912646505073,23.975204191063114],[84.44428230690887,24.009626508963276],[84.48181781724416,24.041866527912777],[84.5215722632388,24.07178619120089],[84.5633754102518,24.099257378236068],[84.60704825078992,24.124162453177973],[84.65240377104521,24.14639476867221],[84.69924775171684,24.16585912253066],[84.74737959968795,24.18247216540188],[84.79659320699616,24.196162757685816],[84.8466778334196,24.20687227416449],[84.8974190088988,24.214554855044188],[84.9485994519304,24.219177602334128],[85.0,24.22072072072072]]]},"properties":{"zone_type":"forest","zone_label":"Forest / Jungle","zone_color":"#22c55e","name":"Jharkhand Forest Belt","state":"Jharkhand","subtype":"reserve_forest","area_sqkm":20106.19,"source":"curated_research","osm_id":""}},{"type":"Feature","geometry":{"type":"Polygon","coordinates":[[[84.0,21.31081081081081],[84.05661485933858,21.309074802625894],[84.1129872851578,21.30387421192471],[84.16887588207585,21.295231308435053],[84.22404132654056,21.283183102396542],[84.27824739164956,21.267781186077112],[84.3312619587102,21.249091512846988],[84.3828580112074,21.227194114756234],[84.43281460692316,21.20218275982522],[84.48091782404518,21.174164550515577],[84.52696167721278,21.143259465101],[84.57074899957794,21.109599843901872],[84.61209228710392,21.073329822583688],[84.65081450148641,21.034604714946003],[84.68674982825866,20.993590347844908],[84.71974438683456,20.950462351096974],[84.74965688944887,20.905405405405407],[84.77635924617314,20.85861245152892],[84.79973711341646,20.810283864079803],[84.81969038356225,20.76062659348905],[84.83613361364448,20.709853279812855],[84.8489963912275,20.65818134217524],[84.858223635923,20.605832047745988],[84.86377583525258,20.553029564240656],[84.86562921384633,20.5],[84.86377583525258,20.446970435759344],[84.858223635923,20.394167952254012],[84.8489963912275,20.34181865782476],[84.83613361364448,20.290146720187145],[84.81969038356225,20.23937340651095],[84.79973711341646,20.189716135920197],[84.77635924617314,20.14138754847108],[84.74965688944887,20.094594594594593],[84.71974438683456,20.049537648903026],[84.68674982825866,20.006409652155092],[84.65081450148641,19.965395285053997],[84.61209228710392,19.926670177416312],[84.57074899957794,19.890400156098128],[84.52696167721278,19.856740534899],[84.48091782404518,19.825835449484423],[84.43281460692316,19.79781724017478],[84.3828580112074,19.772805885243766],[84.33126195871021,19.750908487153012],[84.27824739164956,19.732218813922888],[84.22404132654056,19.716816897603458],[84.16887588207585,19.704768691564947],[84.1129872851578,19.69612578807529],[84.05661485933858,19.690925197374106],[84.0,19.68918918918919],[83.94338514066142,19.690925197374106],[83.8870127148422,19.69612578807529],[83.83112411792415,19.704768691564947],[83.77595867345944,19.716816897603458],[83.72175260835044,19.732218813922888],[83.6687380412898,19.750908487153012],[83.6171419887926,19.772805885243766],[83.56718539307684,19.79781724017478],[83.51908217595482,19.825835449484423],[83.47303832278722,19.856740534899],[83.42925100042206,19.890400156098128],[83.38790771289608,19.926670177416312],[83.34918549851359,19.965395285053997],[83.31325017174134,20.006409652155092],[83.28025561316544,20.049537648903026],[83.25034311055113,20.094594594594593],[83.22364075382686,20.14138754847108],[83.20026288658354,20.189716135920197],[83.18030961643775,20.23937340651095],[83.16386638635552,20.290146720187145],[83.1510036087725,20.34181865782476],[83.141776364077,20.394167952254012],[83.13622416474742,20.446970435759344],[83.13437078615367,20.5],[83.13622416474742,20.553029564240656],[83.141776364077,20.605832047745988],[83.1510036087725,20.65818134217524],[83.16386638635552,20.709853279812855],[83.18030961643775,20.76062659348905],[83.20026288658354,20.810283864079803],[83.22364075382686,20.85861245152892],[83.25034311055113,20.905405405405407],[83.28025561316544,20.950462351096974],[83.31325017174134,20.993590347844908],[83.34918549851359,21.034604714946003],[83.38790771289608,21.073329822583688],[83.42925100042206,21.109599843901872],[83.47303832278722,21.143259465101],[83.51908217595482,21.174164550515577],[83.56718539307684,21.20218275982522],[83.6171419887926,21.227194114756234],[83.6687380412898,21.249091512846988],[83.72175260835044,21.267781186077112],[83.77595867345944,21.283183102396542],[83.83112411792415,21.295231308435053],[83.8870127148422,21.30387421192471],[83.94338514066142,21.309074802625894],[84.0,21.31081081081081]]]},"properties":{"zone_type":"forest","zone_label":"Forest / Jungle","zone_color":"#22c55e","name":"Odisha Forest Zone","state":"Odisha","subtype":"reserve_forest","area_sqkm":25446.9,"source":"curated_research","osm_id":""}},{"type":"Feature","geometry":{"type":"Polygon","coordinates":[[[93.5,26.9009009009009],[93.56555644008523,26.89897200291766],[93.63083215742961,26.893193568805234],[93.69554763139016,26.883590342705613],[93.75942574037207,26.87020344710727],[93.82219294850594,26.85309020675235],[93.88358047697037,26.83232390316332],[93.94332545494404,26.807993460840258],[94.0011720452591,26.780203066472467],[94.05687253993501,26.749071722795087],[94.1101884209023,26.714732739001114],[94.16089138137345,26.67733315989097],[94.20876430348767,26.637033136204096],[94.25360218804289,26.594005238828892],[94.29521303233379,26.548433719827678],[94.3334186523369,26.500513723441085],[94.36805544572196,26.45045045045045],[94.39897509242213,26.39845827947658],[94.4260451897634,26.34475984897756],[94.44914981943305,26.28958510387672],[94.46819004385975,26.233170310903173],[94.4830843298794,26.175757046861378],[94.49376889787267,26.11759116416221],[94.50019799487906,26.058921738045175],[94.50234409051819,26.0],[94.50019799487906,25.941078261954825],[94.49376889787267,25.88240883583779],[94.4830843298794,25.824242953138622],[94.46819004385975,25.766829689096827],[94.44914981943305,25.71041489612328],[94.4260451897634,25.65524015102244],[94.39897509242213,25.60154172052342],[94.36805544572196,25.54954954954955],[94.3334186523369,25.499486276558915],[94.29521303233379,25.451566280172322],[94.25360218804289,25.405994761171108],[94.20876430348767,25.362966863795904],[94.16089138137345,25.32266684010903],[94.1101884209023,25.285267260998886],[94.05687253993501,25.250928277204913],[94.0011720452591,25.219796933527533],[93.94332545494404,25.192006539159742],[93.88358047697037,25.16767609683668],[93.82219294850594,25.14690979324765],[93.75942574037207,25.12979655289273],[93.69554763139016,25.116409657294387],[93.63083215742961,25.106806431194766],[93.56555644008523,25.10102799708234],[93.5,25.0990990990991],[93.43444355991477,25.10102799708234],[93.36916784257039,25.106806431194766],[93.30445236860984,25.116409657294387],[93.24057425962793,25.12979655289273],[93.17780705149406,25.14690979324765],[93.11641952302963,25.16767609683668],[93.05667454505596,25.192006539159742],[92.9988279547409,25.219796933527533],[92.94312746006499,25.250928277204913],[92.8898115790977,25.285267260998886],[92.83910861862655,25.32266684010903],[92.79123569651233,25.362966863795904],[92.74639781195711,25.405994761171108],[92.70478696766621,25.451566280172322],[92.6665813476631,25.499486276558915],[92.63194455427804,25.54954954954955],[92.60102490757787,25.60154172052342],[92.5739548102366,25.655240151022443],[92.55085018056695,25.71041489612328],[92.53180995614025,25.766829689096827],[92.5169156701206,25.824242953138622],[92.50623110212733,25.88240883583779],[92.49980200512094,25.941078261954825],[92.49765590948181,26.0],[92.49980200512094,26.058921738045175],[92.50623110212733,26.11759116416221],[92.5169156701206,26.175757046861378],[92.53180995614025,26.233170310903173],[92.55085018056695,26.28958510387672],[92.5739548102366,26.34475984897756],[92.60102490757787,26.39845827947658],[92.63194455427804,26.45045045045045],[92.6665813476631,26.50051372344108],[92.70478696766621,26.548433719827678],[92.74639781195711,26.594005238828892],[92.79123569651233,26.637033136204096],[92.83910861862655,26.67733315989097],[92.8898115790977,26.714732739001114],[92.94312746006499,26.749071722795087],[92.9988279547409,26.780203066472467],[93.05667454505596,26.807993460840258],[93.11641952302963,26.83232390316332],[93.17780705149406,26.85309020675235],[93.24057425962793,26.87020344710727],[93.30445236860984,26.883590342705613],[93.36916784257039,26.893193568805234],[93.43444355991477,26.89897200291766],[93.5,26.9009009009009]]]},"properties":{"zone_type":"forest","zone_label":"Forest / Jungle","zone_color":"#22c55e","name":"Northeast India Forests (Assam)","state":"Assam","subtype":"reserve_forest","area_sqkm":31415.93,"source":"curated_research","osm_id":""}},{"type":"Feature","geometry":{"type":"Polygon","coordinates":[[[95.0,29.17117117117117],[95.08675289459786,29.168663603792957],[95.17313429998251,29.161151639446803],[95.25877431771457,29.148667445517297],[95.34330622409043,29.131264481239448],[95.42636804050939,29.10901726877805],[95.50760408352167,29.08202107411232],[95.58666648791953,29.05039149909234],[95.66321669634944,29.014263986414207],[95.7369269090667,28.97379323963361],[95.80748148762426,28.929152560701446],[95.87457830648499,28.880533107858263],[95.93793004676965,28.828143077065327],[95.9972654266004,28.77220681047756],[96.05233036277149,28.71296383577598],[96.10288905877248,28.650667840473407],[96.1487250145052,28.585585585585587],[96.18964195337034,28.51799576331955],[96.22546466275399,28.448187803670827],[96.25603974431498,28.376460635039738],[96.28123627086008,28.303121404174124],[96.30094634699438,28.22848416091979],[96.31508557114593,28.152868513410873],[96.32359339698623,28.076598259458727],[96.32643339269887,28.0],[96.32359339698623,27.923401740541273],[96.31508557114593,27.847131486589127],[96.30094634699438,27.77151583908021],[96.28123627086008,27.696878595825876],[96.25603974431498,27.623539364960262],[96.22546466275399,27.551812196329173],[96.18964195337034,27.48200423668045],[96.1487250145052,27.414414414414416],[96.10288905877248,27.349332159526593],[96.05233036277149,27.28703616422402],[95.9972654266004,27.22779318952244],[95.93793004676965,27.171856922934673],[95.87457830648499,27.119466892141737],[95.80748148762426,27.070847439298554],[95.7369269090667,27.02620676036639],[95.66321669634944,26.985736013585793],[95.58666648791953,26.94960850090766],[95.50760408352167,26.91797892588768],[95.42636804050939,26.89098273122195],[95.34330622409043,26.868735518760552],[95.25877431771457,26.851332554482703],[95.17313429998251,26.838848360553197],[95.08675289459786,26.831336396207043],[95.0,26.82882882882883],[94.91324710540214,26.831336396207043],[94.82686570001749,26.838848360553193],[94.74122568228543,26.851332554482703],[94.65669377590957,26.868735518760552],[94.57363195949061,26.89098273122195],[94.49239591647833,26.91797892588768],[94.41333351208047,26.94960850090766],[94.33678330365056,26.985736013585793],[94.2630730909333,27.02620676036639],[94.19251851237574,27.070847439298554],[94.12542169351501,27.119466892141737],[94.06206995323035,27.171856922934673],[94.0027345733996,27.22779318952244],[93.94766963722851,27.28703616422402],[93.89711094122752,27.349332159526593],[93.8512749854948,27.414414414414413],[93.81035804662966,27.48200423668045],[93.77453533724601,27.551812196329173],[93.74396025568502,27.623539364960262],[93.71876372913992,27.696878595825876],[93.69905365300562,27.77151583908021],[93.68491442885407,27.847131486589127],[93.67640660301377,27.923401740541273],[93.67356660730113,28.0],[93.67640660301377,28.076598259458727],[93.68491442885407,28.15286851341087],[93.69905365300562,28.22848416091979],[93.71876372913992,28.303121404174124],[93.74396025568502,28.376460635039738],[93.77453533724601,28.448187803670827],[93.81035804662966,28.51799576331955],[93.8512749854948,28.585585585585587],[93.89711094122751,28.650667840473407],[93.94766963722851,28.71296383577598],[94.0027345733996,28.77220681047756],[94.06206995323035,28.828143077065327],[94.12542169351501,28.880533107858263],[94.19251851237574,28.929152560701446],[94.2630730909333,28.97379323963361],[94.33678330365056,29.014263986414207],[94.41333351208047,29.05039149909234],[94.49239591647833,29.08202107411232],[94.57363195949061,29.10901726877805],[94.65669377590957,29.131264481239448],[94.74122568228543,29.148667445517297],[94.82686570001749,29.161151639446803],[94.91324710540214,29.168663603792957],[95.0,29.17117117117117]]]},"properties":{"zone_type":"forest","zone_label":"Forest / Jungle","zone_color":"#22c55e","name":"Arunachal Forest Belt","state":"Arunachal Pradesh","subtype":"reserve_forest","area_sqkm":53092.92,"source":"curated_research","osm_id":""}},{"type":"Feature","geometry":{"type":"Polygon","coordinates":[[[94.5,26.495495495495497],[94.53605604204688,26.494434601604713],[94.57195768658629,26.49125646284288],[94.60755119726458,26.48597468848809],[94.64268415720464,26.478611895908998],[94.67720612167827,26.46919961371379],[94.7109692623337,26.457778146739827],[94.74382900021922,26.444396403462143],[94.77564462489251,26.429111686559857],[94.80627989696426,26.411989447537298],[94.83560363149627,26.393103006450612],[94.8634902597554,26.372533237940033],[94.88982036691822,26.350368224912252],[94.91448120342359,26.32670288135589],[94.93736716778358,26.30163854590522],[94.9583802587853,26.275282547892594],[94.97743049514708,26.24774774774775],[94.99443630083218,26.21915205371212],[95.00932485436986,26.189617916937657],[95.02203240068818,26.159271807132196],[95.03250452412286,26.128243670996746],[95.04069638143368,26.096666375773758],[95.04657289382996,26.064675140289214],[95.05010889718348,26.032406955924845],[95.051289249785,26.0],[95.05010889718348,25.967593044075155],[95.04657289382996,25.935324859710786],[95.04069638143368,25.903333624226242],[95.03250452412286,25.871756329003254],[95.02203240068818,25.840728192867804],[95.00932485436986,25.810382083062343],[94.99443630083218,25.78084794628788],[94.97743049514708,25.75225225225225],[94.9583802587853,25.724717452107406],[94.93736716778358,25.69836145409478],[94.91448120342359,25.67329711864411],[94.88982036691822,25.649631775087748],[94.8634902597554,25.627466762059967],[94.83560363149627,25.606896993549388],[94.80627989696426,25.588010552462702],[94.77564462489251,25.570888313440143],[94.74382900021922,25.555603596537857],[94.7109692623337,25.542221853260173],[94.67720612167827,25.53080038628621],[94.64268415720464,25.521388104091002],[94.60755119726458,25.51402531151191],[94.57195768658629,25.50874353715712],[94.53605604204688,25.505565398395287],[94.5,25.504504504504503],[94.46394395795312,25.505565398395287],[94.42804231341371,25.50874353715712],[94.39244880273542,25.51402531151191],[94.35731584279536,25.521388104091002],[94.32279387832173,25.53080038628621],[94.2890307376663,25.542221853260173],[94.25617099978078,25.555603596537857],[94.22435537510749,25.570888313440143],[94.19372010303574,25.588010552462702],[94.16439636850373,25.606896993549388],[94.1365097402446,25.627466762059967],[94.11017963308178,25.649631775087748],[94.08551879657641,25.67329711864411],[94.06263283221642,25.698361454094776],[94.0416197412147,25.724717452107406],[94.02256950485292,25.75225225225225],[94.00556369916782,25.78084794628788],[93.99067514563014,25.810382083062343],[93.97796759931182,25.840728192867804],[93.96749547587714,25.871756329003254],[93.95930361856632,25.903333624226242],[93.95342710617004,25.935324859710786],[93.94989110281652,25.967593044075155],[93.948710750215,26.0],[93.94989110281652,26.032406955924845],[93.95342710617004,26.064675140289214],[93.95930361856632,26.096666375773758],[93.96749547587714,26.128243670996746],[93.97796759931182,26.159271807132196],[93.99067514563014,26.189617916937657],[94.00556369916782,26.21915205371212],[94.02256950485292,26.24774774774775],[94.0416197412147,26.275282547892594],[94.06263283221642,26.30163854590522],[94.08551879657641,26.32670288135589],[94.11017963308178,26.350368224912252],[94.1365097402446,26.372533237940033],[94.16439636850373,26.393103006450612],[94.19372010303574,26.411989447537298],[94.22435537510749,26.429111686559857],[94.25617099978078,26.444396403462143],[94.2890307376663,26.457778146739827],[94.32279387832173,26.46919961371379],[94.35731584279536,26.478611895908998],[94.39244880273542,26.48597468848809],[94.42804231341371,26.49125646284288],[94.46394395795312,26.494434601604713],[94.5,26.495495495495497]]]},"properties":{"zone_type":"forest","zone_label":"Forest / Jungle","zone_color":"#22c55e","name":"Nagaland Hill Forests","state":"Nagaland","subtype":"reserve_forest","area_sqkm":9503.32,"source":"curated_research","osm_id":""}},{"type":"Feature","geometry":{"type":"Polygon","coordinates":[[[92.8,23.45045045045045],[92.83200512079006,23.44948600145883],[92.86387319073938,23.44659678440262],[92.89546774587998,23.441795171352805],[92.92665349347624,23.435101723553636],[92.95729689136923,23.426545103376174],[92.98726671982472,23.41616195158166],[93.01643464343621,23.40399673042013],[93.04467576067687,23.390101533236233],[93.07186913874699,23.374535861397543],[93.09789833142689,23.357366369500557],[93.12265187771743,23.338666579945485],[93.14602377913317,23.318516568102048],[93.16791395360414,23.297002619414446],[93.18822866404258,23.27421685991384],[93.20688091973965,23.25025686172054],[93.2237908488729,23.225225225225227],[93.23888604052972,23.19922913973829],[93.25210185478197,23.17237992448878],[93.26338169948411,23.144792551938362],[93.27267727260941,23.116585155451585],[93.27994876908667,23.08787852343069],[93.28516505125161,23.058795582081103],[93.2883037821832,23.029460869022586],[93.28935152135374,23.0],[93.2883037821832,22.970539130977414],[93.28516505125161,22.941204417918897],[93.27994876908667,22.91212147656931],[93.27267727260941,22.883414844548415],[93.26338169948411,22.855207448061638],[93.25210185478197,22.82762007551122],[93.23888604052972,22.80077086026171],[93.2237908488729,22.774774774774777],[93.20688091973965,22.74974313827946],[93.18822866404258,22.72578314008616],[93.16791395360414,22.702997380585554],[93.14602377913317,22.681483431897952],[93.12265187771743,22.661333420054515],[93.09789833142689,22.642633630499443],[93.07186913874699,22.625464138602457],[93.04467576067687,22.609898466763767],[93.01643464343621,22.59600326957987],[92.98726671982472,22.58383804841834],[92.95729689136923,22.573454896623826],[92.92665349347624,22.564898276446364],[92.89546774587998,22.558204828647195],[92.86387319073938,22.55340321559738],[92.83200512079006,22.55051399854117],[92.8,22.54954954954955],[92.76799487920994,22.55051399854117],[92.73612680926061,22.55340321559738],[92.70453225412001,22.558204828647195],[92.67334650652376,22.564898276446364],[92.64270310863077,22.573454896623826],[92.61273328017528,22.58383804841834],[92.58356535656378,22.59600326957987],[92.55532423932313,22.609898466763767],[92.528130861253,22.625464138602457],[92.5021016685731,22.642633630499443],[92.47734812228256,22.661333420054515],[92.45397622086682,22.681483431897952],[92.43208604639585,22.702997380585554],[92.41177133595741,22.72578314008616],[92.39311908026035,22.74974313827946],[92.3762091511271,22.774774774774773],[92.36111395947027,22.80077086026171],[92.34789814521802,22.82762007551122],[92.33661830051588,22.855207448061638],[92.32732272739058,22.883414844548415],[92.32005123091332,22.91212147656931],[92.31483494874838,22.941204417918897],[92.31169621781679,22.970539130977414],[92.31064847864626,23.0],[92.31169621781679,23.029460869022586],[92.31483494874838,23.058795582081103],[92.32005123091332,23.08787852343069],[92.32732272739058,23.116585155451585],[92.33661830051588,23.144792551938362],[92.34789814521802,23.17237992448878],[92.36111395947027,23.19922913973829],[92.3762091511271,23.225225225225227],[92.39311908026035,23.25025686172054],[92.41177133595741,23.27421685991384],[92.43208604639585,23.297002619414446],[92.45397622086682,23.318516568102048],[92.47734812228256,23.338666579945485],[92.5021016685731,23.357366369500557],[92.528130861253,23.374535861397543],[92.55532423932313,23.390101533236233],[92.58356535656378,23.40399673042013],[92.61273328017528,23.41616195158166],[92.64270310863077,23.426545103376174],[92.67334650652376,23.435101723553636],[92.70453225412001,23.441795171352805],[92.73612680926061,23.44659678440262],[92.76799487920994,23.44948600145883],[92.8,23.45045045045045]]]},"properties":{"zone_type":"forest","zone_label":"Forest / Jungle","zone_color":"#22c55e","name":"Mizoram Hill Forests","state":"Mizoram","subtype":"reserve_forest","area_sqkm":7853.98,"source":"curated_research","osm_id":""}},{"type":"Feature","geometry":{"type":"Polygon","coordinates":[[[77.0,10.340540540540541],[77.03587655719171,10.339383201750596],[77.07159948545765,10.33591614128314],[77.10701581373472,10.33015420562337],[77.141973883868,10.322122068264362],[77.17632400003433,10.31185412405141],[77.20991906976276,10.299394341897994],[77.24261523380711,10.284796076504156],[77.27427248217333,10.26812183988348],[77.3047552536638,10.249443033677052],[77.3339330163712,10.228839643400669],[77.36168082663619,10.206399895934583],[77.38787986407526,10.182219881722459],[77.41241794038795,10.156403143297336],[77.43518997976436,10.129060231896606],[77.45609846883583,10.10030823406465],[77.47505387424223,10.07027027027027],[77.49197502602753,10.039074967685947],[77.50678946522201,10.006855909386536],[77.51943375412267,9.973751062326034],[77.52985374794325,9.939902186541904],[77.53800482667052,9.905454228116827],[77.54385208613397,9.870554698497326],[77.54737048747091,9.835353042827105],[77.54854496434666,9.8],[77.54737048747091,9.764646957172896],[77.54385208613397,9.729445301502675],[77.53800482667052,9.694545771883174],[77.52985374794325,9.660097813458098],[77.51943375412267,9.626248937673967],[77.50678946522201,9.593144090613466],[77.49197502602753,9.560925032314055],[77.47505387424223,9.52972972972973],[77.45609846883583,9.499691765935351],[77.43518997976436,9.470939768103396],[77.41241794038795,9.443596856702666],[77.38787986407526,9.417780118277543],[77.36168082663619,9.393600104065419],[77.3339330163712,9.371160356599333],[77.3047552536638,9.35055696632295],[77.27427248217333,9.33187816011652],[77.24261523380711,9.315203923495845],[77.20991906976276,9.300605658102008],[77.17632400003433,9.288145875948592],[77.141973883868,9.27787793173564],[77.10701581373472,9.269845794376632],[77.07159948545765,9.26408385871686],[77.03587655719171,9.260616798249405],[77.0,9.25945945945946],[76.96412344280829,9.260616798249405],[76.92840051454235,9.26408385871686],[76.89298418626528,9.269845794376632],[76.858026116132,9.27787793173564],[76.82367599996567,9.288145875948592],[76.79008093023724,9.300605658102008],[76.75738476619289,9.315203923495845],[76.72572751782667,9.33187816011652],[76.6952447463362,9.35055696632295],[76.6660669836288,9.371160356599333],[76.63831917336381,9.393600104065419],[76.61212013592474,9.417780118277543],[76.58758205961205,9.443596856702666],[76.56481002023564,9.470939768103396],[76.54390153116417,9.499691765935351],[76.52494612575777,9.52972972972973],[76.50802497397247,9.560925032314055],[76.49321053477799,9.593144090613466],[76.48056624587733,9.626248937673967],[76.47014625205675,9.660097813458098],[76.46199517332948,9.694545771883174],[76.45614791386603,9.729445301502675],[76.45262951252909,9.764646957172896],[76.45145503565334,9.8],[76.45262951252909,9.835353042827105],[76.45614791386603,9.870554698497326],[76.46199517332948,9.905454228116827],[76.47014625205675,9.939902186541904],[76.48056624587733,9.973751062326034],[76.49321053477799,10.006855909386536],[76.50802497397247,10.039074967685947],[76.52494612575777,10.07027027027027],[76.54390153116417,10.10030823406465],[76.56481002023564,10.129060231896606],[76.58758205961205,10.156403143297336],[76.61212013592474,10.182219881722459],[76.63831917336381,10.206399895934583],[76.6660669836288,10.228839643400669],[76.6952447463362,10.249443033677052],[76.72572751782667,10.26812183988348],[76.75738476619289,10.284796076504156],[76.79008093023724,10.299394341897994],[76.82367599996567,10.31185412405141],[76.858026116132,10.322122068264362],[76.89298418626528,10.33015420562337],[76.92840051454235,10.33591614128314],[76.96412344280829,10.339383201750596],[77.0,10.340540540540541]]]},"properties":{"zone_type":"forest","zone_label":"Forest / Jungle","zone_color":"#22c55e","name":"Kerala Western Ghats Forests","state":"Kerala","subtype":"reserve_forest","area_sqkm":11309.73,"source":"curated_research","osm_id":""}},{"type":"Feature","geometry":{"type":"Polygon","coordinates":[[[76.5,11.845495495495495],[76.53305337112138,11.844434601604712],[76.5659652026332,11.841256462842878],[76.59859456102015,11.835974688488086],[76.63080172236032,11.828611895908997],[76.66244877064427,11.81919961371379],[76.69340018835277,11.807778146739826],[76.72352343676339,11.794396403462143],[76.75268952350184,11.779111686559856],[76.78077355490706,11.761989447537296],[76.80765527084502,11.743103006450612],[76.83321955968113,11.722533237940034],[76.85735695120589,11.700368224912253],[76.87996408540315,11.67670288135589],[76.90094415505357,11.651638545905222],[76.92020732027797,11.625282547892596],[76.93767109324556,11.597747747747748],[76.95326069139936,11.569152053712118],[76.96690935768676,11.539617916937656],[76.9785586464233,11.509271807132198],[76.9881586735662,11.478243670996743],[76.99566833032542,11.446666375773757],[77.00105545919779,11.414675140289214],[77.00429699167044,11.382406955924845],[77.00537904700367,11.35],[77.00429699167044,11.317593044075155],[77.00105545919779,11.285324859710785],[76.99566833032542,11.253333624226242],[76.9881586735662,11.221756329003256],[76.9785586464233,11.190728192867802],[76.96690935768676,11.160382083062343],[76.95326069139936,11.130847946287881],[76.93767109324556,11.102252252252253],[76.92020732027797,11.074717452107404],[76.90094415505357,11.048361454094778],[76.87996408540315,11.023297118644109],[76.85735695120589,10.999631775087746],[76.83321955968113,10.977466762059965],[76.80765527084502,10.956896993549387],[76.78077355490706,10.938010552462702],[76.75268952350184,10.920888313440143],[76.72352343676339,10.905603596537857],[76.69340018835277,10.892221853260173],[76.66244877064429,10.880800386286209],[76.63080172236032,10.871388104091002],[76.59859456102015,10.864025311511913],[76.5659652026332,10.858743537157121],[76.53305337112138,10.855565398395287],[76.5,10.854504504504504],[76.46694662887862,10.855565398395287],[76.4340347973668,10.858743537157121],[76.40140543897985,10.864025311511913],[76.36919827763968,10.871388104091002],[76.33755122935573,10.880800386286209],[76.30659981164723,10.892221853260173],[76.27647656323661,10.905603596537857],[76.24731047649816,10.920888313440143],[76.21922644509294,10.938010552462703],[76.19234472915498,10.956896993549387],[76.16678044031887,10.977466762059965],[76.14264304879411,10.999631775087746],[76.12003591459685,11.023297118644109],[76.09905584494643,11.048361454094778],[76.07979267972203,11.074717452107404],[76.06232890675444,11.102252252252251],[76.04673930860064,11.130847946287881],[76.03309064231324,11.160382083062343],[76.0214413535767,11.190728192867802],[76.0118413264338,11.221756329003256],[76.00433166967458,11.253333624226242],[75.99894454080221,11.285324859710785],[75.99570300832956,11.317593044075155],[75.99462095299633,11.35],[75.99570300832956,11.382406955924845],[75.99894454080221,11.414675140289214],[76.00433166967458,11.446666375773757],[76.0118413264338,11.478243670996743],[76.0214413535767,11.509271807132198],[76.03309064231324,11.539617916937656],[76.04673930860064,11.569152053712116],[76.06232890675444,11.597747747747748],[76.07979267972203,11.625282547892596],[76.09905584494643,11.651638545905222],[76.12003591459685,11.67670288135589],[76.14264304879411,11.700368224912253],[76.16678044031887,11.722533237940034],[76.19234472915498,11.743103006450612],[76.21922644509294,11.761989447537296],[76.24731047649816,11.779111686559856],[76.27647656323661,11.794396403462143],[76.30659981164723,11.807778146739826],[76.33755122935571,11.81919961371379],[76.36919827763968,11.828611895908997],[76.40140543897985,11.835974688488086],[76.4340347973668,11.841256462842878],[76.46694662887862,11.844434601604712],[76.5,11.845495495495495]]]},"properties":{"zone_type":"forest","zone_label":"Forest / Jungle","zone_color":"#22c55e","name":"Nilgiris Biosphere Reserve","state":"Tamil Nadu","subtype":"reserve_forest","area_sqkm":9503.32,"source":"curated_research","osm_id":""}},{"type":"Feature","geometry":{"type":"Polygon","coordinates":[[[88.8,22.26036036036036],[88.82540178303987,22.259588801167062],[88.85069479174501,22.25727742752209],[88.8757707175691,22.253436137082243],[88.90052218154803,22.248081378842905],[88.92484319411311,22.241236082700937],[88.94862960895473,22.232929561265326],[88.97177956899277,22.223197384336103],[88.99419394254431,22.212081226588985],[89.01577674782068,22.199628689118033],[89.03643556393622,22.185893095600445],[89.05608192666875,22.170933263956385],[89.07463170727686,22.15481325448164],[89.0920054727522,22.137602095531555],[89.10812882596372,22.119373487931068],[89.12293272423764,22.10020548937643],[89.13635377500886,22.08018018018018],[89.14833450727753,22.05938331179063],[89.15882361770873,22.037903939591022],[89.1677761903213,22.015834041550686],[89.1751538888249,21.99326812436127],[89.18092512078186,21.97030281874455],[89.18506517289096,21.947036465664883],[89.18755631681346,21.92356869521807],[89.18838788508863,21.9],[89.18755631681346,21.876431304781928],[89.18506517289096,21.852963534335114],[89.18092512078186,21.829697181255447],[89.1751538888249,21.80673187563873],[89.1677761903213,21.78416595844931],[89.15882361770873,21.762096060408975],[89.14833450727753,21.740616688209368],[89.13635377500886,21.71981981981982],[89.12293272423764,21.699794510623565],[89.10812882596372,21.68062651206893],[89.0920054727522,21.662397904468442],[89.07463170727686,21.64518674551836],[89.05608192666875,21.62906673604361],[89.03643556393622,21.614106904399552],[89.01577674782068,21.600371310881965],[88.99419394254431,21.587918773411012],[88.97177956899277,21.576802615663894],[88.94862960895473,21.56707043873467],[88.92484319411311,21.55876391729906],[88.90052218154803,21.551918621157093],[88.8757707175691,21.546563862917754],[88.85069479174501,21.542722572477906],[88.82540178303987,21.540411198832935],[88.8,21.53963963963964],[88.77459821696013,21.540411198832935],[88.74930520825498,21.542722572477906],[88.7242292824309,21.546563862917754],[88.69947781845197,21.551918621157093],[88.67515680588689,21.55876391729906],[88.65137039104526,21.56707043873467],[88.62822043100722,21.576802615663894],[88.60580605745568,21.587918773411012],[88.58422325217931,21.600371310881965],[88.56356443606377,21.614106904399552],[88.54391807333124,21.62906673604361],[88.52536829272313,21.64518674551836],[88.50799452724779,21.662397904468442],[88.49187117403628,21.68062651206893],[88.47706727576235,21.699794510623565],[88.46364622499114,21.71981981981982],[88.45166549272247,21.740616688209368],[88.44117638229126,21.762096060408975],[88.43222380967869,21.78416595844931],[88.4248461111751,21.80673187563873],[88.41907487921813,21.829697181255447],[88.41493482710904,21.852963534335114],[88.41244368318654,21.876431304781928],[88.41161211491136,21.9],[88.41244368318654,21.92356869521807],[88.41493482710904,21.947036465664883],[88.41907487921813,21.97030281874455],[88.4248461111751,21.99326812436127],[88.43222380967869,22.015834041550686],[88.44117638229126,22.037903939591022],[88.45166549272247,22.05938331179063],[88.46364622499114,22.08018018018018],[88.47706727576235,22.10020548937643],[88.49187117403628,22.119373487931068],[88.50799452724779,22.137602095531555],[88.52536829272313,22.15481325448164],[88.54391807333124,22.170933263956385],[88.56356443606377,22.185893095600445],[88.58422325217931,22.199628689118033],[88.60580605745568,22.212081226588985],[88.62822043100722,22.223197384336103],[88.65137039104526,22.232929561265326],[88.67515680588689,22.241236082700937],[88.69947781845197,22.248081378842905],[88.7242292824309,22.253436137082243],[88.74930520825498,22.25727742752209],[88.77459821696013,22.259588801167062],[88.8,22.26036036036036]]]},"properties":{"zone_type":"forest","zone_label":"Forest / Jungle","zone_color":"#22c55e","name":"Sundarbans Mangrove Forest (WB)","state":"West Bengal","subtype":"reserve_forest","area_sqkm":5026.55,"source":"curated_research","osm_id":""}},{"type":"Feature","geometry":{"type":"Polygon","coordinates":[[[86.5,21.965315315315316],[86.52218785301085,21.96464020102118],[86.54428069422875,21.96261774908183],[86.56618391871588,21.959256619946963],[86.58780373350231,21.954571206487543],[86.60904755922203,21.94858157236332],[86.62982442655186,21.94131336610716],[86.6500453657562,21.93279771129409],[86.66962378766898,21.923071073265362],[86.68847585448185,21.912175102978278],[86.70652083875048,21.90015645865039],[86.72368146908194,21.887066605961838],[86.73988426102257,21.872961597671434],[86.75505983172981,21.85790183359011],[86.76914319708008,21.841951801939686],[86.78207404994083,21.825179803204378],[86.79379701841495,21.807657657657657],[86.80426190295168,21.7894603978168],[86.81342389130883,21.770665947142145],[86.82124375044567,21.751354786356853],[86.8276879945249,21.731609608816107],[86.83272902830396,21.71151496640148],[86.83634526530236,21.691156907456772],[86.83852122023805,21.67062260831581],[86.83924757533796,21.65],[86.83852122023805,21.629377391684187],[86.83634526530236,21.608843092543225],[86.83272902830396,21.588485033598516],[86.8276879945249,21.56839039118389],[86.82124375044567,21.548645213643145],[86.81342389130883,21.529334052857852],[86.80426190295168,21.510539602183197],[86.79379701841495,21.49234234234234],[86.78207404994083,21.47482019679562],[86.76914319708008,21.45804819806031],[86.75505983172981,21.442098166409888],[86.73988426102257,21.427038402328563],[86.72368146908194,21.41293339403816],[86.70652083875048,21.399843541349608],[86.68847585448185,21.38782489702172],[86.66962378766898,21.376928926734635],[86.6500453657562,21.367202288705908],[86.62982442655186,21.358686633892837],[86.60904755922203,21.351418427636677],[86.58780373350231,21.345428793512454],[86.56618391871588,21.340743380053034],[86.54428069422875,21.337382250918168],[86.52218785301085,21.335359798978818],[86.5,21.33468468468468],[86.47781214698915,21.335359798978818],[86.45571930577125,21.337382250918168],[86.43381608128412,21.340743380053034],[86.41219626649769,21.345428793512454],[86.39095244077797,21.351418427636677],[86.37017557344814,21.358686633892837],[86.3499546342438,21.367202288705908],[86.33037621233102,21.376928926734635],[86.31152414551815,21.38782489702172],[86.29347916124952,21.399843541349608],[86.27631853091806,21.41293339403816],[86.26011573897743,21.427038402328563],[86.24494016827019,21.442098166409888],[86.23085680291992,21.45804819806031],[86.21792595005917,21.47482019679562],[86.20620298158505,21.49234234234234],[86.19573809704832,21.510539602183197],[86.18657610869117,21.529334052857852],[86.17875624955433,21.548645213643145],[86.1723120054751,21.56839039118389],[86.16727097169604,21.588485033598516],[86.16365473469764,21.608843092543225],[86.16147877976195,21.629377391684187],[86.16075242466204,21.65],[86.16147877976195,21.67062260831581],[86.16365473469764,21.691156907456772],[86.16727097169604,21.71151496640148],[86.1723120054751,21.731609608816107],[86.17875624955433,21.751354786356853],[86.18657610869117,21.770665947142145],[86.19573809704832,21.7894603978168],[86.20620298158505,21.807657657657657],[86.21792595005917,21.825179803204378],[86.23085680291992,21.841951801939686],[86.24494016827019,21.85790183359011],[86.26011573897743,21.87296159767143],[86.27631853091806,21.887066605961838],[86.29347916124952,21.90015645865039],[86.31152414551815,21.912175102978278],[86.33037621233102,21.923071073265362],[86.3499546342438,21.93279771129409],[86.37017557344814,21.94131336610716],[86.39095244077797,21.94858157236332],[86.41219626649769,21.954571206487543],[86.43381608128412,21.959256619946963],[86.45571930577125,21.96261774908183],[86.47781214698915,21.96464020102118],[86.5,21.965315315315316]]]},"properties":{"zone_type":"forest","zone_label":"Forest / Jungle","zone_color":"#22c55e","name":"Simlipal Forest Division (Odisha)","state":"Odisha","subtype":"reserve_forest","area_sqkm":3848.45,"source":"curated_research","osm_id":""}},{"type":"Feature","geometry":{"type":"Polygon","coordinates":[[[79.3,22.16036036036036],[79.32538401183488,22.159588801167065],[79.35065932543407,22.157277427522093],[79.37571770802438,22.153436137082245],[79.40045185576454,22.148081378842907],[79.42475585323668,22.14123608270094],[79.44852562699238,22.13292956126533],[79.47165939121122,22.123197384336105],[79.49405808356327,22.112081226588987],[79.51562578940919,22.099628689118035],[79.53627015252135,22.085893095600447],[79.55590277056757,22.070933263956388],[79.57443957366333,22.05481325448164],[79.59180118437192,22.037602095531557],[79.60791325761089,22.01937348793107],[79.62270679900907,22.000205489376434],[79.63611846035106,21.98018018018018],[79.64809081084395,21.95938331179063],[79.65857258304496,21.937903939591024],[79.6675188923963,21.91583404155069],[79.67489142942787,21.89326812436127],[79.68065862380425,21.870302818744552],[79.68479577951373,21.847036465664885],[79.6872851806204,21.82356869521807],[79.68811616712657,21.8],[79.6872851806204,21.77643130478193],[79.68479577951373,21.752963534335116],[79.68065862380425,21.72969718125545],[79.67489142942787,21.70673187563873],[79.6675188923963,21.684165958449313],[79.65857258304496,21.662096060408977],[79.64809081084395,21.64061668820937],[79.63611846035106,21.61981981981982],[79.62270679900907,21.599794510623568],[79.60791325761089,21.580626512068932],[79.59180118437192,21.562397904468444],[79.57443957366333,21.54518674551836],[79.55590277056757,21.529066736043614],[79.53627015252135,21.514106904399554],[79.51562578940919,21.500371310881967],[79.49405808356327,21.487918773411014],[79.47165939121122,21.476802615663896],[79.44852562699238,21.467070438734673],[79.42475585323668,21.458763917299063],[79.40045185576454,21.451918621157095],[79.37571770802438,21.446563862917756],[79.35065932543407,21.44272257247791],[79.32538401183488,21.440411198832937],[79.3,21.43963963963964],[79.27461598816511,21.440411198832937],[79.24934067456593,21.44272257247791],[79.22428229197561,21.446563862917756],[79.19954814423545,21.451918621157095],[79.17524414676332,21.458763917299063],[79.15147437300762,21.467070438734673],[79.12834060878878,21.476802615663896],[79.10594191643672,21.487918773411014],[79.08437421059081,21.500371310881967],[79.06372984747864,21.514106904399554],[79.04409722943242,21.529066736043614],[79.02556042633667,21.54518674551836],[79.00819881562808,21.562397904468444],[78.9920867423891,21.580626512068932],[78.97729320099093,21.599794510623568],[78.96388153964894,21.61981981981982],[78.95190918915604,21.64061668820937],[78.94142741695504,21.662096060408977],[78.93248110760369,21.684165958449313],[78.92510857057212,21.70673187563873],[78.91934137619575,21.72969718125545],[78.91520422048626,21.752963534335116],[78.91271481937959,21.77643130478193],[78.91188383287343,21.8],[78.91271481937959,21.82356869521807],[78.91520422048626,21.847036465664885],[78.91934137619575,21.870302818744552],[78.92510857057212,21.89326812436127],[78.93248110760369,21.91583404155069],[78.94142741695504,21.937903939591024],[78.95190918915604,21.95938331179063],[78.96388153964894,21.98018018018018],[78.97729320099093,22.000205489376434],[78.9920867423891,22.01937348793107],[79.00819881562808,22.037602095531557],[79.02556042633667,22.05481325448164],[79.04409722943242,22.070933263956388],[79.06372984747864,22.085893095600447],[79.08437421059081,22.099628689118035],[79.10594191643672,22.112081226588987],[79.12834060878878,22.123197384336105],[79.15147437300762,22.13292956126533],[79.17524414676332,22.14123608270094],[79.19954814423545,22.148081378842907],[79.22428229197561,22.153436137082245],[79.24934067456593,22.157277427522093],[79.27461598816511,22.159588801167065],[79.3,22.16036036036036]]]},"properties":{"zone_type":"forest","zone_label":"Forest / Jungle","zone_color":"#22c55e","name":"Pench Forest Belt (MP)","state":"Madhya Pradesh","subtype":"reserve_forest","area_sqkm":5026.55,"source":"curated_research","osm_id":""}},{"type":"Feature","geometry":{"type":"Polygon","coordinates":[[[79.0,30.72072072072072],[79.05442957011441,30.719177602334128],[79.10862606445339,30.714554855044188],[79.16235740530783,30.70687227416449],[79.21539350682716,30.696162757685816],[79.26750726028246,30.68247216540188],[79.31847550658075,30.66585912253066],[79.36807999186662,30.64639476867221],[79.41610830211864,30.624162453177973],[79.46235477273889,30.599257378236068],[79.50662136924028,30.57178619120089],[79.54871853526065,30.541866527912777],[79.58846600427223,30.509626508963276],[79.62569357151058,30.475204191063114],[79.66024182281748,30.43874697586214],[79.69196281727693,30.400410978752866],[79.72072072072072,30.36036036036036],[79.74639238739132,30.31876662358126],[79.76886788727089,30.275807879182047],[79.7880509768184,30.23166808310138],[79.80385951109939,30.186536248722536],[79.8162257955431,30.140605637489102],[79.82509687582103,30.094072931329766],[79.83043476460551,30.047137390436138],[79.8322166042373,30.0],[79.83043476460551,29.952862609563862],[79.82509687582103,29.905927068670234],[79.8162257955431,29.859394362510898],[79.80385951109939,29.813463751277464],[79.7880509768184,29.76833191689862],[79.76886788727089,29.724192120817953],[79.74639238739132,29.68123337641874],[79.72072072072072,29.63963963963964],[79.69196281727693,29.599589021247134],[79.66024182281748,29.56125302413786],[79.62569357151058,29.524795808936886],[79.58846600427223,29.490373491036724],[79.54871853526065,29.458133472087223],[79.50662136924028,29.42821380879911],[79.46235477273889,29.400742621763932],[79.41610830211864,29.375837546822027],[79.36807999186662,29.35360523132779],[79.31847550658075,29.33414087746934],[79.26750726028246,29.31752783459812],[79.21539350682716,29.303837242314184],[79.16235740530783,29.29312772583551],[79.10862606445339,29.285445144955812],[79.05442957011441,29.280822397665872],[79.0,29.27927927927928],[78.94557042988559,29.280822397665872],[78.89137393554661,29.285445144955812],[78.83764259469217,29.29312772583551],[78.78460649317284,29.303837242314184],[78.73249273971754,29.31752783459812],[78.68152449341925,29.33414087746934],[78.63192000813338,29.35360523132779],[78.58389169788136,29.375837546822027],[78.53764522726111,29.400742621763932],[78.49337863075972,29.42821380879911],[78.45128146473935,29.458133472087223],[78.41153399572777,29.490373491036724],[78.37430642848942,29.524795808936886],[78.33975817718252,29.56125302413786],[78.30803718272307,29.599589021247134],[78.27927927927928,29.63963963963964],[78.25360761260868,29.68123337641874],[78.23113211272911,29.724192120817953],[78.2119490231816,29.76833191689862],[78.19614048890061,29.813463751277464],[78.1837742044569,29.859394362510898],[78.17490312417897,29.905927068670234],[78.16956523539449,29.952862609563862],[78.1677833957627,30.0],[78.16956523539449,30.047137390436138],[78.17490312417897,30.094072931329766],[78.1837742044569,30.140605637489102],[78.19614048890061,30.186536248722536],[78.2119490231816,30.23166808310138],[78.23113211272911,30.275807879182047],[78.25360761260868,30.31876662358126],[78.27927927927928,30.36036036036036],[78.30803718272307,30.400410978752866],[78.33975817718252,30.43874697586214],[78.37430642848942,30.475204191063114],[78.41153399572777,30.509626508963276],[78.45128146473935,30.541866527912777],[78.49337863075972,30.57178619120089],[78.53764522726111,30.599257378236068],[78.58389169788136,30.624162453177973],[78.63192000813338,30.64639476867221],[78.68152449341925,30.66585912253066],[78.73249273971754,30.68247216540188],[78.78460649317284,30.696162757685816],[78.83764259469217,30.70687227416449],[78.89137393554661,30.714554855044188],[78.94557042988559,30.719177602334128],[79.0,30.72072072072072]]]},"properties":{"zone_type":"forest","zone_label":"Forest / Jungle","zone_color":"#22c55e","name":"Uttarakhand Hill Forests","state":"Uttarakhand","subtype":"reserve_forest","area_sqkm":20106.19,"source":"curated_research","osm_id":""}},{"type":"Feature","geometry":{"type":"Polygon","coordinates":[[[77.5,32.310810810810814],[77.56219454168081,32.309074802625894],[77.62412275678587,32.303874211924715],[77.6855194591907,32.29523130843505],[77.74612173878981,32.28318310239654],[77.80567008731812,32.267781186077116],[77.86390950960521,32.24909151284699],[77.92059061550377,32.22719411475623],[77.9754706878165,32.20218275982522],[78.0283147216484,32.17416455051558],[78.07889643073385,32.143259465101],[78.12699921642911,32.109599843901876],[78.17241709522095,32.07332982258369],[78.21495558077969,32.034604714946],[78.25443251677957,31.993590347844908],[78.29067885692,31.950462351096974],[78.32353938880789,31.905405405405407],[78.35287339860082,31.85861245152892],[78.37855527356544,31.810283864079803],[78.40047503997039,31.76062659348905],[78.41853883401075,31.709853279812855],[78.43266930374723,31.65818134217524],[78.44280594033906,31.605832047745988],[78.44890533715215,31.553029564240656],[78.45094137563298,31.5],[78.44890533715215,31.446970435759344],[78.44280594033906,31.394167952254012],[78.43266930374723,31.34181865782476],[78.41853883401075,31.290146720187145],[78.40047503997039,31.23937340651095],[78.37855527356544,31.189716135920197],[78.35287339860082,31.14138754847108],[78.32353938880789,31.094594594594593],[78.29067885692,31.049537648903026],[78.25443251677957,31.006409652155092],[78.21495558077969,30.965395285053997],[78.17241709522095,30.926670177416312],[78.12699921642911,30.890400156098128],[78.07889643073385,30.856740534899],[78.0283147216484,30.825835449484423],[77.9754706878165,30.79781724017478],[77.92059061550377,30.772805885243766],[77.86390950960521,30.750908487153012],[77.80567008731812,30.732218813922888],[77.74612173878981,30.716816897603458],[77.6855194591907,30.704768691564947],[77.62412275678587,30.69612578807529],[77.56219454168081,30.690925197374106],[77.5,30.68918918918919],[77.43780545831919,30.690925197374106],[77.37587724321413,30.69612578807529],[77.3144805408093,30.704768691564947],[77.25387826121019,30.716816897603458],[77.19432991268188,30.732218813922888],[77.13609049039479,30.750908487153012],[77.07940938449623,30.772805885243766],[77.0245293121835,30.79781724017478],[76.9716852783516,30.825835449484423],[76.92110356926615,30.856740534899],[76.87300078357089,30.890400156098128],[76.82758290477905,30.926670177416312],[76.78504441922031,30.965395285053997],[76.74556748322043,31.006409652155092],[76.70932114308,31.049537648903026],[76.67646061119211,31.094594594594593],[76.64712660139918,31.14138754847108],[76.62144472643456,31.189716135920197],[76.59952496002961,31.23937340651095],[76.58146116598925,31.290146720187145],[76.56733069625277,31.34181865782476],[76.55719405966094,31.394167952254012],[76.55109466284785,31.446970435759344],[76.54905862436702,31.5],[76.55109466284785,31.553029564240656],[76.55719405966094,31.605832047745988],[76.56733069625277,31.65818134217524],[76.58146116598925,31.709853279812855],[76.59952496002961,31.76062659348905],[76.62144472643456,31.810283864079803],[76.64712660139918,31.85861245152892],[76.67646061119211,31.905405405405407],[76.70932114307999,31.950462351096974],[76.74556748322043,31.993590347844908],[76.78504441922031,32.034604714946],[76.82758290477905,32.07332982258369],[76.87300078357089,32.109599843901876],[76.92110356926615,32.143259465101],[76.9716852783516,32.17416455051558],[77.0245293121835,32.20218275982522],[77.07940938449623,32.22719411475623],[77.13609049039479,32.24909151284699],[77.19432991268188,32.267781186077116],[77.25387826121019,32.28318310239654],[77.3144805408093,32.29523130843505],[77.37587724321413,32.303874211924715],[77.43780545831919,32.309074802625894],[77.5,32.310810810810814]]]},"properties":{"zone_type":"forest","zone_label":"Forest / Jungle","zone_color":"#22c55e","name":"Himachal Forest Belt","state":"Himachal Pradesh","subtype":"reserve_forest","area_sqkm":25446.9,"source":"curated_research","osm_id":""}},{"type":"Feature","geometry":{"type":"Polygon","coordinates":[[[92.9,12.45045045045045],[92.9301190423618,12.44948600145883],[92.96010911036024,12.446596784402617],[92.98984178191999,12.441795171352807],[93.01918973717682,12.435101723553634],[93.0480273036807,12.426545103376174],[93.07623099454466,12.41616195158166],[93.1036800372345,12.403996730420129],[93.13025689073537,12.390101533236233],[93.15584774888043,12.374535861397543],[93.18034302768633,12.357366369500557],[93.20363783460864,12.338666579945485],[93.22563241770783,12.318516568102048],[93.24623259280237,12.297002619414446],[93.26535014677997,12.274216859913839],[93.28290321533946,12.250256861720542],[93.2988166335465,12.225225225225225],[93.31302225770125,12.19922913973829],[93.3254592571402,12.17237992448878],[93.33607437472237,12.14479255193836],[93.34482215488462,12.116585155451586],[93.35166513828933,12.087878523430689],[93.35657402223099,12.058795582081105],[93.35952778611492,12.029460869022587],[93.36051378147074,12.0],[93.35952778611492,11.970539130977413],[93.35657402223099,11.941204417918895],[93.35166513828933,11.912121476569311],[93.34482215488462,11.883414844548414],[93.33607437472237,11.85520744806164],[93.3254592571402,11.82762007551122],[93.31302225770125,11.80077086026171],[93.2988166335465,11.774774774774775],[93.28290321533946,11.749743138279458],[93.26535014677997,11.725783140086161],[93.24623259280237,11.702997380585554],[93.22563241770783,11.681483431897952],[93.20363783460864,11.661333420054515],[93.18034302768633,11.642633630499443],[93.15584774888043,11.625464138602457],[93.13025689073537,11.609898466763767],[93.1036800372345,11.596003269579871],[93.07623099454466,11.58383804841834],[93.0480273036807,11.573454896623826],[93.01918973717682,11.564898276446366],[92.98984178191999,11.558204828647193],[92.96010911036024,11.553403215597383],[92.9301190423618,11.55051399854117],[92.9,11.54954954954955],[92.86988095763822,11.55051399854117],[92.83989088963978,11.553403215597383],[92.81015821808002,11.558204828647193],[92.7808102628232,11.564898276446366],[92.75197269631931,11.573454896623826],[92.72376900545535,11.58383804841834],[92.69631996276551,11.596003269579871],[92.66974310926464,11.609898466763767],[92.64415225111958,11.625464138602457],[92.61965697231368,11.642633630499443],[92.59636216539137,11.661333420054515],[92.57436758229218,11.681483431897952],[92.55376740719764,11.702997380585554],[92.53464985322005,11.725783140086161],[92.51709678466055,11.749743138279458],[92.50118336645352,11.774774774774775],[92.48697774229876,11.80077086026171],[92.47454074285982,11.827620075511222],[92.46392562527764,11.85520744806164],[92.45517784511539,11.883414844548414],[92.44833486171068,11.912121476569311],[92.44342597776902,11.941204417918895],[92.44047221388509,11.970539130977413],[92.43948621852927,12.0],[92.44047221388509,12.029460869022587],[92.44342597776902,12.058795582081105],[92.44833486171068,12.087878523430689],[92.45517784511539,12.116585155451586],[92.46392562527764,12.14479255193836],[92.47454074285982,12.17237992448878],[92.48697774229876,12.19922913973829],[92.50118336645352,12.225225225225225],[92.51709678466055,12.25025686172054],[92.53464985322005,12.274216859913839],[92.55376740719764,12.297002619414446],[92.57436758229218,12.318516568102048],[92.59636216539137,12.338666579945485],[92.61965697231368,12.357366369500557],[92.64415225111958,12.374535861397543],[92.66974310926464,12.390101533236233],[92.69631996276551,12.403996730420129],[92.72376900545535,12.41616195158166],[92.75197269631931,12.426545103376174],[92.7808102628232,12.435101723553634],[92.81015821808002,12.441795171352807],[92.83989088963978,12.446596784402617],[92.86988095763822,12.44948600145883],[92.9,12.45045045045045]]]},"properties":{"zone_type":"forest","zone_label":"Forest / Jungle","zone_color":"#22c55e","name":"Andaman Island Forests","state":"Andaman and Nicobar","subtype":"reserve_forest","area_sqkm":7853.98,"source":"curated_research","osm_id":""}},{"type":"Feature","geometry":{"type":"Polygon","coordinates":[[[93.5,8.36036036036036],[93.5238003182795,8.359588801167064],[93.54749871994223,8.357277427522094],[93.57099372479402,8.353436137082245],[93.5941847236171,8.348081378842908],[93.61697240899416,8.34123608270094],[93.63925920055796,8.33292956126533],[93.66094966284551,8.323197384336105],[93.68195091396731,8.312081226588987],[93.7021730233419,8.299628689118034],[93.72152939679238,8.285893095600445],[93.73993714735597,8.270933263956389],[93.75731745021876,8.254813254481638],[93.77359588025563,8.237602095531557],[93.78870273073004,8.21937348793107],[93.802573311789,8.200205489376433],[93.81514822747499,8.18018018018018],[93.82637363006849,8.15938331179063],[93.83620145067225,8.137903939591023],[93.84458960504965,8.11583404155069],[93.85150217383587,8.093268124361268],[93.85690955635012,8.070302818744551],[93.86078859735034,8.047036465664883],[93.86312268618741,8.023568695218069],[93.86390182793464,8.0],[93.86312268618741,7.97643130478193],[93.86078859735034,7.952963534335116],[93.85690955635012,7.929697181255449],[93.85150217383587,7.906731875638731],[93.84458960504965,7.884165958449311],[93.83620145067225,7.862096060408977],[93.82637363006849,7.840616688209369],[93.81514822747499,7.81981981981982],[93.802573311789,7.799794510623567],[93.78870273073004,7.780626512068929],[93.77359588025563,7.762397904468443],[93.75731745021876,7.745186745518361],[93.73993714735597,7.729066736043611],[93.72152939679238,7.714106904399555],[93.7021730233419,7.700371310881966],[93.68195091396731,7.687918773411013],[93.66094966284551,7.676802615663896],[93.63925920055796,7.6670704387346715],[93.61697240899416,7.658763917299061],[93.5941847236171,7.651918621157092],[93.57099372479402,7.646563862917755],[93.54749871994223,7.642722572477906],[93.5238003182795,7.640411198832935],[93.5,7.63963963963964],[93.4761996817205,7.640411198832935],[93.45250128005777,7.642722572477906],[93.42900627520598,7.646563862917755],[93.4058152763829,7.651918621157092],[93.38302759100584,7.658763917299061],[93.36074079944204,7.6670704387346715],[93.33905033715449,7.676802615663896],[93.31804908603269,7.687918773411013],[93.2978269766581,7.700371310881966],[93.27847060320762,7.714106904399555],[93.26006285264403,7.729066736043611],[93.24268254978124,7.745186745518361],[93.22640411974437,7.762397904468443],[93.21129726926996,7.780626512068929],[93.197426688211,7.799794510623567],[93.18485177252501,7.81981981981982],[93.17362636993151,7.840616688209369],[93.16379854932775,7.862096060408977],[93.15541039495035,7.884165958449311],[93.14849782616413,7.906731875638731],[93.14309044364988,7.929697181255449],[93.13921140264966,7.952963534335116],[93.13687731381259,7.97643130478193],[93.13609817206536,8.0],[93.13687731381259,8.023568695218069],[93.13921140264966,8.047036465664883],[93.14309044364988,8.070302818744551],[93.14849782616413,8.093268124361268],[93.15541039495035,8.11583404155069],[93.16379854932775,8.137903939591023],[93.17362636993151,8.15938331179063],[93.18485177252501,8.18018018018018],[93.197426688211,8.200205489376433],[93.21129726926996,8.21937348793107],[93.22640411974437,8.237602095531557],[93.24268254978124,8.254813254481638],[93.26006285264403,8.270933263956389],[93.27847060320762,8.285893095600445],[93.2978269766581,8.299628689118034],[93.31804908603269,8.312081226588987],[93.33905033715449,8.323197384336105],[93.36074079944204,8.33292956126533],[93.38302759100584,8.34123608270094],[93.4058152763829,8.348081378842908],[93.42900627520598,8.353436137082245],[93.45250128005777,8.357277427522094],[93.4761996817205,8.359588801167064],[93.5,8.36036036036036]]]},"properties":{"zone_type":"forest","zone_label":"Forest / Jungle","zone_color":"#22c55e","name":"Nicobar Island Forests","state":"Andaman and Nicobar","subtype":"reserve_forest","area_sqkm":5026.55,"source":"curated_research","osm_id":""}},{"type":"Feature","geometry":{"type":"Polygon","coordinates":[[[94.0,24.95045045045045],[94.03237595924737,24.94948600145883],[94.0646132796668,24.94659678440262],[94.09657391610308,24.941795171352805],[94.12812100820432,24.935101723553636],[94.15911946647893,24.926545103376174],[94.1894365507696,24.91616195158166],[94.21894243866706,24.90399673042013],[94.2475107814295,24.890101533236233],[94.2750192450273,24.874535861397543],[94.30135003399616,24.857366369500557],[94.32639039585537,24.838666579945485],[94.35003310393115,24.818516568102048],[94.37217691651784,24.797002619414446],[94.39272701041035,24.77421685991384],[94.41159538695176,24.75025686172054],[94.42870124885695,24.725225225225227],[94.44397134619913,24.69922913973829],[94.45734029007716,24.67237992448878],[94.46875083262093,24.644792551938362],[94.47815411213547,24.616585155451585],[94.4855098623343,24.58787852343069],[94.49078658476577,24.558795582081103],[94.49396168369435,24.529460869022586],[94.49502156285898,24.5],[94.49396168369435,24.470539130977414],[94.49078658476577,24.441204417918897],[94.4855098623343,24.41212147656931],[94.47815411213547,24.383414844548415],[94.46875083262093,24.355207448061638],[94.45734029007716,24.32762007551122],[94.44397134619913,24.30077086026171],[94.42870124885695,24.274774774774777],[94.41159538695176,24.24974313827946],[94.39272701041035,24.22578314008616],[94.37217691651784,24.202997380585554],[94.35003310393115,24.181483431897952],[94.32639039585537,24.161333420054515],[94.30135003399616,24.142633630499443],[94.2750192450273,24.125464138602457],[94.2475107814295,24.109898466763767],[94.21894243866706,24.09600326957987],[94.1894365507696,24.08383804841834],[94.15911946647893,24.073454896623826],[94.12812100820432,24.064898276446364],[94.09657391610308,24.058204828647195],[94.0646132796668,24.05340321559738],[94.03237595924737,24.05051399854117],[94.0,24.04954954954955],[93.96762404075263,24.05051399854117],[93.9353867203332,24.05340321559738],[93.90342608389692,24.058204828647195],[93.87187899179568,24.064898276446364],[93.84088053352107,24.073454896623826],[93.8105634492304,24.08383804841834],[93.78105756133294,24.09600326957987],[93.7524892185705,24.109898466763767],[93.7249807549727,24.125464138602457],[93.69864996600384,24.142633630499443],[93.67360960414463,24.161333420054515],[93.64996689606885,24.181483431897952],[93.62782308348216,24.202997380585554],[93.60727298958965,24.22578314008616],[93.58840461304824,24.24974313827946],[93.57129875114305,24.274774774774773],[93.55602865380087,24.30077086026171],[93.54265970992284,24.32762007551122],[93.53124916737907,24.355207448061638],[93.52184588786453,24.383414844548415],[93.5144901376657,24.41212147656931],[93.50921341523423,24.441204417918897],[93.50603831630565,24.470539130977414],[93.50497843714102,24.5],[93.50603831630565,24.529460869022586],[93.50921341523423,24.558795582081103],[93.5144901376657,24.58787852343069],[93.52184588786453,24.616585155451585],[93.53124916737907,24.644792551938362],[93.54265970992284,24.67237992448878],[93.55602865380087,24.69922913973829],[93.57129875114305,24.725225225225227],[93.58840461304824,24.75025686172054],[93.60727298958965,24.77421685991384],[93.62782308348216,24.797002619414446],[93.64996689606885,24.818516568102048],[93.67360960414463,24.838666579945485],[93.69864996600384,24.857366369500557],[93.7249807549727,24.874535861397543],[93.7524892185705,24.890101533236233],[93.78105756133294,24.90399673042013],[93.8105634492304,24.91616195158166],[93.84088053352107,24.926545103376174],[93.87187899179568,24.935101723553636],[93.90342608389692,24.941795171352805],[93.9353867203332,24.94659678440262],[93.96762404075263,24.94948600145883],[94.0,24.95045045045045]]]},"properties":{"zone_type":"forest","zone_label":"Forest / Jungle","zone_color":"#22c55e","name":"Manipur Hill Forests","state":"Manipur","subtype":"reserve_forest","area_sqkm":7853.98,"source":"curated_research","osm_id":""}},{"type":"Feature","geometry":{"type":"Polygon","coordinates":[[[91.0,25.995495495495497],[91.03590459149596,25.994434601604713],[91.07165543401896,25.99125646284288],[91.10709943697275,25.98597468848809],[91.14208482369521,25.978611895908998],[91.17646178138936,25.96919961371379],[91.21008310264469,25.957778146739827],[91.24280481580195,25.944396403462143],[91.27448680146188,25.929111686559857],[91.30499339249795,25.911989447537298],[91.33419395500393,25.893103006450612],[91.36196344768818,25.872533237940033],[91.38818295731978,25.850368224912252],[91.41274020793323,25.82670288135589],[91.43553004161127,25.80163854590522],[91.45645486878733,25.775282547892594],[91.47542508613904,25.74774774774775],[91.4923594602833,25.71915205371212],[91.50718547563022,25.689617916937657],[91.51983964490597,25.659271807132196],[91.530267781015,25.628243670996746],[91.53842522907753,25.596666375773758],[91.54427705764861,25.564675140289214],[91.54779820829991,25.532406955924845],[91.54897360292374,25.5],[91.54779820829991,25.467593044075155],[91.54427705764861,25.435324859710786],[91.53842522907753,25.403333624226242],[91.530267781015,25.371756329003254],[91.51983964490597,25.340728192867804],[91.50718547563022,25.310382083062343],[91.4923594602833,25.28084794628788],[91.47542508613904,25.25225225225225],[91.45645486878733,25.224717452107406],[91.43553004161127,25.19836145409478],[91.41274020793323,25.17329711864411],[91.38818295731978,25.149631775087748],[91.36196344768818,25.127466762059967],[91.33419395500393,25.106896993549388],[91.30499339249795,25.088010552462702],[91.27448680146188,25.070888313440143],[91.24280481580195,25.055603596537857],[91.21008310264469,25.042221853260173],[91.17646178138936,25.03080038628621],[91.14208482369521,25.021388104091002],[91.10709943697275,25.01402531151191],[91.07165543401896,25.00874353715712],[91.03590459149596,25.005565398395287],[91.0,25.004504504504503],[90.96409540850404,25.005565398395287],[90.92834456598104,25.00874353715712],[90.89290056302725,25.01402531151191],[90.85791517630479,25.021388104091002],[90.82353821861064,25.03080038628621],[90.78991689735531,25.042221853260173],[90.75719518419805,25.055603596537857],[90.72551319853812,25.070888313440143],[90.69500660750205,25.088010552462702],[90.66580604499607,25.106896993549388],[90.63803655231182,25.127466762059967],[90.61181704268022,25.149631775087748],[90.58725979206677,25.17329711864411],[90.56446995838873,25.198361454094776],[90.54354513121267,25.224717452107406],[90.52457491386096,25.25225225225225],[90.5076405397167,25.28084794628788],[90.49281452436978,25.310382083062343],[90.48016035509403,25.340728192867804],[90.469732218985,25.371756329003254],[90.46157477092247,25.403333624226242],[90.45572294235139,25.435324859710786],[90.45220179170009,25.467593044075155],[90.45102639707626,25.5],[90.45220179170009,25.532406955924845],[90.45572294235139,25.564675140289214],[90.46157477092247,25.596666375773758],[90.469732218985,25.628243670996746],[90.48016035509403,25.659271807132196],[90.49281452436978,25.689617916937657],[90.5076405397167,25.71915205371212],[90.52457491386096,25.74774774774775],[90.54354513121267,25.775282547892594],[90.56446995838873,25.80163854590522],[90.58725979206677,25.82670288135589],[90.61181704268022,25.850368224912252],[90.63803655231182,25.872533237940033],[90.66580604499607,25.893103006450612],[90.69500660750205,25.911989447537298],[90.72551319853812,25.929111686559857],[90.75719518419805,25.944396403462143],[90.78991689735531,25.957778146739827],[90.82353821861064,25.96919961371379],[90.85791517630479,25.978611895908998],[90.89290056302725,25.98597468848809],[90.92834456598104,25.99125646284288],[90.96409540850404,25.994434601604713],[91.0,25.995495495495497]]]},"properties":{"zone_type":"forest","zone_label":"Forest / Jungle","zone_color":"#22c55e","name":"Meghalaya Hill Forests","state":"Meghalaya","subtype":"reserve_forest","area_sqkm":9503.32,"source":"curated_research","osm_id":""}},{"type":"Feature","geometry":{"type":"Polygon","coordinates":[[[91.6,24.06036036036036],[91.62573949770308,24.059588801167063],[91.65136877492542,24.05727742752209],[91.67677808316724,24.053436137082244],[91.70185861586974,24.048081378842905],[91.72650297434147,24.041236082700937],[91.75060562765599,24.032929561265327],[91.7740633645515,24.023197384336104],[91.79677573539728,24.012081226588986],[91.81864548233455,23.999628689118033],[91.83957895574939,23.985893095600446],[91.85948651529488,23.970933263956386],[91.87828291374478,23.95481325448164],[91.89588766203526,23.937602095531556],[91.9122253739314,23.919373487931068],[91.92722608884266,23.900205489376432],[91.94082557140483,23.88018018018018],[91.95296558654574,23.85938331179063],[91.96359414885681,23.837903939591023],[91.97266574520249,23.815834041550687],[91.98014152961453,23.79326812436127],[91.98598948963635,23.77030281874455],[91.99018458340538,23.747036465664884],[91.99270884688605,23.72356869521807],[91.99355147079457,23.7],[91.99270884688605,23.67643130478193],[91.99018458340538,23.652963534335115],[91.98598948963635,23.629697181255448],[91.98014152961453,23.60673187563873],[91.97266574520249,23.58416595844931],[91.96359414885681,23.562096060408976],[91.95296558654574,23.54061668820937],[91.94082557140483,23.51981981981982],[91.92722608884266,23.499794510623566],[91.9122253739314,23.48062651206893],[91.89588766203526,23.462397904468443],[91.87828291374478,23.44518674551836],[91.85948651529488,23.429066736043612],[91.83957895574939,23.414106904399553],[91.81864548233455,23.400371310881965],[91.79677573539728,23.387918773411013],[91.7740633645515,23.376802615663895],[91.75060562765599,23.36707043873467],[91.72650297434147,23.35876391729906],[91.70185861586974,23.351918621157093],[91.67677808316724,23.346563862917755],[91.65136877492542,23.342722572477907],[91.62573949770308,23.340411198832935],[91.6,23.33963963963964],[91.57426050229691,23.340411198832935],[91.54863122507457,23.342722572477907],[91.52322191683275,23.346563862917755],[91.49814138413025,23.351918621157093],[91.47349702565852,23.35876391729906],[91.449394372344,23.36707043873467],[91.4259366354485,23.376802615663895],[91.40322426460271,23.387918773411013],[91.38135451766544,23.400371310881965],[91.3604210442506,23.414106904399553],[91.34051348470511,23.429066736043612],[91.3217170862552,23.44518674551836],[91.30411233796474,23.462397904468443],[91.28777462606858,23.48062651206893],[91.27277391115733,23.499794510623566],[91.25917442859516,23.51981981981982],[91.24703441345424,23.54061668820937],[91.23640585114318,23.562096060408976],[91.2273342547975,23.58416595844931],[91.21985847038546,23.60673187563873],[91.21401051036364,23.629697181255448],[91.20981541659461,23.652963534335115],[91.20729115311394,23.67643130478193],[91.20644852920542,23.7],[91.20729115311394,23.72356869521807],[91.20981541659461,23.747036465664884],[91.21401051036364,23.77030281874455],[91.21985847038546,23.79326812436127],[91.2273342547975,23.815834041550687],[91.23640585114318,23.837903939591023],[91.24703441345424,23.85938331179063],[91.25917442859516,23.88018018018018],[91.27277391115733,23.900205489376432],[91.28777462606858,23.919373487931068],[91.30411233796474,23.937602095531556],[91.3217170862552,23.95481325448164],[91.34051348470511,23.970933263956386],[91.3604210442506,23.985893095600446],[91.38135451766544,23.999628689118033],[91.40322426460271,24.012081226588986],[91.4259366354485,24.023197384336104],[91.449394372344,24.032929561265327],[91.47349702565852,24.041236082700937],[91.49814138413025,24.048081378842905],[91.52322191683275,24.053436137082244],[91.54863122507457,24.05727742752209],[91.57426050229691,24.059588801167063],[91.6,24.06036036036036]]]},"properties":{"zone_type":"forest","zone_label":"Forest / Jungle","zone_color":"#22c55e","name":"Tripura Forest Cover","state":"Tripura","subtype":"reserve_forest","area_sqkm":5026.55,"source":"curated_research","osm_id":""}},{"type":"Feature","geometry":{"type":"Polygon","coordinates":[[[78.25,30.17027027027027],[78.27039057296645,30.169691600875296],[78.29069383036905,30.167958070641568],[78.31082283054256,30.165077102811683],[78.33069137801802,30.161061034132178],[78.35021439262482,30.155927062025704],[78.36930827381723,30.149697170948993],[78.3878912586646,30.142398038252075],[78.40588377197291,30.13406091994174],[78.42320876703793,30.124721516838523],[78.439792055571,30.11441982170033],[78.4555626253847,30.10319994796729],[78.47045294447797,30.091109940861227],[78.48439925021842,30.078201571648666],[78.49734182238382,30.0645301159483],[78.50922523889315,30.050154117032324],[78.51999861313256,30.035135135135135],[78.5296158118596,30.01953748384297],[78.53803565275285,30.003427954693265],[78.545222080761,29.986875531163015],[78.55114432249599,29.96995109327095],[78.55577701800952,29.952727114058412],[78.55910032938822,29.93527734924866],[78.56110002570252,29.91767652141355],[78.56176754394582,29.9],[78.56110002570252,29.882323478586446],[78.55910032938822,29.864722650751336],[78.55577701800952,29.847272885941585],[78.55114432249599,29.830048906729047],[78.545222080761,29.813124468836982],[78.53803565275285,29.796572045306732],[78.5296158118596,29.780462516157026],[78.51999861313256,29.76486486486486],[78.50922523889315,29.749845882967673],[78.49734182238382,29.735469884051696],[78.48439925021842,29.72179842835133],[78.47045294447797,29.70889005913877],[78.4555626253847,29.696800052032707],[78.439792055571,29.685580178299666],[78.42320876703793,29.675278483161474],[78.40588377197291,29.66593908005826],[78.3878912586646,29.657601961747922],[78.36930827381723,29.650302829051004],[78.35021439262482,29.644072937974293],[78.33069137801802,29.63893896586782],[78.31082283054256,29.634922897188314],[78.29069383036905,29.63204192935843],[78.27039057296645,29.6303083991247],[78.25,29.62972972972973],[78.22960942703355,29.6303083991247],[78.20930616963095,29.63204192935843],[78.18917716945744,29.634922897188314],[78.16930862198198,29.63893896586782],[78.14978560737518,29.644072937974293],[78.13069172618277,29.650302829051004],[78.1121087413354,29.657601961747922],[78.09411622802709,29.66593908005826],[78.07679123296207,29.675278483161474],[78.060207944429,29.685580178299666],[78.0444373746153,29.696800052032707],[78.02954705552203,29.70889005913877],[78.01560074978158,29.72179842835133],[78.00265817761618,29.735469884051696],[77.99077476110685,29.749845882967673],[77.98000138686744,29.76486486486486],[77.9703841881404,29.780462516157026],[77.96196434724715,29.796572045306732],[77.954777919239,29.813124468836982],[77.94885567750401,29.830048906729047],[77.94422298199048,29.847272885941585],[77.94089967061178,29.864722650751336],[77.93889997429748,29.882323478586446],[77.93823245605418,29.9],[77.93889997429748,29.91767652141355],[77.94089967061178,29.93527734924866],[77.94422298199048,29.952727114058412],[77.94885567750401,29.96995109327095],[77.954777919239,29.986875531163015],[77.96196434724715,30.003427954693265],[77.9703841881404,30.01953748384297],[77.98000138686744,30.035135135135135],[77.99077476110685,30.050154117032324],[78.00265817761618,30.0645301159483],[78.01560074978158,30.078201571648666],[78.02954705552203,30.091109940861227],[78.0444373746153,30.10319994796729],[78.060207944429,30.11441982170033],[78.07679123296207,30.124721516838523],[78.09411622802709,30.13406091994174],[78.1121087413354,30.142398038252075],[78.13069172618277,30.149697170948993],[78.14978560737518,30.155927062025704],[78.16930862198198,30.161061034132178],[78.18917716945744,30.165077102811683],[78.20930616963095,30.167958070641568],[78.22960942703355,30.169691600875296],[78.25,30.17027027027027]]]},"properties":{"zone_type":"forest","zone_label":"Forest / Jungle","zone_color":"#22c55e","name":"Rajaji Forest Division (UK)","state":"Uttarakhand","subtype":"reserve_forest","area_sqkm":2827.43,"source":"curated_research","osm_id":""}},{"type":"Feature","geometry":{"type":"Polygon","coordinates":[[[78.0,23.05045045045045],[78.03191133338484,23.04948600145883],[78.06368601754102,23.04659678440262],[78.09518798839282,23.041795171352806],[78.1262823496648,23.035101723553637],[78.1568359505283,23.026545103376176],[78.18671795577376,23.016161951581662],[78.21580040606712,23.00399673042013],[78.2439587658914,22.990101533236235],[78.27107245682693,22.974535861397545],[78.29702537388653,22.95736636950056],[78.32170638269496,22.938666579945487],[78.34500979538343,22.91851656810205],[78.36683582316121,22.897002619414447],[78.38709100362655,22.87421685991384],[78.40568860098708,22.850256861720542],[78.42254897747573,22.82522522522523],[78.43759993437192,22.79922913973829],[78.45077702116758,22.77237992448878],[78.46202381155405,22.744792551938364],[78.47129214504825,22.716585155451586],[78.47854233322327,22.68787852343069],[78.48374332966027,22.658795582081105],[78.48687286289405,22.629460869022587],[78.48791753178283,22.6],[78.48687286289405,22.570539130977416],[78.48374332966027,22.541204417918898],[78.47854233322327,22.512121476569313],[78.47129214504825,22.483414844548417],[78.46202381155405,22.45520744806164],[78.45077702116758,22.42762007551122],[78.43759993437192,22.400770860261712],[78.42254897747573,22.374774774774778],[78.40568860098708,22.34974313827946],[78.38709100362655,22.325783140086163],[78.36683582316121,22.302997380585555],[78.34500979538343,22.281483431897954],[78.32170638269496,22.261333420054516],[78.29702537388653,22.242633630499444],[78.27107245682693,22.225464138602458],[78.2439587658914,22.209898466763768],[78.21580040606712,22.196003269579872],[78.18671795577376,22.18383804841834],[78.1568359505283,22.173454896623827],[78.1262823496648,22.164898276446365],[78.09518798839282,22.158204828647197],[78.06368601754102,22.153403215597383],[78.03191133338484,22.15051399854117],[78.0,22.14954954954955],[77.96808866661516,22.15051399854117],[77.93631398245898,22.153403215597383],[77.90481201160718,22.158204828647197],[77.8737176503352,22.164898276446365],[77.8431640494717,22.173454896623827],[77.81328204422624,22.18383804841834],[77.78419959393288,22.196003269579872],[77.7560412341086,22.209898466763768],[77.72892754317307,22.225464138602458],[77.70297462611347,22.242633630499444],[77.67829361730504,22.261333420054516],[77.65499020461657,22.281483431897954],[77.63316417683879,22.302997380585555],[77.61290899637345,22.325783140086163],[77.59431139901292,22.34974313827946],[77.57745102252427,22.374774774774774],[77.56240006562808,22.400770860261712],[77.54922297883242,22.42762007551122],[77.53797618844595,22.45520744806164],[77.52870785495175,22.483414844548417],[77.52145766677673,22.512121476569313],[77.51625667033973,22.541204417918898],[77.51312713710595,22.570539130977416],[77.51208246821717,22.6],[77.51312713710595,22.629460869022587],[77.51625667033973,22.658795582081105],[77.52145766677673,22.68787852343069],[77.52870785495175,22.716585155451586],[77.53797618844595,22.744792551938364],[77.54922297883242,22.77237992448878],[77.56240006562808,22.79922913973829],[77.57745102252427,22.82522522522523],[77.59431139901292,22.850256861720542],[77.61290899637345,22.87421685991384],[77.63316417683879,22.897002619414447],[77.65499020461657,22.91851656810205],[77.67829361730504,22.938666579945487],[77.70297462611347,22.95736636950056],[77.72892754317307,22.974535861397545],[77.7560412341086,22.990101533236235],[77.78419959393288,23.00399673042013],[77.81328204422624,23.016161951581662],[77.8431640494717,23.026545103376176],[77.8737176503352,23.035101723553637],[77.90481201160718,23.041795171352806],[77.93631398245898,23.04659678440262],[77.96808866661516,23.04948600145883],[78.0,23.05045045045045]]]},"properties":{"zone_type":"forest","zone_label":"Forest / Jungle","zone_color":"#22c55e","name":"Bori-Satpura Forest (MP)","state":"Madhya Pradesh","subtype":"reserve_forest","area_sqkm":7853.98,"source":"curated_research","osm_id":""}}]}