{"type":"FeatureCollection","name":"India Industrial Zone","crs":{"type":"name","properties":{"name":"EPSG:4326"}},"features":[{"type":"Feature","properties":{"name":"Reliance Jamnagar Refinery","landuse":"industrial","industrial":"oil_refinery","zone_type":"industrial","zone_label":"Industrial Zone","zone_color":"#818cf8","source":"osmnx_osm"},"geometry":{"type":"Polygon","coordinates":[[[69.83,22.31],[69.89,22.31],[69.89,22.38],[69.83,22.38],[69.83,22.31]]]}},{"type":"Feature","geometry":{"type":"Polygon","coordinates":[[[70.07,22.63216216216216],[70.0929053919836,22.63077484238494],[70.11541886635982,22.626636620479307],[70.13715521134012,22.619818302569396],[70.15774251203544,22.610436551965044],[70.17682851402303,22.5986518930202],[70.1940866505172,22.584665964516738],[70.20922163001774,22.56871806956898],[70.22197448882912,22.55108108108108],[70.23212702200135,22.53205677281596],[70.23950551687703,22.51197065596257],[70.24398372536315,22.491166409549198],[70.2454850240709,22.47],[70.24398372536315,22.4488335904508],[70.23950551687703,22.428029344037427],[70.23212702200135,22.407943227184038],[70.22197448882912,22.388918918918918],[70.20922163001774,22.371281930431017],[70.1940866505172,22.35533403548326],[70.17682851402303,22.341348106979797],[70.15774251203544,22.329563448034953],[70.13715521134012,22.320181697430602],[70.11541886635982,22.31336337952069],[70.0929053919836,22.309225157615057],[70.07,22.307837837837837],[70.04709460801638,22.309225157615057],[70.02458113364017,22.31336337952069],[70.00284478865987,22.320181697430602],[69.98225748796455,22.329563448034953],[69.96317148597696,22.341348106979797],[69.94591334948278,22.35533403548326],[69.93077836998225,22.371281930431017],[69.91802551117087,22.388918918918918],[69.90787297799864,22.407943227184038],[69.90049448312296,22.428029344037427],[69.89601627463684,22.4488335904508],[69.89451497592908,22.47],[69.89601627463684,22.491166409549198],[69.90049448312296,22.51197065596257],[69.90787297799864,22.53205677281596],[69.91802551117087,22.55108108108108],[69.93077836998225,22.56871806956898],[69.94591334948278,22.584665964516738],[69.96317148597696,22.5986518930202],[69.98225748796455,22.610436551965044],[70.00284478865987,22.619818302569396],[70.02458113364017,22.626636620479307],[70.04709460801638,22.63077484238494],[70.07,22.63216216216216]]]},"properties":{"zone_type":"industrial","zone_label":"Industrial Zone","zone_color":"#818cf8","name":"Jamnagar Petrochemical Complex","state":"Gujarat","subtype":"oil_refinery","area_sqkm":1017.88,"source":"curated_research","osm_id":""}},{"type":"Feature","geometry":{"type":"Polygon","coordinates":[[[72.83,21.325135135135138],[72.84891776319333,21.323979035320786],[72.86751183821342,21.320530517066093],[72.88546407528142,21.3148485854745],[72.90246730664383,21.30703045997087],[72.91823060229781,21.297209910850167],[72.93248424788435,21.285554970430617],[72.94498435957557,21.272265057974153],[72.95551705699478,21.25756756756757],[72.9639021227689,21.241713977346635],[72.96999608609775,21.224975546635477],[72.97369467757923,21.20763867462433],[72.97493461328764,21.19],[72.97369467757923,21.17236132537567],[72.96999608609775,21.155024453364526],[72.9639021227689,21.138286022653368],[72.95551705699478,21.122432432432433],[72.94498435957557,21.10773494202585],[72.93248424788435,21.094445029569385],[72.91823060229781,21.082790089149835],[72.90246730664383,21.07296954002913],[72.88546407528142,21.065151414525502],[72.86751183821342,21.05946948293391],[72.84891776319333,21.056020964679217],[72.83,21.054864864864864],[72.81108223680667,21.056020964679217],[72.79248816178658,21.05946948293391],[72.77453592471858,21.065151414525502],[72.75753269335617,21.07296954002913],[72.74176939770219,21.082790089149835],[72.72751575211565,21.094445029569385],[72.71501564042443,21.10773494202585],[72.70448294300522,21.122432432432433],[72.6960978772311,21.138286022653368],[72.69000391390225,21.155024453364526],[72.68630532242076,21.17236132537567],[72.68506538671235,21.19],[72.68630532242076,21.20763867462433],[72.69000391390225,21.224975546635477],[72.6960978772311,21.241713977346635],[72.70448294300522,21.25756756756757],[72.71501564042443,21.272265057974153],[72.72751575211565,21.285554970430617],[72.74176939770219,21.297209910850167],[72.75753269335617,21.30703045997087],[72.77453592471858,21.3148485854745],[72.79248816178658,21.320530517066093],[72.81108223680667,21.323979035320786],[72.83,21.325135135135138]]]},"properties":{"zone_type":"industrial","zone_label":"Industrial Zone","zone_color":"#818cf8","name":"Surat Diamond & Textile Industrial","state":"Gujarat","subtype":"textile","area_sqkm":706.86,"source":"curated_research","osm_id":""}},{"type":"Feature","geometry":{"type":"Polygon","coordinates":[[[73.18,22.418108108108108],[73.19525270409925,22.417183228256626],[73.21024443020251,22.41442441365287],[73.22471866571966,22.409878868379597],[73.238427752468,22.403624367976693],[73.25113712417237,22.395767928680133],[73.26262931995922,22.38644397634449],[73.27270770517238,22.37581204637932],[73.28119983584662,22.36405405405405],[73.28796040927163,22.351371181877305],[73.29287375016172,22.337980437308378],[73.29585578989203,22.324110939699462],[73.29685550493599,22.31],[73.29585578989203,22.295889060300535],[73.29287375016172,22.28201956269162],[73.28796040927163,22.268628818122693],[73.28119983584662,22.255945945945946],[73.27270770517238,22.244187953620678],[73.26262931995922,22.233556023655506],[73.25113712417237,22.224232071319864],[73.238427752468,22.216375632023304],[73.22471866571966,22.2101211316204],[73.21024443020251,22.205575586347127],[73.19525270409925,22.20281677174337],[73.18,22.20189189189189],[73.16474729590077,22.20281677174337],[73.1497555697975,22.205575586347127],[73.13528133428035,22.2101211316204],[73.12157224753201,22.216375632023304],[73.10886287582764,22.224232071319864],[73.0973706800408,22.233556023655506],[73.08729229482763,22.244187953620678],[73.07880016415339,22.255945945945946],[73.07203959072838,22.268628818122693],[73.0671262498383,22.28201956269162],[73.06414421010798,22.295889060300535],[73.06314449506402,22.31],[73.06414421010798,22.324110939699462],[73.0671262498383,22.337980437308378],[73.07203959072838,22.351371181877305],[73.07880016415339,22.36405405405405],[73.08729229482763,22.37581204637932],[73.0973706800408,22.38644397634449],[73.10886287582764,22.395767928680133],[73.12157224753201,22.403624367976693],[73.13528133428035,22.409878868379597],[73.1497555697975,22.41442441365287],[73.16474729590077,22.417183228256626],[73.18,22.418108108108108]]]},"properties":{"zone_type":"industrial","zone_label":"Industrial Zone","zone_color":"#818cf8","name":"Vadodara (Baroda) Chemical Zone","state":"Gujarat","subtype":"chemical","area_sqkm":452.39,"source":"curated_research","osm_id":""}},{"type":"Feature","geometry":{"type":"Polygon","coordinates":[[[73.0,21.70207207207207],[73.01011989996715,21.701455485504418],[73.02006664564011,21.69961627576858],[73.02967004544263,21.696585912253063],[73.03876578254155,21.692416245317798],[73.04719822635326,21.68717861912009],[73.05482309542626,21.680962650896326],[73.06150992613668,21.673874697586214],[73.06714430495713,21.666036036036036],[73.07162982610383,21.657580787918203],[73.07488974106637,21.648653624872253],[73.0768682717959,21.639407293132976],[73.07753156508309,21.63],[73.0768682717959,21.620592706867022],[73.07488974106637,21.611346375127745],[73.07162982610383,21.602419212081795],[73.06714430495713,21.59396396396396],[73.06150992613668,21.586125302413784],[73.05482309542626,21.57903734910367],[73.04719822635326,21.57282138087991],[73.03876578254155,21.5675837546822],[73.02967004544263,21.563414087746935],[73.02006664564011,21.560383724231418],[73.01011989996715,21.55854451449558],[73.0,21.557927927927928],[72.98988010003285,21.55854451449558],[72.97993335435989,21.560383724231418],[72.97032995455737,21.563414087746935],[72.96123421745845,21.5675837546822],[72.95280177364674,21.57282138087991],[72.94517690457374,21.57903734910367],[72.93849007386332,21.586125302413784],[72.93285569504287,21.59396396396396],[72.92837017389617,21.602419212081795],[72.92511025893363,21.611346375127745],[72.9231317282041,21.620592706867022],[72.92246843491691,21.63],[72.9231317282041,21.639407293132976],[72.92511025893363,21.648653624872253],[72.92837017389617,21.657580787918203],[72.93285569504287,21.666036036036036],[72.93849007386332,21.673874697586214],[72.94517690457374,21.680962650896326],[72.95280177364674,21.68717861912009],[72.96123421745845,21.692416245317798],[72.97032995455737,21.696585912253063],[72.97993335435989,21.69961627576858],[72.98988010003285,21.701455485504418],[73.0,21.70207207207207]]]},"properties":{"zone_type":"industrial","zone_label":"Industrial Zone","zone_color":"#818cf8","name":"Ankleshwar GIDC Industrial Estate","state":"Gujarat","subtype":"chemical","area_sqkm":201.06,"source":"curated_research","osm_id":""}},{"type":"Feature","geometry":{"type":"Polygon","coordinates":[[[72.88,19.06009009009009],[72.89243444461886,19.059319356880522],[72.9046561324428,19.057020344710725],[72.91645594700468,19.05323239031633],[72.92763199020581,19.048020306647246],[72.93799303684844,19.04147327390011],[72.94736180655188,19.033703313620407],[72.955577997069,19.024843371982765],[72.96250102710209,19.015045045045046],[72.96801244168785,19.004475984897756],[72.97201793899468,18.993317031090317],[72.97444898385312,18.98175911641622],[72.97526398041163,18.97],[72.97444898385312,18.958240883583777],[72.97201793899468,18.94668296890968],[72.96801244168785,18.935524015102242],[72.96250102710209,18.924954954954956],[72.955577997069,18.915156628017233],[72.94736180655188,18.90629668637959],[72.93799303684844,18.898526726099888],[72.92763199020581,18.891979693352752],[72.91645594700468,18.886767609683666],[72.9046561324428,18.882979655289272],[72.89243444461886,18.880680643119476],[72.88,18.87990990990991],[72.86756555538113,18.880680643119476],[72.8553438675572,18.882979655289272],[72.84354405299531,18.886767609683666],[72.83236800979418,18.891979693352752],[72.82200696315155,18.898526726099888],[72.81263819344811,18.90629668637959],[72.80442200293099,18.915156628017233],[72.7974989728979,18.924954954954952],[72.79198755831214,18.935524015102242],[72.78798206100531,18.94668296890968],[72.78555101614687,18.958240883583777],[72.78473601958837,18.97],[72.78555101614687,18.98175911641622],[72.78798206100531,18.993317031090317],[72.79198755831214,19.004475984897756],[72.7974989728979,19.015045045045046],[72.80442200293099,19.024843371982765],[72.81263819344811,19.033703313620407],[72.82200696315155,19.04147327390011],[72.83236800979418,19.048020306647246],[72.84354405299531,19.05323239031633],[72.8553438675572,19.057020344710725],[72.86756555538113,19.059319356880522],[72.88,19.06009009009009]]]},"properties":{"zone_type":"industrial","zone_label":"Industrial Zone","zone_color":"#818cf8","name":"Mumbai Mahul Petrochemical Zone","state":"Maharashtra","subtype":"oil_refinery","area_sqkm":314.16,"source":"curated_research","osm_id":""}},{"type":"Feature","geometry":{"type":"Polygon","coordinates":[[[73.88,18.73018018018018],[73.90480704846438,18.728638713761047],[73.92918964145171,18.724040689421454],[73.95273058603586,18.716464780632666],[73.97502709012821,18.706040613294494],[73.99569765436199,18.692946547800222],[74.01438859965216,18.67740662724082],[74.03078011874275,18.659686743965537],[74.04459174819749,18.64009009009009],[74.05558716720712,18.618951969795514],[74.06357824110388,18.596634062180634],[74.06842824039785,18.57351823283244],[74.07005418025643,18.55],[74.06842824039785,18.52648176716756],[74.06357824110388,18.503365937819368],[74.05558716720712,18.48104803020449],[74.04459174819749,18.45990990990991],[74.03078011874275,18.440313256034464],[74.01438859965216,18.42259337275918],[73.99569765436199,18.40705345219978],[73.97502709012821,18.393959386705507],[73.95273058603586,18.383535219367335],[73.92918964145171,18.375959310578548],[73.90480704846438,18.371361286238955],[73.88,18.36981981981982],[73.85519295153561,18.371361286238955],[73.83081035854828,18.375959310578548],[73.80726941396414,18.383535219367335],[73.78497290987178,18.393959386705507],[73.764302345638,18.40705345219978],[73.74561140034783,18.42259337275918],[73.72921988125724,18.440313256034464],[73.7154082518025,18.45990990990991],[73.70441283279287,18.48104803020449],[73.69642175889611,18.503365937819368],[73.69157175960214,18.52648176716756],[73.68994581974356,18.55],[73.69157175960214,18.57351823283244],[73.69642175889611,18.596634062180634],[73.70441283279287,18.618951969795514],[73.7154082518025,18.64009009009009],[73.72921988125724,18.659686743965537],[73.74561140034783,18.67740662724082],[73.764302345638,18.692946547800222],[73.78497290987178,18.706040613294494],[73.80726941396414,18.716464780632666],[73.83081035854828,18.724040689421454],[73.85519295153561,18.728638713761047],[73.88,18.73018018018018]]]},"properties":{"zone_type":"industrial","zone_label":"Industrial Zone","zone_color":"#818cf8","name":"Pune MIDC Industrial Cluster","state":"Maharashtra","subtype":"manufacturing","area_sqkm":1256.64,"source":"curated_research","osm_id":""}},{"type":"Feature","geometry":{"type":"Polygon","coordinates":[[[79.09,21.285135135135135],[79.10891264914575,21.283979035320783],[79.12750169762103,21.28053051706609],[79.14544908165257,21.274848585474498],[79.16244771652366,21.26703045997087],[79.17820675087872,21.257209910850165],[79.19245654327071,21.245554970430614],[79.20495327580103,21.23226505797415],[79.21548312591132,21.217567567567567],[79.22386592494676,21.201713977346632],[79.22995824089173,21.184975546635474],[79.23365583253128,21.167638674624328],[79.23489543304731,21.15],[79.23365583253128,21.13236132537567],[79.22995824089173,21.115024453364523],[79.22386592494676,21.098286022653365],[79.21548312591132,21.08243243243243],[79.20495327580103,21.067734942025847],[79.19245654327071,21.054445029569383],[79.17820675087872,21.042790089149833],[79.16244771652366,21.03296954002913],[79.14544908165257,21.0251514145255],[79.12750169762103,21.019469482933907],[79.10891264914575,21.016020964679214],[79.09,21.01486486486486],[79.07108735085426,21.016020964679214],[79.05249830237898,21.019469482933907],[79.03455091834743,21.0251514145255],[79.01755228347635,21.03296954002913],[79.00179324912129,21.042790089149833],[78.9875434567293,21.054445029569383],[78.97504672419898,21.067734942025847],[78.96451687408869,21.08243243243243],[78.95613407505324,21.098286022653365],[78.95004175910827,21.115024453364523],[78.94634416746872,21.13236132537567],[78.9451045669527,21.15],[78.94634416746872,21.167638674624328],[78.95004175910827,21.184975546635474],[78.95613407505324,21.201713977346632],[78.96451687408869,21.217567567567567],[78.97504672419898,21.23226505797415],[78.9875434567293,21.245554970430614],[79.00179324912129,21.257209910850165],[79.01755228347635,21.26703045997087],[79.03455091834743,21.274848585474498],[79.05249830237898,21.28053051706609],[79.07108735085426,21.283979035320783],[79.09,21.285135135135135]]]},"properties":{"zone_type":"industrial","zone_label":"Industrial Zone","zone_color":"#818cf8","name":"Nagpur Industrial Zone","state":"Maharashtra","subtype":"manufacturing","area_sqkm":706.86,"source":"curated_research","osm_id":""}},{"type":"Feature","geometry":{"type":"Polygon","coordinates":[[[86.18,22.962162162162162],[86.20296046817006,22.960774842384943],[86.22552807636389,22.95663662047931],[86.24731668654836,22.949818302569398],[86.26795348956227,22.940436551965046],[86.28708538398448,22.928651893020202],[86.30438501779702,22.91466596451674],[86.319556389469,22.898718069568982],[86.33233991262483,22.88108108108108],[86.34251685763905,22.86205677281596],[86.3499130941609,22.841970655962573],[86.35440207053283,22.8211664095492],[86.35590697912455,22.8],[86.35440207053283,22.7788335904508],[86.3499130941609,22.75802934403743],[86.34251685763905,22.73794322718404],[86.33233991262483,22.71891891891892],[86.319556389469,22.70128193043102],[86.30438501779702,22.68533403548326],[86.28708538398448,22.6713481069798],[86.26795348956227,22.659563448034955],[86.24731668654836,22.650181697430604],[86.22552807636389,22.643363379520693],[86.20296046817006,22.63922515761506],[86.18,22.63783783783784],[86.15703953182995,22.63922515761506],[86.13447192363613,22.643363379520693],[86.11268331345165,22.650181697430604],[86.09204651043774,22.659563448034955],[86.07291461601554,22.6713481069798],[86.055614982203,22.68533403548326],[86.04044361053101,22.70128193043102],[86.02766008737518,22.71891891891892],[86.01748314236096,22.73794322718404],[86.01008690583912,22.75802934403743],[86.00559792946719,22.7788335904508],[86.00409302087546,22.8],[86.00559792946719,22.8211664095492],[86.01008690583912,22.841970655962573],[86.01748314236096,22.86205677281596],[86.02766008737518,22.88108108108108],[86.04044361053101,22.898718069568982],[86.055614982203,22.91466596451674],[86.07291461601554,22.928651893020202],[86.09204651043774,22.940436551965046],[86.11268331345165,22.949818302569398],[86.13447192363613,22.95663662047931],[86.15703953182995,22.960774842384943],[86.18,22.962162162162162]]]},"properties":{"zone_type":"industrial","zone_label":"Industrial Zone","zone_color":"#818cf8","name":"Jamshedpur Steel & Mining Zone","state":"Jharkhand","subtype":"steel","area_sqkm":1017.88,"source":"curated_research","osm_id":""}},{"type":"Feature","geometry":{"type":"Polygon","coordinates":[[[85.97,23.77810810810811],[85.98540709336497,23.77718322825663],[86.00055056709083,23.774424413652874],[86.01517131214354,23.7698788683796],[86.02901916352161,23.763624367976696],[86.04185718064863,23.755767928680136],[86.05346570149217,23.746443976344494],[86.06364610104212,23.735812046379323],[86.07222418983964,23.724054054054054],[86.07905319440711,23.711371181877308],[86.084016268583,23.69798043730838],[86.08702849279217,23.684110939699465],[86.08803832704322,23.67],[86.08702849279217,23.655889060300538],[86.084016268583,23.642019562691623],[86.07905319440711,23.628628818122696],[86.07222418983964,23.61594594594595],[86.06364610104212,23.60418795362068],[86.05346570149217,23.59355602365551],[86.04185718064863,23.584232071319867],[86.02901916352161,23.576375632023307],[86.01517131214354,23.570121131620404],[86.00055056709083,23.56557558634713],[85.98540709336497,23.562816771743375],[85.97,23.561891891891893],[85.95459290663503,23.562816771743375],[85.93944943290917,23.56557558634713],[85.92482868785646,23.570121131620404],[85.91098083647839,23.576375632023307],[85.89814281935136,23.584232071319867],[85.88653429850783,23.59355602365551],[85.87635389895787,23.60418795362068],[85.86777581016035,23.61594594594595],[85.86094680559289,23.628628818122696],[85.855983731417,23.642019562691623],[85.85297150720783,23.655889060300538],[85.85196167295678,23.67],[85.85297150720783,23.684110939699465],[85.855983731417,23.69798043730838],[85.86094680559289,23.711371181877308],[85.86777581016035,23.724054054054054],[85.87635389895787,23.735812046379323],[85.88653429850783,23.746443976344494],[85.89814281935136,23.755767928680136],[85.91098083647839,23.763624367976696],[85.92482868785646,23.7698788683796],[85.93944943290917,23.774424413652874],[85.95459290663503,23.77718322825663],[85.97,23.77810810810811]]]},"properties":{"zone_type":"industrial","zone_label":"Industrial Zone","zone_color":"#818cf8","name":"Bokaro Steel City","state":"Jharkhand","subtype":"steel","area_sqkm":452.39,"source":"curated_research","osm_id":""}},{"type":"Feature","geometry":{"type":"Polygon","coordinates":[[[87.31,23.598108108108107],[87.32538598127164,23.597183228256625],[87.3405087041379,23.59442441365287],[87.35510941461777,23.589878868379596],[87.36893829050683,23.583624367976693],[87.38175871590454,23.575767928680133],[87.39335132977784,23.56644397634449],[87.40351777928929,23.55581204637932],[87.41208411366908,23.54405405405405],[87.41890376056092,23.531371181877304],[87.42386003391574,23.517980437308378],[87.4268681305223,23.504110939699462],[87.42787658101365,23.49],[87.4268681305223,23.475889060300535],[87.42386003391574,23.46201956269162],[87.41890376056092,23.448628818122693],[87.41208411366908,23.435945945945946],[87.40351777928929,23.424187953620677],[87.39335132977784,23.413556023655506],[87.38175871590454,23.404232071319864],[87.36893829050683,23.396375632023304],[87.35510941461777,23.3901211316204],[87.3405087041379,23.385575586347127],[87.32538598127164,23.38281677174337],[87.31,23.38189189189189],[87.29461401872837,23.38281677174337],[87.2794912958621,23.385575586347127],[87.26489058538223,23.3901211316204],[87.25106170949317,23.396375632023304],[87.23824128409547,23.404232071319864],[87.22664867022216,23.413556023655506],[87.21648222071072,23.424187953620677],[87.20791588633092,23.435945945945946],[87.20109623943908,23.448628818122693],[87.19613996608426,23.46201956269162],[87.19313186947771,23.475889060300535],[87.19212341898636,23.49],[87.19313186947771,23.504110939699462],[87.19613996608426,23.517980437308378],[87.20109623943908,23.531371181877304],[87.20791588633092,23.54405405405405],[87.21648222071072,23.55581204637932],[87.22664867022216,23.56644397634449],[87.23824128409547,23.575767928680133],[87.25106170949317,23.583624367976693],[87.26489058538223,23.589878868379596],[87.2794912958621,23.59442441365287],[87.29461401872837,23.597183228256625],[87.31,23.598108108108107]]]},"properties":{"zone_type":"industrial","zone_label":"Industrial Zone","zone_color":"#818cf8","name":"Durgapur Steel Industrial Zone","state":"West Bengal","subtype":"steel","area_sqkm":452.39,"source":"curated_research","osm_id":""}},{"type":"Feature","geometry":{"type":"Polygon","coordinates":[[[86.98,23.815135135135137],[86.99926034052402,23.813979035320784],[87.0181911312817,23.81053051706609],[87.03646846119456,23.8048485854745],[87.05377960008036,23.79703045997087],[87.06982834955323,23.787209910850166],[87.08434011106011,23.775554970430615],[87.09706658433822,23.76226505797415],[87.1077900159013,23.747567567567568],[87.11632692486224,23.731713977346633],[87.12253124234181,23.714975546635475],[87.12629681074779,23.69763867462433],[87.12755920016073,23.68],[87.12629681074779,23.66236132537567],[87.12253124234181,23.645024453364524],[87.11632692486224,23.628286022653366],[87.1077900159013,23.61243243243243],[87.09706658433822,23.59773494202585],[87.08434011106011,23.584445029569384],[87.06982834955323,23.572790089149834],[87.05377960008036,23.56296954002913],[87.03646846119456,23.5551514145255],[87.0181911312817,23.549469482933908],[86.99926034052402,23.546020964679215],[86.98,23.544864864864863],[86.96073965947599,23.546020964679215],[86.94180886871831,23.549469482933908],[86.92353153880545,23.5551514145255],[86.90622039991965,23.56296954002913],[86.89017165044677,23.572790089149834],[86.8756598889399,23.584445029569384],[86.86293341566179,23.59773494202585],[86.8522099840987,23.61243243243243],[86.84367307513777,23.628286022653366],[86.8374687576582,23.645024453364524],[86.83370318925222,23.66236132537567],[86.83244079983928,23.68],[86.83370318925222,23.69763867462433],[86.8374687576582,23.714975546635475],[86.84367307513777,23.731713977346633],[86.8522099840987,23.747567567567568],[86.86293341566179,23.76226505797415],[86.8756598889399,23.775554970430615],[86.89017165044677,23.787209910850166],[86.90622039991965,23.79703045997087],[86.92353153880545,23.8048485854745],[86.94180886871831,23.81053051706609],[86.96073965947599,23.813979035320784],[86.98,23.815135135135137]]]},"properties":{"zone_type":"industrial","zone_label":"Industrial Zone","zone_color":"#818cf8","name":"Asansol Industrial Belt","state":"West Bengal","subtype":"coal","area_sqkm":706.86,"source":"curated_research","osm_id":""}},{"type":"Feature","geometry":{"type":"Polygon","coordinates":[[[88.06,22.15009009009009],[88.07268799078301,22.149319356880522],[88.08515888652596,22.147020344710725],[88.09719930674507,22.14323239031633],[88.1086032365122,22.138020306647245],[88.11917555142722,22.13147327390011],[88.12873535625077,22.123703313620407],[88.13711908007183,22.114843371982765],[88.1441832750514,22.105045045045046],[88.14980707085483,22.094475984897755],[88.15389424277672,22.083317031090317],[88.1563748581723,22.07175911641622],[88.15720647302437,22.06],[88.1563748581723,22.048240883583777],[88.15389424277672,22.03668296890968],[88.14980707085483,22.025524015102242],[88.1441832750514,22.014954954954952],[88.13711908007183,22.005156628017232],[88.12873535625077,21.99629668637959],[88.11917555142722,21.988526726099888],[88.1086032365122,21.981979693352752],[88.09719930674507,21.976767609683666],[88.08515888652596,21.972979655289272],[88.07268799078301,21.970680643119476],[88.06,21.96990990990991],[88.047312009217,21.970680643119476],[88.03484111347404,21.972979655289272],[88.02280069325494,21.976767609683666],[88.01139676348781,21.981979693352752],[88.00082444857279,21.988526726099888],[87.99126464374923,21.99629668637959],[87.98288091992818,22.005156628017232],[87.9758167249486,22.014954954954952],[87.97019292914517,22.025524015102242],[87.96610575722329,22.03668296890968],[87.9636251418277,22.048240883583777],[87.96279352697563,22.06],[87.9636251418277,22.07175911641622],[87.96610575722329,22.083317031090317],[87.97019292914517,22.094475984897755],[87.9758167249486,22.105045045045046],[87.98288091992818,22.114843371982765],[87.99126464374923,22.123703313620407],[88.00082444857279,22.13147327390011],[88.01139676348781,22.138020306647245],[88.02280069325494,22.14323239031633],[88.03484111347404,22.147020344710725],[88.047312009217,22.149319356880522],[88.06,22.15009009009009]]]},"properties":{"zone_type":"industrial","zone_label":"Industrial Zone","zone_color":"#818cf8","name":"Haldia Petrochemical Complex (WB)","state":"West Bengal","subtype":"oil_refinery","area_sqkm":314.16,"source":"curated_research","osm_id":""}},{"type":"Feature","geometry":{"type":"Polygon","coordinates":[[[84.86,22.328108108108108],[84.87524289808603,22.327183228256626],[84.89022498595969,22.32442441365287],[84.90468991594362,22.319878868379597],[84.91839018907537,22.313624367976693],[84.93109138988322,22.305767928680133],[84.94257619729991,22.29644397634449],[84.95264810308636,22.28581204637932],[84.9611347741421,22.27405405405405],[84.9678910011724,22.261371181877305],[84.9728011832596,22.247980437308378],[84.97578130582684,22.234110939699463],[84.97678037815075,22.22],[84.97578130582684,22.205889060300535],[84.9728011832596,22.19201956269162],[84.9678910011724,22.178628818122693],[84.9611347741421,22.165945945945946],[84.95264810308636,22.154187953620678],[84.94257619729991,22.143556023655506],[84.93109138988322,22.134232071319865],[84.91839018907537,22.126375632023304],[84.90468991594362,22.1201211316204],[84.89022498595969,22.115575586347127],[84.87524289808603,22.112816771743372],[84.86,22.11189189189189],[84.84475710191397,22.112816771743372],[84.82977501404031,22.115575586347127],[84.81531008405638,22.1201211316204],[84.80160981092463,22.126375632023304],[84.78890861011678,22.134232071319865],[84.77742380270008,22.143556023655506],[84.76735189691364,22.154187953620678],[84.7588652258579,22.165945945945946],[84.7521089988276,22.178628818122693],[84.7471988167404,22.19201956269162],[84.74421869417316,22.205889060300535],[84.74321962184925,22.22],[84.74421869417316,22.234110939699463],[84.7471988167404,22.247980437308378],[84.7521089988276,22.261371181877305],[84.7588652258579,22.27405405405405],[84.76735189691364,22.28581204637932],[84.77742380270008,22.29644397634449],[84.78890861011678,22.305767928680133],[84.80160981092463,22.313624367976693],[84.81531008405638,22.319878868379597],[84.82977501404031,22.32442441365287],[84.84475710191397,22.327183228256626],[84.86,22.328108108108108]]]},"properties":{"zone_type":"industrial","zone_label":"Industrial Zone","zone_color":"#818cf8","name":"Rourkela Steel Plant (Odisha)","state":"Odisha","subtype":"steel","area_sqkm":452.39,"source":"curated_research","osm_id":""}},{"type":"Feature","geometry":{"type":"Polygon","coordinates":[[[84.93,20.93009009009009],[84.94258228017307,20.929319356880523],[84.95494927404391,20.927020344710726],[84.96688937891862,20.923232390316333],[84.97819829629236,20.918020306647247],[84.98868252745345,20.91147327390011],[84.99816268429993,20.903703313620408],[85.00647655871978,20.894843371982766],[85.01348189801662,20.885045045045047],[85.01905883889285,20.874475984897757],[85.02311195834385,20.863317031090318],[85.02557190637206,20.851759116416222],[85.02639659258472,20.84],[85.02557190637206,20.828240883583778],[85.02311195834385,20.81668296890968],[85.01905883889285,20.805524015102243],[85.01348189801662,20.794954954954953],[85.00647655871978,20.785156628017234],[84.99816268429993,20.77629668637959],[84.98868252745345,20.76852672609989],[84.97819829629236,20.761979693352753],[84.96688937891862,20.756767609683667],[84.95494927404391,20.752979655289273],[84.94258228017307,20.750680643119477],[84.93,20.74990990990991],[84.91741771982694,20.750680643119477],[84.9050507259561,20.752979655289273],[84.89311062108139,20.756767609683667],[84.88180170370765,20.761979693352753],[84.87131747254656,20.76852672609989],[84.86183731570009,20.77629668637959],[84.85352344128023,20.785156628017234],[84.84651810198339,20.794954954954953],[84.84094116110717,20.805524015102243],[84.83688804165617,20.81668296890968],[84.83442809362795,20.828240883583778],[84.8336034074153,20.84],[84.83442809362795,20.851759116416222],[84.83688804165617,20.863317031090318],[84.84094116110717,20.874475984897757],[84.84651810198339,20.885045045045047],[84.85352344128023,20.894843371982766],[84.86183731570009,20.903703313620408],[84.87131747254656,20.91147327390011],[84.88180170370765,20.918020306647247],[84.89311062108139,20.923232390316333],[84.9050507259561,20.927020344710726],[84.91741771982694,20.929319356880523],[84.93,20.93009009009009]]]},"properties":{"zone_type":"industrial","zone_label":"Industrial Zone","zone_color":"#818cf8","name":"Angul Aluminium Zone (Odisha)","state":"Odisha","subtype":"aluminium","area_sqkm":314.16,"source":"curated_research","osm_id":""}},{"type":"Feature","geometry":{"type":"Polygon","coordinates":[[[85.23,21.11216216216216],[85.25266470992496,21.11077484238494],[85.27494162037925,21.106636620479307],[85.29644956724869,21.099818302569396],[85.31682054359919,21.090436551965045],[85.33570599637751,21.0786518930202],[85.35278279025057,21.06466596451674],[85.36775873654064,21.04871806956898],[85.38037759265454,21.03108108108108],[85.39042344646559,21.01205677281596],[85.39772441062982,20.99197065596257],[85.4021555636262,20.9711664095492],[85.40364108719838,20.95],[85.4021555636262,20.9288335904508],[85.39772441062982,20.908029344037427],[85.39042344646559,20.88794322718404],[85.38037759265454,20.86891891891892],[85.36775873654064,20.851281930431018],[85.35278279025057,20.83533403548326],[85.33570599637751,20.821348106979798],[85.31682054359919,20.809563448034954],[85.29644956724869,20.800181697430602],[85.27494162037925,20.79336337952069],[85.25266470992496,20.789225157615057],[85.23,20.787837837837838],[85.20733529007505,20.789225157615057],[85.18505837962076,20.79336337952069],[85.16355043275132,20.800181697430602],[85.14317945640082,20.809563448034954],[85.1242940036225,20.821348106979798],[85.10721720974944,20.83533403548326],[85.09224126345937,20.851281930431018],[85.07962240734547,20.86891891891892],[85.06957655353442,20.88794322718404],[85.06227558937019,20.908029344037427],[85.05784443637381,20.9288335904508],[85.05635891280163,20.95],[85.05784443637381,20.9711664095492],[85.06227558937019,20.99197065596257],[85.06957655353442,21.01205677281596],[85.07962240734547,21.03108108108108],[85.09224126345937,21.04871806956898],[85.10721720974944,21.06466596451674],[85.1242940036225,21.0786518930202],[85.14317945640082,21.090436551965045],[85.16355043275132,21.099818302569396],[85.18505837962076,21.106636620479307],[85.20733529007505,21.11077484238494],[85.23,21.11216216216216]]]},"properties":{"zone_type":"industrial","zone_label":"Industrial Zone","zone_color":"#818cf8","name":"Talcher Coal Fields (Odisha)","state":"Odisha","subtype":"coal","area_sqkm":1017.88,"source":"curated_research","osm_id":""}},{"type":"Feature","geometry":{"type":"Polygon","coordinates":[[[83.23,17.825135135135138],[83.24851412365324,17.823979035320786],[83.26671146551767,17.820530517066093],[83.28428066402877,17.8148485854745],[83.30092110532888,17.80703045997087],[83.31634806685378,17.797209910850167],[83.33029758901459,17.785554970430617],[83.34253099161963,17.772265057974153],[83.35283895775856,17.75756756756757],[83.36104511527286,17.741713977346635],[83.36700905453226,17.724975546635477],[83.37062873088253,17.70763867462433],[83.37184221065776,17.69],[83.37062873088253,17.67236132537567],[83.36700905453226,17.655024453364526],[83.36104511527286,17.638286022653368],[83.35283895775856,17.622432432432433],[83.34253099161963,17.60773494202585],[83.33029758901459,17.594445029569385],[83.31634806685378,17.582790089149835],[83.30092110532888,17.57296954002913],[83.28428066402877,17.565151414525502],[83.26671146551767,17.55946948293391],[83.24851412365324,17.556020964679217],[83.23,17.554864864864864],[83.21148587634677,17.556020964679217],[83.19328853448233,17.55946948293391],[83.17571933597124,17.565151414525502],[83.15907889467113,17.57296954002913],[83.14365193314623,17.582790089149835],[83.12970241098542,17.594445029569385],[83.11746900838038,17.60773494202585],[83.10716104224144,17.622432432432433],[83.09895488472715,17.638286022653368],[83.09299094546775,17.655024453364526],[83.08937126911748,17.67236132537567],[83.08815778934225,17.69],[83.08937126911748,17.70763867462433],[83.09299094546775,17.724975546635477],[83.09895488472715,17.741713977346635],[83.10716104224144,17.75756756756757],[83.11746900838038,17.772265057974153],[83.12970241098542,17.785554970430617],[83.14365193314623,17.797209910850167],[83.15907889467113,17.80703045997087],[83.17571933597124,17.8148485854745],[83.19328853448233,17.820530517066093],[83.21148587634677,17.823979035320786],[83.23,17.825135135135138]]]},"properties":{"zone_type":"industrial","zone_label":"Industrial Zone","zone_color":"#818cf8","name":"Vishakhapatnam Port Industrial","state":"Andhra Pradesh","subtype":"port_industrial","area_sqkm":706.86,"source":"curated_research","osm_id":""}},{"type":"Feature","geometry":{"type":"Polygon","coordinates":[[[78.5,17.68018018018018],[78.52465955209667,17.678638713761046],[78.54889717242003,17.674040689421453],[78.57229814856642,17.666464780632666],[78.59446208334602,17.656040613294493],[78.61500974568973,17.64294654780022],[78.63358955939796,17.62740662724082],[78.64988361870687,17.609686743965536],[78.66361312774411,17.59009009009009],[78.67454317080353,17.568951969795513],[78.68248673181797,17.546634062180633],[78.68730789425615,17.52351823283244],[78.68892416669203,17.5],[78.68730789425615,17.47648176716756],[78.68248673181797,17.453365937819367],[78.67454317080353,17.431048030204487],[78.66361312774411,17.40990990990991],[78.64988361870687,17.390313256034464],[78.63358955939796,17.37259337275918],[78.61500974568973,17.35705345219978],[78.59446208334602,17.343959386705507],[78.57229814856642,17.333535219367334],[78.54889717242003,17.325959310578547],[78.52465955209667,17.321361286238954],[78.5,17.31981981981982],[78.47534044790333,17.321361286238954],[78.45110282757997,17.325959310578547],[78.42770185143358,17.333535219367334],[78.40553791665398,17.343959386705507],[78.38499025431027,17.35705345219978],[78.36641044060204,17.37259337275918],[78.35011638129313,17.390313256034464],[78.33638687225589,17.40990990990991],[78.32545682919647,17.43104803020449],[78.31751326818203,17.453365937819367],[78.31269210574385,17.47648176716756],[78.31107583330797,17.5],[78.31269210574385,17.52351823283244],[78.31751326818203,17.546634062180633],[78.32545682919647,17.568951969795513],[78.33638687225589,17.59009009009009],[78.35011638129313,17.609686743965536],[78.36641044060204,17.62740662724082],[78.38499025431027,17.64294654780022],[78.40553791665398,17.656040613294493],[78.42770185143358,17.666464780632666],[78.45110282757997,17.674040689421453],[78.47534044790333,17.678638713761046],[78.5,17.68018018018018]]]},"properties":{"zone_type":"industrial","zone_label":"Industrial Zone","zone_color":"#818cf8","name":"Hyderabad Pharma City (Telangana)","state":"Telangana","subtype":"pharma","area_sqkm":1256.64,"source":"curated_research","osm_id":""}},{"type":"Feature","geometry":{"type":"Polygon","coordinates":[[[80.27,13.242162162162161],[80.291730199038,13.240774842384942],[80.3130885883457,13.236636620479308],[80.33370971996041,13.229818302569399],[80.35324076060293,13.220436551965044],[80.37134752875282,13.2086518930202],[80.38772021258691,13.194665964516737],[80.40207867094543,13.178718069568982],[80.41417722662494,13.16108108108108],[80.42380886998343,13.14205677281596],[80.43080880093262,13.12197065596257],[80.43505724871324,13.101166409549197],[80.43648152120585,13.08],[80.43505724871324,13.058833590450803],[80.43080880093262,13.03802934403743],[80.42380886998343,13.01794322718404],[80.41417722662494,12.99891891891892],[80.40207867094543,12.981281930431019],[80.38772021258691,12.965334035483263],[80.37134752875282,12.9513481069798],[80.35324076060293,12.939563448034956],[80.33370971996041,12.930181697430601],[80.3130885883457,12.923363379520692],[80.291730199038,12.919225157615058],[80.27,12.917837837837839],[80.24826980096199,12.919225157615058],[80.22691141165429,12.923363379520692],[80.20629028003958,12.930181697430601],[80.18675923939706,12.939563448034956],[80.16865247124717,12.9513481069798],[80.15227978741308,12.965334035483263],[80.13792132905456,12.981281930431019],[80.12582277337505,12.99891891891892],[80.11619113001656,13.01794322718404],[80.10919119906737,13.03802934403743],[80.10494275128676,13.058833590450803],[80.10351847879414,13.08],[80.10494275128676,13.101166409549197],[80.10919119906737,13.12197065596257],[80.11619113001656,13.14205677281596],[80.12582277337505,13.16108108108108],[80.13792132905456,13.178718069568982],[80.15227978741308,13.194665964516737],[80.16865247124717,13.2086518930202],[80.18675923939706,13.220436551965044],[80.20629028003958,13.229818302569399],[80.22691141165429,13.236636620479308],[80.24826980096199,13.240774842384942],[80.27,13.242162162162161]]]},"properties":{"zone_type":"industrial","zone_label":"Industrial Zone","zone_color":"#818cf8","name":"Chennai Industrial Corridor (TN)","state":"Tamil Nadu","subtype":"manufacturing","area_sqkm":1017.88,"source":"curated_research","osm_id":""}},{"type":"Feature","geometry":{"type":"Polygon","coordinates":[[[80.32,13.29009009009009],[80.33207823668067,13.289319356880522],[80.34394981138303,13.287020344710726],[80.35541159817248,13.283232390316332],[80.36626748269924,13.278020306647246],[80.37633171776926,13.27147327390011],[80.38543210153014,13.26370331362041],[80.39341292389264,13.254843371982767],[80.40013763077341,13.245045045045044],[80.40549116057332,13.234475984897756],[80.40938191291318,13.223317031090316],[80.41174331594175,13.21175911641622],[80.4125349653985,13.2],[80.41174331594175,13.188240883583779],[80.40938191291318,13.176682968909683],[80.40549116057332,13.165524015102243],[80.40013763077341,13.154954954954954],[80.39341292389264,13.145156628017231],[80.38543210153014,13.13629668637959],[80.37633171776926,13.128526726099889],[80.36626748269924,13.121979693352753],[80.35541159817248,13.116767609683667],[80.34394981138303,13.112979655289273],[80.33207823668067,13.110680643119476],[80.32,13.10990990990991],[80.30792176331931,13.110680643119476],[80.29605018861696,13.112979655289273],[80.2845884018275,13.116767609683667],[80.27373251730074,13.121979693352753],[80.26366828223073,13.128526726099889],[80.25456789846984,13.13629668637959],[80.24658707610735,13.145156628017231],[80.23986236922657,13.154954954954954],[80.23450883942667,13.165524015102244],[80.23061808708681,13.176682968909683],[80.22825668405824,13.188240883583779],[80.22746503460148,13.2],[80.22825668405824,13.21175911641622],[80.23061808708681,13.223317031090316],[80.23450883942667,13.234475984897756],[80.23986236922657,13.245045045045044],[80.24658707610735,13.254843371982767],[80.25456789846984,13.26370331362041],[80.26366828223073,13.27147327390011],[80.27373251730074,13.278020306647246],[80.2845884018275,13.283232390316332],[80.29605018861696,13.287020344710726],[80.30792176331931,13.289319356880522],[80.32,13.29009009009009]]]},"properties":{"zone_type":"industrial","zone_label":"Industrial Zone","zone_color":"#818cf8","name":"Ennore Power + Petrochemical (TN)","state":"Tamil Nadu","subtype":"power_plant","area_sqkm":314.16,"source":"curated_research","osm_id":""}},{"type":"Feature","geometry":{"type":"Polygon","coordinates":[[[78.13,8.868108108108109],[78.14427748737675,8.867183228256629],[78.15831068298604,8.864424413652872],[78.17185947496023,8.859878868379598],[78.1846920397122,8.853624367976696],[78.1965888085012,8.845767928680134],[78.20734622431485,8.83644397634449],[78.21678022478605,8.82581204637932],[78.22472939155112,8.814054054054054],[78.23105771216281,8.801371181877307],[78.2356569073009,8.78798043730838],[78.23844828346145,8.774110939699465],[78.23938407942443,8.76],[78.23844828346145,8.745889060300534],[78.2356569073009,8.732019562691619],[78.23105771216281,8.718628818122692],[78.22472939155112,8.705945945945945],[78.21678022478605,8.694187953620679],[78.20734622431485,8.683556023655509],[78.1965888085012,8.674232071319866],[78.1846920397122,8.666375632023303],[78.17185947496023,8.660121131620402],[78.15831068298604,8.655575586347128],[78.14427748737675,8.652816771743371],[78.13,8.651891891891891],[78.11572251262324,8.652816771743371],[78.10168931701395,8.655575586347128],[78.08814052503976,8.660121131620402],[78.07530796028779,8.666375632023303],[78.06341119149879,8.674232071319866],[78.05265377568514,8.683556023655509],[78.04321977521394,8.694187953620679],[78.03527060844887,8.705945945945945],[78.02894228783718,8.718628818122692],[78.02434309269908,8.732019562691619],[78.02155171653854,8.745889060300534],[78.02061592057557,8.76],[78.02155171653854,8.774110939699465],[78.02434309269908,8.78798043730838],[78.02894228783718,8.801371181877307],[78.03527060844887,8.814054054054054],[78.04321977521394,8.82581204637932],[78.05265377568514,8.83644397634449],[78.06341119149879,8.845767928680134],[78.07530796028779,8.853624367976696],[78.08814052503976,8.859878868379598],[78.10168931701395,8.864424413652872],[78.11572251262324,8.867183228256629],[78.13,8.868108108108109]]]},"properties":{"zone_type":"industrial","zone_label":"Industrial Zone","zone_color":"#818cf8","name":"Tuticorin Port Industrial (TN)","state":"Tamil Nadu","subtype":"port_industrial","area_sqkm":452.39,"source":"curated_research","osm_id":""}},{"type":"Feature","geometry":{"type":"Polygon","coordinates":[[[74.88,12.96009009009009],[74.89206214210435,12.959319356880522],[74.90391789761306,12.957020344710726],[74.9153644112623,12.953232390316332],[74.92620583002997,12.948020306647246],[74.93625665423517,12.94147327390011],[74.9453449114891,12.93370331362041],[74.95331509919042,12.924843371982767],[74.96003084521782,12.915045045045044],[74.96537724129479,12.904475984897756],[74.96926280910216,12.893317031090316],[74.97162106549746,12.88175911641622],[74.97241166005995,12.87],[74.97162106549746,12.858240883583779],[74.96926280910216,12.846682968909683],[74.96537724129479,12.835524015102244],[74.96003084521782,12.824954954954954],[74.95331509919042,12.815156628017231],[74.9453449114891,12.80629668637959],[74.93625665423517,12.798526726099889],[74.92620583002997,12.791979693352753],[74.9153644112623,12.786767609683666],[74.90391789761306,12.782979655289273],[74.89206214210435,12.780680643119476],[74.88,12.77990990990991],[74.86793785789564,12.780680643119476],[74.85608210238694,12.782979655289273],[74.84463558873769,12.786767609683666],[74.83379416997002,12.791979693352753],[74.82374334576483,12.798526726099889],[74.81465508851089,12.80629668637959],[74.80668490080957,12.815156628017231],[74.79996915478218,12.824954954954954],[74.7946227587052,12.835524015102244],[74.79073719089783,12.846682968909683],[74.78837893450253,12.858240883583779],[74.78758833994004,12.87],[74.78837893450253,12.88175911641622],[74.79073719089783,12.893317031090316],[74.7946227587052,12.904475984897756],[74.79996915478218,12.915045045045044],[74.80668490080957,12.924843371982767],[74.81465508851089,12.93370331362041],[74.82374334576483,12.94147327390011],[74.83379416997002,12.948020306647246],[74.84463558873769,12.953232390316332],[74.85608210238694,12.957020344710726],[74.86793785789564,12.959319356880522],[74.88,12.96009009009009]]]},"properties":{"zone_type":"industrial","zone_label":"Industrial Zone","zone_color":"#818cf8","name":"Mangalore Refinery (Karnataka)","state":"Karnataka","subtype":"oil_refinery","area_sqkm":314.16,"source":"curated_research","osm_id":""}},{"type":"Feature","geometry":{"type":"Polygon","coordinates":[[[77.57,13.13018018018018],[77.59413200626592,13.128638713761045],[77.61785110721398,13.124040689421452],[77.64075146245077,13.116464780632663],[77.66244124054901,13.106040613294493],[77.68254932339191,13.092946547800222],[77.70073165610701,13.07740662724082],[77.71667713394045,13.059686743965534],[77.7301129253456,13.04009009009009],[77.74080914020638,13.018951969795511],[77.748582763321,12.996634062180634],[77.75330078584268,12.973518232832442],[77.75488248109804,12.95],[77.75330078584268,12.926481767167557],[77.748582763321,12.903365937819364],[77.74080914020638,12.881048030204488],[77.7301129253456,12.85990990990991],[77.71667713394045,12.840313256034465],[77.70073165610701,12.82259337275918],[77.68254932339191,12.807053452199776],[77.66244124054901,12.793959386705506],[77.64075146245077,12.783535219367336],[77.61785110721398,12.775959310578546],[77.59413200626592,12.771361286238953],[77.57,12.76981981981982],[77.54586799373406,12.771361286238953],[77.522148892786,12.775959310578546],[77.49924853754922,12.783535219367336],[77.47755875945097,12.793959386705506],[77.45745067660808,12.807053452199776],[77.43926834389298,12.82259337275918],[77.42332286605954,12.840313256034465],[77.40988707465439,12.85990990990991],[77.3991908597936,12.881048030204488],[77.39141723667899,12.903365937819364],[77.3866992141573,12.926481767167557],[77.38511751890195,12.95],[77.3866992141573,12.973518232832442],[77.39141723667899,12.996634062180634],[77.3991908597936,13.018951969795511],[77.40988707465439,13.04009009009009],[77.42332286605954,13.059686743965534],[77.43926834389298,13.07740662724082],[77.45745067660808,13.092946547800222],[77.47755875945097,13.106040613294493],[77.49924853754922,13.116464780632663],[77.522148892786,13.124040689421452],[77.54586799373406,13.128638713761045],[77.57,13.13018018018018]]]},"properties":{"zone_type":"industrial","zone_label":"Industrial Zone","zone_color":"#818cf8","name":"Bangalore KIADB Industrial Zone","state":"Karnataka","subtype":"electronics","area_sqkm":1256.64,"source":"curated_research","osm_id":""}},{"type":"Feature","geometry":{"type":"Polygon","coordinates":[[[76.97,29.462072072072072],[76.9807968538767,29.46145548550442],[76.99140897059011,29.45961627576858],[77.00165477388106,29.456585912253065],[77.01135895521452,29.4524162453178],[77.0203554733574,29.44717861912009],[77.02849039538995,29.440962650896328],[77.03562453054079,29.433874697586216],[77.04163581177951,29.426036036036038],[77.04642138441749,29.417580787918205],[77.04989936598008,29.408653624872255],[77.05201024723846,29.399407293132978],[77.05271791042904,29.39],[77.05201024723846,29.380592706867024],[77.04989936598008,29.371346375127747],[77.04642138441749,29.362419212081797],[77.04163581177951,29.353963963963963],[77.03562453054079,29.346125302413785],[77.02849039538995,29.339037349103673],[77.0203554733574,29.33282138087991],[77.01135895521452,29.327583754682202],[77.00165477388106,29.323414087746936],[76.99140897059011,29.32038372423142],[76.9807968538767,29.31854451449558],[76.97,29.31792792792793],[76.9592031461233,29.31854451449558],[76.94859102940988,29.32038372423142],[76.93834522611894,29.323414087746936],[76.92864104478548,29.327583754682202],[76.9196445266426,29.33282138087991],[76.91150960461005,29.339037349103673],[76.90437546945921,29.346125302413785],[76.89836418822048,29.353963963963963],[76.89357861558251,29.362419212081797],[76.89010063401992,29.371346375127747],[76.88798975276154,29.380592706867024],[76.88728208957096,29.39],[76.88798975276154,29.399407293132978],[76.89010063401992,29.408653624872255],[76.89357861558251,29.417580787918205],[76.89836418822048,29.426036036036038],[76.90437546945921,29.433874697586216],[76.91150960461005,29.440962650896328],[76.9196445266426,29.44717861912009],[76.92864104478548,29.4524162453178],[76.93834522611894,29.456585912253065],[76.94859102940988,29.45961627576858],[76.9592031461233,29.46145548550442],[76.97,29.462072072072072]]]},"properties":{"zone_type":"industrial","zone_label":"Industrial Zone","zone_color":"#818cf8","name":"Panipat Refinery (Haryana)","state":"Haryana","subtype":"oil_refinery","area_sqkm":201.06,"source":"curated_research","osm_id":""}},{"type":"Feature","geometry":{"type":"Polygon","coordinates":[[[77.67,27.57207207207207],[77.680605612447,27.57145548550442],[77.6910297599246,27.56961627576858],[77.70109408237934,27.566585912253064],[77.71062637646365,27.5624162453178],[77.71946354198292,27.55717861912009],[77.72745437258497,27.550962650896327],[77.73446214294273,27.543874697586215],[77.74036694816246,27.536036036036037],[77.74506775538974,27.527580787918204],[77.74848413250957,27.518653624872254],[77.75055762436226,27.509407293132977],[77.7512527529273,27.5],[77.75055762436226,27.490592706867023],[77.74848413250957,27.481346375127746],[77.74506775538974,27.472419212081796],[77.74036694816246,27.463963963963963],[77.73446214294273,27.456125302413785],[77.72745437258497,27.449037349103673],[77.71946354198292,27.44282138087991],[77.71062637646365,27.4375837546822],[77.70109408237934,27.433414087746936],[77.6910297599246,27.43038372423142],[77.680605612447,27.42854451449558],[77.67,27.42792792792793],[77.65939438755301,27.42854451449558],[77.6489702400754,27.43038372423142],[77.63890591762066,27.433414087746936],[77.62937362353635,27.4375837546822],[77.62053645801709,27.44282138087991],[77.61254562741503,27.449037349103673],[77.60553785705727,27.456125302413785],[77.59963305183754,27.463963963963963],[77.59493224461026,27.472419212081796],[77.59151586749043,27.481346375127746],[77.58944237563774,27.490592706867023],[77.5887472470727,27.5],[77.58944237563774,27.509407293132977],[77.59151586749043,27.518653624872254],[77.59493224461026,27.527580787918204],[77.59963305183754,27.536036036036037],[77.60553785705727,27.543874697586215],[77.61254562741503,27.550962650896327],[77.62053645801709,27.55717861912009],[77.62937362353635,27.5624162453178],[77.63890591762066,27.566585912253064],[77.6489702400754,27.56961627576858],[77.65939438755301,27.57145548550442],[77.67,27.57207207207207]]]},"properties":{"zone_type":"industrial","zone_label":"Industrial Zone","zone_color":"#818cf8","name":"Mathura Oil Refinery (UP)","state":"Uttar Pradesh","subtype":"oil_refinery","area_sqkm":201.06,"source":"curated_research","osm_id":""}},{"type":"Feature","geometry":{"type":"Polygon","coordinates":[[[86.0,25.54207207207207],[86.01042000768068,25.541455485504418],[86.02066172614097,25.53961627576858],[86.03054991673848,25.536585912253063],[86.03991538979056,25.532416245317798],[86.04859789945668,25.52717861912009],[86.05644888558922,25.520962650896326],[86.06333401563873,25.513874697586214],[86.06913548312116,25.506036036036036],[86.07375402331941,25.497580787918203],[86.07711061173019,25.488653624872253],[86.07914781619516,25.479407293132976],[86.07983077958112,25.47],[86.07914781619516,25.460592706867022],[86.07711061173019,25.451346375127745],[86.07375402331941,25.442419212081795],[86.06913548312116,25.43396396396396],[86.06333401563873,25.426125302413784],[86.05644888558922,25.41903734910367],[86.04859789945668,25.412821380879908],[86.03991538979056,25.4075837546822],[86.03054991673848,25.403414087746935],[86.02066172614097,25.400383724231418],[86.01042000768068,25.39854451449558],[86.0,25.397927927927928],[85.98957999231932,25.39854451449558],[85.97933827385903,25.400383724231418],[85.96945008326152,25.403414087746935],[85.96008461020944,25.4075837546822],[85.95140210054332,25.412821380879908],[85.94355111441078,25.41903734910367],[85.93666598436127,25.426125302413784],[85.93086451687884,25.43396396396396],[85.92624597668059,25.442419212081795],[85.92288938826981,25.451346375127745],[85.92085218380484,25.460592706867022],[85.92016922041888,25.47],[85.92085218380484,25.479407293132976],[85.92288938826981,25.488653624872253],[85.92624597668059,25.497580787918203],[85.93086451687884,25.506036036036036],[85.93666598436127,25.513874697586214],[85.94355111441078,25.520962650896326],[85.95140210054332,25.52717861912009],[85.96008461020944,25.532416245317798],[85.96945008326152,25.536585912253063],[85.97933827385903,25.53961627576858],[85.98957999231932,25.541455485504418],[86.0,25.54207207207207]]]},"properties":{"zone_type":"industrial","zone_label":"Industrial Zone","zone_color":"#818cf8","name":"Barauni Refinery (Bihar)","state":"Bihar","subtype":"oil_refinery","area_sqkm":201.06,"source":"curated_research","osm_id":""}},{"type":"Feature","geometry":{"type":"Polygon","coordinates":[[[93.72,26.742072072072073],[93.73052733259046,26.74145548550442],[93.74087453960156,26.739616275768583],[93.75086457745256,26.736585912253066],[93.76032651382609,26.7324162453178],[93.76909845236742,26.727178619120092],[93.77703030277607,26.72096265089633],[93.78398634889244,26.713874697586217],[93.7898475708389,26.70603603603604],[93.7945136814829,26.697580787918206],[93.79790484237763,26.688653624872256],[93.79996302981998,26.67940729313298],[93.80065302765216,26.67],[93.79996302981998,26.660592706867025],[93.79790484237763,26.651346375127748],[93.7945136814829,26.642419212081798],[93.7898475708389,26.633963963963964],[93.78398634889244,26.626125302413786],[93.77703030277607,26.619037349103674],[93.76909845236742,26.61282138087991],[93.76032651382609,26.607583754682203],[93.75086457745256,26.603414087746938],[93.74087453960156,26.60038372423142],[93.73052733259046,26.598544514495583],[93.72,26.59792792792793],[93.70947266740954,26.598544514495583],[93.69912546039843,26.60038372423142],[93.68913542254744,26.603414087746938],[93.67967348617391,26.607583754682203],[93.67090154763258,26.61282138087991],[93.66296969722393,26.619037349103674],[93.65601365110756,26.626125302413786],[93.6501524291611,26.633963963963964],[93.6454863185171,26.642419212081798],[93.64209515762236,26.651346375127748],[93.64003697018002,26.660592706867025],[93.63934697234784,26.67],[93.64003697018002,26.67940729313298],[93.64209515762236,26.688653624872256],[93.6454863185171,26.697580787918206],[93.6501524291611,26.70603603603604],[93.65601365110756,26.713874697586217],[93.66296969722393,26.72096265089633],[93.67090154763258,26.727178619120092],[93.67967348617391,26.7324162453178],[93.68913542254744,26.736585912253066],[93.69912546039843,26.739616275768583],[93.70947266740954,26.74145548550442],[93.72,26.742072072072073]]]},"properties":{"zone_type":"industrial","zone_label":"Industrial Zone","zone_color":"#818cf8","name":"Numaligarh Refinery (Assam)","state":"Assam","subtype":"oil_refinery","area_sqkm":201.06,"source":"curated_research","osm_id":""}},{"type":"Feature","geometry":{"type":"Polygon","coordinates":[[[95.63,27.488108108108108],[95.64589112786734,27.487183228256626],[95.66151035413104,27.48442441365287],[95.67659042949921,27.479878868379597],[95.69087332970136,27.473624367976694],[95.70411467035504,27.465767928680133],[95.71608788845047,27.45644397634449],[95.72658811890646,27.44581204637932],[95.73543569986866,27.43405405405405],[95.74247924677381,27.421371181877305],[95.74759824258152,27.407980437308378],[95.75070509985427,27.394110939699463],[95.75174665940273,27.38],[95.75070509985427,27.365889060300535],[95.74759824258152,27.35201956269162],[95.74247924677381,27.338628818122693],[95.73543569986866,27.325945945945946],[95.72658811890646,27.314187953620678],[95.71608788845047,27.303556023655506],[95.70411467035504,27.294232071319865],[95.69087332970136,27.286375632023304],[95.67659042949921,27.2801211316204],[95.66151035413104,27.275575586347127],[95.64589112786734,27.272816771743372],[95.63,27.27189189189189],[95.61410887213265,27.272816771743372],[95.59848964586895,27.275575586347127],[95.58340957050078,27.2801211316204],[95.56912667029863,27.286375632023304],[95.55588532964495,27.294232071319865],[95.54391211154952,27.303556023655506],[95.53341188109353,27.314187953620678],[95.52456430013133,27.325945945945946],[95.51752075322618,27.338628818122693],[95.51240175741847,27.35201956269162],[95.50929490014572,27.365889060300535],[95.50825334059726,27.38],[95.50929490014572,27.394110939699463],[95.51240175741847,27.407980437308378],[95.51752075322618,27.421371181877305],[95.52456430013133,27.43405405405405],[95.53341188109353,27.44581204637932],[95.54391211154952,27.45644397634449],[95.55588532964495,27.465767928680133],[95.56912667029863,27.473624367976694],[95.58340957050078,27.479878868379597],[95.59848964586895,27.48442441365287],[95.61410887213265,27.487183228256626],[95.63,27.488108108108108]]]},"properties":{"zone_type":"industrial","zone_label":"Industrial Zone","zone_color":"#818cf8","name":"Digboi Oil Field (Assam)","state":"Assam","subtype":"oil_well","area_sqkm":452.39,"source":"curated_research","osm_id":""}},{"type":"Feature","geometry":{"type":"Polygon","coordinates":[[[70.22,23.148108108108108],[70.2353341136148,23.147183228256626],[70.25040585629422,23.14442441365287],[70.26495734634237,23.139878868379597],[70.27873960373006,23.133624367976694],[70.29151681021223,23.125767928680133],[70.30307034424348,23.11644397634449],[70.31320252165325,23.10581204637932],[70.32173997807693,23.09405405405405],[70.32853663526805,23.081371181877305],[70.3334762005377,23.06798043730838],[70.3364741565546,23.054110939699463],[70.33747920746012,23.04],[70.3364741565546,23.025889060300536],[70.3334762005377,23.01201956269162],[70.32853663526805,22.998628818122693],[70.32173997807693,22.985945945945947],[70.31320252165325,22.974187953620678],[70.30307034424348,22.963556023655507],[70.29151681021223,22.954232071319865],[70.27873960373006,22.946375632023305],[70.26495734634237,22.9401211316204],[70.25040585629424,22.935575586347127],[70.2353341136148,22.932816771743372],[70.22,22.93189189189189],[70.2046658863852,22.932816771743372],[70.18959414370578,22.935575586347127],[70.17504265365763,22.9401211316204],[70.16126039626994,22.946375632023305],[70.14848318978777,22.954232071319865],[70.13692965575652,22.963556023655507],[70.12679747834675,22.974187953620678],[70.11826002192306,22.985945945945947],[70.11146336473195,22.998628818122693],[70.1065237994623,23.01201956269162],[70.1035258434454,23.025889060300536],[70.10252079253988,23.04],[70.1035258434454,23.054110939699463],[70.1065237994623,23.06798043730838],[70.11146336473195,23.081371181877305],[70.11826002192306,23.09405405405405],[70.12679747834675,23.10581204637932],[70.13692965575652,23.11644397634449],[70.14848318978777,23.125767928680133],[70.16126039626994,23.133624367976694],[70.17504265365763,23.139878868379597],[70.18959414370578,23.14442441365287],[70.2046658863852,23.147183228256626],[70.22,23.148108108108108]]]},"properties":{"zone_type":"industrial","zone_label":"Industrial Zone","zone_color":"#818cf8","name":"Kandla SEZ & Port (Gujarat)","state":"Gujarat","subtype":"port_sez","area_sqkm":452.39,"source":"curated_research","osm_id":""}},{"type":"Feature","geometry":{"type":"Polygon","coordinates":[[[77.32,28.705135135135137],[77.34008426537342,28.703979035320785],[77.3598248833979,28.700530517066092],[77.3788840866259,28.6948485854745],[77.39693576680597,28.68703045997087],[77.41367105468537,28.677209910850166],[77.42880360484858,28.665554970430616],[77.44207449516676,28.65226505797415],[77.45325665702721,28.63756756756757],[77.4621587605402,28.621713977346634],[77.46862848824648,28.604975546635476],[77.47255514131128,28.58763867462433],[77.47387153361194,28.57],[77.47255514131128,28.55236132537567],[77.46862848824648,28.535024453364525],[77.4621587605402,28.518286022653367],[77.45325665702721,28.502432432432432],[77.44207449516676,28.48773494202585],[77.42880360484858,28.474445029569385],[77.41367105468537,28.462790089149834],[77.39693576680597,28.45296954002913],[77.3788840866259,28.4451514145255],[77.3598248833979,28.43946948293391],[77.34008426537342,28.436020964679216],[77.32,28.434864864864863],[77.29991573462657,28.436020964679216],[77.28017511660208,28.43946948293391],[77.26111591337408,28.4451514145255],[77.24306423319402,28.45296954002913],[77.22632894531462,28.462790089149834],[77.2111963951514,28.474445029569385],[77.19792550483322,28.48773494202585],[77.18674334297278,28.502432432432432],[77.17784123945978,28.518286022653367],[77.1713715117535,28.535024453364525],[77.16744485868871,28.55236132537567],[77.16612846638805,28.57],[77.16744485868871,28.58763867462433],[77.1713715117535,28.604975546635476],[77.17784123945978,28.621713977346634],[77.18674334297278,28.63756756756757],[77.19792550483322,28.65226505797415],[77.2111963951514,28.665554970430616],[77.22632894531462,28.677209910850166],[77.24306423319402,28.68703045997087],[77.26111591337408,28.6948485854745],[77.28017511660208,28.700530517066092],[77.29991573462657,28.703979035320785],[77.32,28.705135135135137]]]},"properties":{"zone_type":"industrial","zone_label":"Industrial Zone","zone_color":"#818cf8","name":"Noida-Greater Noida Industrial","state":"Uttar Pradesh","subtype":"manufacturing","area_sqkm":706.86,"source":"curated_research","osm_id":""}},{"type":"Feature","geometry":{"type":"Polygon","coordinates":[[[75.85,31.035135135135135],[75.87055634079272,31.033979035320783],[75.89076095689518,31.03053051706609],[75.9102681417241,31.024848585474498],[75.92874412193864,31.01703045997087],[75.94587276839479,31.007209910850165],[75.96136100520278,30.995554970430614],[75.97494382433663,30.98226505797415],[75.98638881999511,30.967567567567567],[75.99550016512936,30.951713977346632],[76.00212196209796,30.934975546635474],[76.0061409101189,30.917638674624328],[76.00748824387726,30.9],[76.0061409101189,30.88236132537567],[76.00212196209796,30.865024453364523],[75.99550016512936,30.848286022653365],[75.98638881999511,30.83243243243243],[75.97494382433663,30.817734942025847],[75.96136100520278,30.804445029569383],[75.94587276839479,30.792790089149833],[75.92874412193864,30.78296954002913],[75.9102681417241,30.7751514145255],[75.89076095689518,30.769469482933907],[75.87055634079272,30.766020964679214],[75.85,30.76486486486486],[75.82944365920727,30.766020964679214],[75.80923904310481,30.769469482933907],[75.78973185827589,30.7751514145255],[75.77125587806135,30.78296954002913],[75.7541272316052,30.792790089149833],[75.73863899479721,30.804445029569383],[75.72505617566335,30.817734942025847],[75.71361118000488,30.83243243243243],[75.70449983487063,30.848286022653365],[75.69787803790203,30.865024453364523],[75.69385908988109,30.88236132537567],[75.69251175612273,30.9],[75.69385908988109,30.917638674624328],[75.69787803790203,30.934975546635474],[75.70449983487063,30.951713977346632],[75.71361118000488,30.967567567567567],[75.72505617566335,30.98226505797415],[75.73863899479721,30.995554970430614],[75.7541272316052,31.007209910850165],[75.77125587806135,31.01703045997087],[75.78973185827589,31.024848585474498],[75.80923904310481,31.03053051706609],[75.82944365920727,31.033979035320783],[75.85,31.035135135135135]]]},"properties":{"zone_type":"industrial","zone_label":"Industrial Zone","zone_color":"#818cf8","name":"Ludhiana Industrial Belt (Punjab)","state":"Punjab","subtype":"manufacturing","area_sqkm":706.86,"source":"curated_research","osm_id":""}},{"type":"Feature","geometry":{"type":"Polygon","coordinates":[[[74.87,31.72009009009009],[74.88381065530037,31.719319356880522],[74.89738500645949,31.717020344710726],[74.91049079256554,31.713232390316332],[74.92290376998463,31.708020306647246],[74.93441154923158,31.70147327390011],[74.94481722901293,31.693703313620407],[74.95394276526261,31.684843371982765],[74.96163201752532,31.675045045045046],[74.96775342056297,31.664475984897756],[74.97220223547242,31.653317031090317],[74.97490234179712,31.64175911641622],[74.97580753996925,31.63],[74.97490234179712,31.618240883583777],[74.97220223547242,31.60668296890968],[74.96775342056297,31.595524015102242],[74.96163201752532,31.584954954954952],[74.95394276526261,31.575156628017233],[74.94481722901293,31.56629668637959],[74.93441154923158,31.55852672609989],[74.92290376998463,31.551979693352752],[74.91049079256554,31.546767609683666],[74.89738500645949,31.542979655289273],[74.88381065530037,31.540680643119476],[74.87,31.53990990990991],[74.85618934469964,31.540680643119476],[74.84261499354052,31.542979655289273],[74.82950920743447,31.546767609683666],[74.81709623001538,31.551979693352752],[74.80558845076843,31.55852672609989],[74.79518277098708,31.56629668637959],[74.7860572347374,31.575156628017233],[74.77836798247469,31.584954954954952],[74.77224657943704,31.595524015102242],[74.76779776452759,31.60668296890968],[74.76509765820289,31.618240883583777],[74.76419246003076,31.63],[74.76509765820289,31.64175911641622],[74.76779776452759,31.653317031090317],[74.77224657943704,31.664475984897756],[74.77836798247469,31.675045045045046],[74.7860572347374,31.684843371982765],[74.79518277098708,31.693703313620407],[74.80558845076843,31.70147327390011],[74.81709623001538,31.708020306647246],[74.82950920743447,31.713232390316332],[74.84261499354052,31.717020344710726],[74.85618934469964,31.719319356880522],[74.87,31.72009009009009]]]},"properties":{"zone_type":"industrial","zone_label":"Industrial Zone","zone_color":"#818cf8","name":"Amritsar Industrial Zone","state":"Punjab","subtype":"manufacturing","area_sqkm":314.16,"source":"curated_research","osm_id":""}},{"type":"Feature","geometry":{"type":"Polygon","coordinates":[[[75.85,25.28810810810811],[75.86559261857556,25.287183228256627],[75.88091844312422,25.28442441365287],[75.89571524453879,25.279878868379598],[75.90972984544466,25.273624367976694],[75.92272245213472,25.265767928680134],[75.93447075750629,25.256443976344492],[75.9447737447972,25.24581204637932],[75.9534551270384,25.234054054054052],[75.96036636337277,25.221371181877306],[75.96538920063051,25.20798043730838],[75.96843769667353,25.194110939699463],[75.96945969088932,25.18],[75.96843769667353,25.165889060300536],[75.96538920063051,25.15201956269162],[75.96036636337277,25.138628818122694],[75.9534551270384,25.125945945945947],[75.9447737447972,25.11418795362068],[75.93447075750629,25.103556023655507],[75.92272245213472,25.094232071319865],[75.90972984544466,25.086375632023305],[75.89571524453879,25.080121131620402],[75.88091844312422,25.075575586347128],[75.86559261857556,25.072816771743373],[75.85,25.07189189189189],[75.83440738142443,25.072816771743373],[75.81908155687577,25.075575586347128],[75.8042847554612,25.080121131620402],[75.79027015455533,25.086375632023305],[75.77727754786527,25.094232071319865],[75.7655292424937,25.103556023655507],[75.75522625520279,25.11418795362068],[75.74654487296159,25.125945945945947],[75.73963363662722,25.138628818122694],[75.73461079936948,25.15201956269162],[75.73156230332646,25.165889060300536],[75.73054030911067,25.18],[75.73156230332646,25.194110939699463],[75.73461079936948,25.20798043730838],[75.73963363662722,25.221371181877306],[75.74654487296159,25.234054054054052],[75.75522625520279,25.24581204637932],[75.7655292424937,25.256443976344492],[75.77727754786527,25.265767928680134],[75.79027015455533,25.273624367976694],[75.8042847554612,25.279878868379598],[75.81908155687577,25.28442441365287],[75.83440738142443,25.287183228256627],[75.85,25.28810810810811]]]},"properties":{"zone_type":"industrial","zone_label":"Industrial Zone","zone_color":"#818cf8","name":"Kota Industrial Zone (Rajasthan)","state":"Rajasthan","subtype":"chemical","area_sqkm":452.39,"source":"curated_research","osm_id":""}},{"type":"Feature","geometry":{"type":"Polygon","coordinates":[[[77.41,23.32207207207207],[77.42023877136509,23.32145548550442],[77.43030235451342,23.31961627576858],[77.44001855874713,23.316585912253064],[77.44922113711797,23.3124162453178],[77.45775263095857,23.30717861912009],[77.46546706404392,23.300962650896327],[77.47223244028513,23.293874697586215],[77.47793300221895,23.286036036036037],[77.48247121165022,23.277580787918204],[77.48576941855734,23.268653624872254],[77.4877711897057,23.259407293132977],[77.48844227423594,23.25],[77.4877711897057,23.240592706867023],[77.48576941855734,23.231346375127746],[77.48247121165022,23.222419212081796],[77.47793300221895,23.213963963963963],[77.47223244028513,23.206125302413785],[77.46546706404392,23.199037349103673],[77.45775263095857,23.19282138087991],[77.44922113711797,23.1875837546822],[77.44001855874713,23.183414087746936],[77.43030235451342,23.18038372423142],[77.42023877136509,23.17854451449558],[77.41,23.17792792792793],[77.3997612286349,23.17854451449558],[77.38969764548658,23.18038372423142],[77.37998144125287,23.183414087746936],[77.37077886288202,23.1875837546822],[77.36224736904143,23.19282138087991],[77.35453293595607,23.199037349103673],[77.34776755971487,23.206125302413785],[77.34206699778105,23.213963963963963],[77.33752878834977,23.222419212081796],[77.33423058144265,23.231346375127746],[77.3322288102943,23.240592706867023],[77.33155772576406,23.25],[77.3322288102943,23.259407293132977],[77.33423058144265,23.268653624872254],[77.33752878834977,23.277580787918204],[77.34206699778105,23.286036036036037],[77.34776755971487,23.293874697586215],[77.35453293595607,23.300962650896327],[77.36224736904143,23.30717861912009],[77.37077886288202,23.3124162453178],[77.37998144125287,23.316585912253064],[77.38969764548658,23.31961627576858],[77.3997612286349,23.32145548550442],[77.41,23.32207207207207]]]},"properties":{"zone_type":"industrial","zone_label":"Industrial Zone","zone_color":"#818cf8","name":"BHEL Bhopal Plant (MP)","state":"Madhya Pradesh","subtype":"heavy_engineering","area_sqkm":201.06,"source":"curated_research","osm_id":""}},{"type":"Feature","geometry":{"type":"Polygon","coordinates":[[[82.68,22.55018018018018],[82.70543211563542,22.548638713761047],[82.73042908072118,22.544040689421454],[82.75456319025423,22.536464780632667],[82.7774215029292,22.526040613294494],[82.79861290667871,22.512946547800222],[82.81777481070925,22.49740662724082],[82.83457934953015,22.479686743965537],[82.8487389928231,22.46009009009009],[82.86001146516556,22.438951969795514],[82.86820389143043,22.416634062180634],[82.87317609693294,22.39351823283244],[82.87484300585841,22.37],[82.87317609693294,22.34648176716756],[82.86820389143043,22.323365937819368],[82.86001146516556,22.30104803020449],[82.8487389928231,22.27990990990991],[82.83457934953015,22.260313256034465],[82.81777481070925,22.24259337275918],[82.79861290667871,22.22705345219978],[82.7774215029292,22.213959386705508],[82.75456319025423,22.203535219367335],[82.73042908072118,22.195959310578548],[82.70543211563542,22.191361286238955],[82.68,22.18981981981982],[82.6545678843646,22.191361286238955],[82.62957091927883,22.195959310578548],[82.60543680974578,22.203535219367335],[82.58257849707081,22.213959386705508],[82.5613870933213,22.22705345219978],[82.54222518929076,22.24259337275918],[82.52542065046987,22.260313256034465],[82.51126100717691,22.27990990990991],[82.49998853483446,22.30104803020449],[82.49179610856959,22.323365937819368],[82.48682390306708,22.34648176716756],[82.4851569941416,22.37],[82.48682390306708,22.39351823283244],[82.49179610856959,22.416634062180634],[82.49998853483446,22.438951969795514],[82.51126100717691,22.46009009009009],[82.52542065046987,22.479686743965537],[82.54222518929076,22.49740662724082],[82.5613870933213,22.512946547800222],[82.58257849707081,22.526040613294494],[82.60543680974578,22.536464780632667],[82.62957091927883,22.544040689421454],[82.6545678843646,22.548638713761047],[82.68,22.55018018018018]]]},"properties":{"zone_type":"industrial","zone_label":"Industrial Zone","zone_color":"#818cf8","name":"Korba Power + Coal Zone (CG)","state":"Chhattisgarh","subtype":"power_coal","area_sqkm":1256.64,"source":"curated_research","osm_id":""}},{"type":"Feature","geometry":{"type":"Polygon","coordinates":[[[81.38,21.31810810810811],[81.39513625977047,21.317183228256628],[81.41001353393972,21.314424413652873],[81.42437726822192,21.3098788683796],[81.43798169514115,21.303624367976695],[81.45059403918094,21.295767928680135],[81.461998499638,21.286443976344493],[81.47199994303196,21.275812046379322],[81.48042724189344,21.264054054054053],[81.48713620280243,21.251371181877307],[81.49201203357771,21.23798043730838],[81.49497130740286,21.224110939699464],[81.4959633902823,21.21],[81.49497130740286,21.195889060300537],[81.49201203357771,21.18201956269162],[81.48713620280243,21.168628818122695],[81.48042724189344,21.15594594594595],[81.47199994303196,21.14418795362068],[81.461998499638,21.13355602365551],[81.45059403918094,21.124232071319867],[81.43798169514115,21.116375632023306],[81.42437726822192,21.110121131620403],[81.41001353393972,21.10557558634713],[81.39513625977047,21.102816771743374],[81.38,21.101891891891892],[81.36486374022952,21.102816771743374],[81.34998646606027,21.10557558634713],[81.33562273177807,21.110121131620403],[81.32201830485884,21.116375632023306],[81.30940596081905,21.124232071319867],[81.29800150036199,21.13355602365551],[81.28800005696803,21.14418795362068],[81.27957275810655,21.15594594594595],[81.27286379719756,21.168628818122695],[81.26798796642228,21.18201956269162],[81.26502869259713,21.195889060300537],[81.26403660971769,21.21],[81.26502869259713,21.224110939699464],[81.26798796642228,21.23798043730838],[81.27286379719756,21.251371181877307],[81.27957275810655,21.264054054054053],[81.28800005696803,21.275812046379322],[81.29800150036199,21.286443976344493],[81.30940596081905,21.295767928680135],[81.32201830485884,21.303624367976695],[81.33562273177807,21.3098788683796],[81.34998646606027,21.314424413652873],[81.36486374022952,21.317183228256628],[81.38,21.31810810810811]]]},"properties":{"zone_type":"industrial","zone_label":"Industrial Zone","zone_color":"#818cf8","name":"Bhilai Steel Plant (CG)","state":"Chhattisgarh","subtype":"steel","area_sqkm":452.39,"source":"curated_research","osm_id":""}},{"type":"Feature","geometry":{"type":"Polygon","coordinates":[[[86.61,20.42810810810811],[86.62504737109697,20.427183228256627],[86.63983727750256,20.424424413652872],[86.65411665981762,20.419878868379598],[86.66764119385175,20.413624367976695],[86.68017947107792,20.405767928680135],[86.69151695809653,20.396443976344493],[86.70145966736132,20.38581204637932],[86.70983747636016,20.374054054054053],[86.7165070384583,20.361371181877306],[86.72135423559908,20.34798043730838],[86.72429613089554,20.334110939699464],[86.7252823877035,20.32],[86.72429613089554,20.305889060300537],[86.72135423559908,20.29201956269162],[86.7165070384583,20.278628818122694],[86.70983747636016,20.265945945945948],[86.70145966736132,20.25418795362068],[86.69151695809653,20.243556023655508],[86.68017947107792,20.234232071319866],[86.66764119385175,20.226375632023306],[86.65411665981762,20.220121131620402],[86.63983727750256,20.21557558634713],[86.62504737109697,20.212816771743373],[86.61,20.21189189189189],[86.59495262890303,20.212816771743373],[86.58016272249743,20.21557558634713],[86.56588334018238,20.220121131620402],[86.55235880614825,20.226375632023306],[86.53982052892208,20.234232071319866],[86.52848304190347,20.243556023655508],[86.51854033263868,20.25418795362068],[86.51016252363983,20.265945945945948],[86.5034929615417,20.278628818122694],[86.49864576440092,20.29201956269162],[86.49570386910446,20.305889060300537],[86.4947176122965,20.32],[86.49570386910446,20.334110939699464],[86.49864576440092,20.34798043730838],[86.5034929615417,20.361371181877306],[86.51016252363983,20.374054054054053],[86.51854033263868,20.38581204637932],[86.52848304190347,20.396443976344493],[86.53982052892208,20.405767928680135],[86.55235880614825,20.413624367976695],[86.56588334018238,20.419878868379598],[86.58016272249743,20.424424413652872],[86.59495262890303,20.427183228256627],[86.61,20.42810810810811]]]},"properties":{"zone_type":"industrial","zone_label":"Industrial Zone","zone_color":"#818cf8","name":"Paradip Refinery & Port (Odisha)","state":"Odisha","subtype":"oil_refinery","area_sqkm":452.39,"source":"curated_research","osm_id":""}},{"type":"Feature","geometry":{"type":"Polygon","coordinates":[[[76.27,10.13009009009009],[76.28194199270415,10.129319356880522],[76.2936796546022,10.127020344710726],[76.30501215104475,10.123232390316332],[76.31574557987574,10.118020306647246],[76.32569628915198,10.11147327390011],[76.33469401947889,10.103703313620409],[76.34258481719596,10.094843371982767],[76.34923366856648,10.085045045045044],[76.35452680990011,10.074475984897756],[76.3583736740811,10.063317031090316],[76.36070844019673,10.05175911641622],[76.36149115975148,10.04],[76.36070844019673,10.028240883583779],[76.3583736740811,10.016682968909683],[76.35452680990011,10.005524015102242],[76.34923366856648,9.994954954954954],[76.34258481719596,9.985156628017231],[76.33469401947889,9.97629668637959],[76.32569628915198,9.968526726099888],[76.31574557987574,9.961979693352752],[76.30501215104475,9.956767609683666],[76.2936796546022,9.952979655289273],[76.28194199270415,9.950680643119476],[76.27,9.949909909909909],[76.25805800729584,9.950680643119476],[76.24632034539779,9.952979655289273],[76.23498784895524,9.956767609683666],[76.22425442012425,9.961979693352752],[76.21430371084801,9.968526726099888],[76.2053059805211,9.97629668637959],[76.19741518280404,9.985156628017231],[76.19076633143351,9.994954954954954],[76.18547319009988,10.005524015102244],[76.1816263259189,10.016682968909683],[76.17929155980326,10.028240883583779],[76.17850884024851,10.04],[76.17929155980326,10.05175911641622],[76.1816263259189,10.063317031090316],[76.18547319009988,10.074475984897756],[76.19076633143351,10.085045045045044],[76.19741518280404,10.094843371982767],[76.2053059805211,10.103703313620409],[76.21430371084801,10.11147327390011],[76.22425442012425,10.118020306647246],[76.23498784895524,10.123232390316332],[76.24632034539779,10.127020344710726],[76.25805800729584,10.129319356880522],[76.27,10.13009009009009]]]},"properties":{"zone_type":"industrial","zone_label":"Industrial Zone","zone_color":"#818cf8","name":"Cochin Refinery & Port (Kerala)","state":"Kerala","subtype":"oil_refinery","area_sqkm":314.16,"source":"curated_research","osm_id":""}},{"type":"Feature","geometry":{"type":"Polygon","coordinates":[[[72.93,19.05504504504505],[72.93621871617498,19.054659678440263],[72.94233102839203,19.053510172355367],[72.94823235329449,19.051616195158168],[72.95382171757711,19.049010153323625],[72.95900348566738,19.045736636950057],[72.96368899607658,19.041851656810206],[72.96779807842256,19.037421685991387],[72.97126042516713,19.032522522522523],[72.97401679459753,19.027237992448878],[72.97602002446861,19.02165851554516],[72.97723583896186,19.015879558208113],[72.97764343515423,19.01],[72.97723583896186,19.00412044179189],[72.97602002446861,18.998341484454844],[72.97401679459753,18.992762007551125],[72.97126042516713,18.98747747747748],[72.96779807842256,18.982578314008617],[72.96368899607658,18.978148343189797],[72.95900348566738,18.974263363049946],[72.95382171757711,18.970989846676378],[72.94823235329449,18.968383804841835],[72.94233102839203,18.966489827644637],[72.93621871617498,18.96534032155974],[72.93,18.964954954954955],[72.92378128382504,18.96534032155974],[72.91766897160798,18.966489827644637],[72.91176764670553,18.968383804841835],[72.9061782824229,18.970989846676378],[72.90099651433263,18.974263363049946],[72.89631100392343,18.978148343189797],[72.89220192157745,18.982578314008617],[72.88873957483288,18.98747747747748],[72.88598320540248,18.992762007551125],[72.8839799755314,18.998341484454844],[72.88276416103815,19.00412044179189],[72.88235656484578,19.01],[72.88276416103815,19.015879558208113],[72.8839799755314,19.02165851554516],[72.88598320540248,19.027237992448878],[72.88873957483288,19.032522522522523],[72.89220192157745,19.037421685991387],[72.89631100392343,19.041851656810206],[72.90099651433263,19.045736636950057],[72.9061782824229,19.049010153323625],[72.91176764670553,19.051616195158168],[72.91766897160798,19.053510172355367],[72.92378128382504,19.054659678440263],[72.93,19.05504504504505]]]},"properties":{"zone_type":"industrial","zone_label":"Industrial Zone","zone_color":"#818cf8","name":"Trombay Atomic Plant (Mumbai)","state":"Maharashtra","subtype":"nuclear","area_sqkm":78.54,"source":"curated_research","osm_id":""}},{"type":"Feature","geometry":{"type":"Polygon","coordinates":[[[72.71,19.865045045045047],[72.71624977972324,19.864659678440262],[72.72239262398264,19.863510172355365],[72.72832342700983,19.861616195158167],[72.73394071112067,19.859010153323624],[72.7391483630266,19.855736636950056],[72.7438572783597,19.851851656810204],[72.74798688627305,19.847421685991385],[72.75146652803032,19.842522522522522],[72.7542366659963,19.837237992448877],[72.75624990234236,19.831658515545158],[72.75747179003643,19.82587955820811],[72.75788142224134,19.82],[72.75747179003643,19.81412044179189],[72.75624990234236,19.808341484454843],[72.7542366659963,19.802762007551124],[72.75146652803032,19.79747747747748],[72.74798688627305,19.792578314008615],[72.7438572783597,19.788148343189796],[72.7391483630266,19.784263363049945],[72.73394071112067,19.780989846676377],[72.72832342700983,19.778383804841834],[72.72239262398264,19.776489827644635],[72.71624977972324,19.77534032155974],[72.71,19.774954954954953],[72.70375022027675,19.77534032155974],[72.69760737601734,19.776489827644635],[72.69167657299016,19.778383804841834],[72.68605928887932,19.780989846676377],[72.68085163697339,19.784263363049945],[72.67614272164029,19.788148343189796],[72.67201311372693,19.792578314008615],[72.66853347196967,19.79747747747748],[72.66576333400369,19.802762007551124],[72.66375009765763,19.808341484454843],[72.66252820996355,19.81412044179189],[72.66211857775865,19.82],[72.66252820996355,19.82587955820811],[72.66375009765763,19.831658515545158],[72.66576333400369,19.837237992448877],[72.66853347196967,19.842522522522522],[72.67201311372693,19.847421685991385],[72.67614272164029,19.851851656810204],[72.68085163697339,19.855736636950056],[72.68605928887932,19.859010153323624],[72.69167657299016,19.861616195158167],[72.69760737601734,19.863510172355365],[72.70375022027675,19.864659678440262],[72.71,19.865045045045047]]]},"properties":{"zone_type":"industrial","zone_label":"Industrial Zone","zone_color":"#818cf8","name":"Tarapur Atomic Plant (MH)","state":"Maharashtra","subtype":"nuclear","area_sqkm":78.54,"source":"curated_research","osm_id":""}},{"type":"Feature","geometry":{"type":"Polygon","coordinates":[[[82.68,24.14207207207207],[82.69030317644109,24.14145548550442],[82.7004300626767,24.13961627576858],[82.71020738487562,24.136585912253064],[82.71946785034426,24.1324162453178],[82.72805300995094,24.12717861912009],[82.73581596923455,24.120962650896328],[82.74262390180945,24.113874697586215],[82.74836032206177,24.106036036036038],[82.75292707825054,24.097580787918204],[82.75624603191125,24.088653624872254],[82.75826039482655,24.079407293132977],[82.7589357006885,24.07],[82.75826039482655,24.060592706867023],[82.75624603191125,24.051346375127746],[82.75292707825054,24.042419212081796],[82.74836032206177,24.033963963963963],[82.74262390180945,24.026125302413785],[82.73581596923455,24.019037349103673],[82.72805300995094,24.01282138087991],[82.71946785034426,24.0075837546822],[82.71020738487562,24.003414087746936],[82.7004300626767,24.00038372423142],[82.69030317644109,23.99854451449558],[82.68,23.99792792792793],[82.66969682355892,23.99854451449558],[82.65956993732331,24.00038372423142],[82.6497926151244,24.003414087746936],[82.64053214965575,24.0075837546822],[82.63194699004907,24.01282138087991],[82.62418403076546,24.019037349103673],[82.61737609819056,24.026125302413785],[82.61163967793824,24.033963963963963],[82.60707292174948,24.042419212081796],[82.60375396808877,24.051346375127746],[82.60173960517346,24.060592706867023],[82.60106429931152,24.07],[82.60173960517346,24.079407293132977],[82.60375396808877,24.088653624872254],[82.60707292174948,24.097580787918204],[82.61163967793824,24.106036036036038],[82.61737609819056,24.113874697586215],[82.62418403076546,24.120962650896328],[82.63194699004907,24.12717861912009],[82.64053214965575,24.1324162453178],[82.6497926151244,24.136585912253064],[82.65956993732331,24.13961627576858],[82.66969682355892,24.14145548550442],[82.68,24.14207207207207]]]},"properties":{"zone_type":"industrial","zone_label":"Industrial Zone","zone_color":"#818cf8","name":"NTPC Vindhyachal Power (MP)","state":"Madhya Pradesh","subtype":"power_plant","area_sqkm":201.06,"source":"curated_research","osm_id":""}},{"type":"Feature","geometry":{"type":"Polygon","coordinates":[[[83.06,24.102072072072072],[83.07029996689828,24.10145548550442],[83.08042369850722,24.099616275768582],[83.0901979749722,24.096585912253065],[83.09945555571294,24.0924162453178],[83.10803804095629,24.087178619120092],[83.1157985820002,24.08096265089633],[83.12260439383581,24.073874697586216],[83.12833902713567,24.06603603603604],[83.13290436073409,24.057580787918205],[83.13622228050743,24.048653624872255],[83.13823601592848,24.039407293132978],[83.13891111142587,24.03],[83.13823601592848,24.020592706867024],[83.13622228050743,24.011346375127747],[83.13290436073409,24.002419212081797],[83.12833902713567,23.993963963963964],[83.12260439383581,23.986125302413786],[83.1157985820002,23.979037349103674],[83.10803804095629,23.97282138087991],[83.09945555571294,23.967583754682202],[83.0901979749722,23.963414087746937],[83.08042369850722,23.96038372423142],[83.07029996689828,23.958544514495582],[83.06,23.95792792792793],[83.04970003310173,23.958544514495582],[83.03957630149279,23.96038372423142],[83.0298020250278,23.963414087746937],[83.02054444428707,23.967583754682202],[83.01196195904372,23.97282138087991],[83.00420141799981,23.979037349103674],[82.99739560616419,23.986125302413786],[82.99166097286434,23.993963963963964],[82.98709563926592,24.002419212081797],[82.98377771949258,24.011346375127747],[82.98176398407152,24.020592706867024],[82.98108888857413,24.03],[82.98176398407152,24.039407293132978],[82.98377771949258,24.048653624872255],[82.98709563926592,24.057580787918205],[82.99166097286434,24.06603603603604],[82.99739560616419,24.073874697586216],[83.00420141799981,24.08096265089633],[83.01196195904372,24.087178619120092],[83.02054444428707,24.0924162453178],[83.0298020250278,24.096585912253065],[83.03957630149279,24.099616275768582],[83.04970003310173,24.10145548550442],[83.06,24.102072072072072]]]},"properties":{"zone_type":"industrial","zone_label":"Industrial Zone","zone_color":"#818cf8","name":"NTPC Rihand Power Station (UP)","state":"Uttar Pradesh","subtype":"power_plant","area_sqkm":201.06,"source":"curated_research","osm_id":""}},{"type":"Feature","geometry":{"type":"Polygon","coordinates":[[[69.72,22.88810810810811],[69.73530473399114,22.887183228256628],[69.75034759974044,22.884424413652873],[69.76487120964423,22.8798788683796],[69.77862706071035,22.873624367976696],[69.79137978651322,22.865767928680135],[69.80291118437864,22.856443976344494],[69.81302394889202,22.845812046379322],[69.82154504784874,22.834054054054054],[69.82832868288317,22.821371181877307],[69.83325878411908,22.80798043730838],[69.83625099615745,22.794110939699465],[69.83725412142068,22.78],[69.83625099615745,22.765889060300537],[69.83325878411908,22.752019562691622],[69.82832868288317,22.738628818122695],[69.82154504784874,22.72594594594595],[69.81302394889202,22.71418795362068],[69.80291118437864,22.70355602365551],[69.79137978651322,22.694232071319867],[69.77862706071035,22.686375632023307],[69.76487120964423,22.680121131620403],[69.75034759974044,22.67557558634713],[69.73530473399114,22.672816771743374],[69.72,22.671891891891892],[69.70469526600886,22.672816771743374],[69.68965240025956,22.67557558634713],[69.67512879035577,22.680121131620403],[69.66137293928965,22.686375632023307],[69.64862021348678,22.694232071319867],[69.63708881562135,22.70355602365551],[69.62697605110797,22.71418795362068],[69.61845495215125,22.72594594594595],[69.61167131711683,22.738628818122695],[69.60674121588092,22.752019562691622],[69.60374900384255,22.765889060300537],[69.60274587857931,22.78],[69.60374900384255,22.794110939699465],[69.60674121588092,22.80798043730838],[69.61167131711683,22.821371181877307],[69.61845495215125,22.834054054054054],[69.62697605110797,22.845812046379322],[69.63708881562135,22.856443976344494],[69.64862021348678,22.865767928680135],[69.66137293928965,22.873624367976696],[69.67512879035577,22.8798788683796],[69.68965240025956,22.884424413652873],[69.70469526600886,22.887183228256628],[69.72,22.88810810810811]]]},"properties":{"zone_type":"industrial","zone_label":"Industrial Zone","zone_color":"#818cf8","name":"Mundra UMPP & Port (Gujarat)","state":"Gujarat","subtype":"power_port","area_sqkm":452.39,"source":"curated_research","osm_id":""}}]}