{"type":"FeatureCollection","name":"India Mining / Quarry Area","crs":{"type":"name","properties":{"name":"EPSG:4326"}},"features":[{"type":"Feature","geometry":{"type":"Polygon","coordinates":[[[86.41,24.02027027027027],[86.44854136002162,24.01795807064157],[86.48642326668758,24.01106103413218],[86.52299755007199,23.999697170948995],[86.55763841404583,23.98406091994174],[86.58975314382224,23.964419821700332],[86.61879224747086,23.941109940861228],[86.6442588578771,23.914530115948303],[86.66571723427626,23.885135135135137],[86.68280021789873,23.853427954693267],[86.69521551415845,23.81995109327095],[86.70275069389423,23.785277349248663],[86.70527682809166,23.75],[86.70275069389423,23.714722650751337],[86.69521551415845,23.68004890672905],[86.68280021789873,23.646572045306733],[86.66571723427626,23.614864864864863],[86.6442588578771,23.585469884051697],[86.61879224747086,23.558890059138772],[86.58975314382224,23.535580178299668],[86.55763841404583,23.51593908005826],[86.52299755007199,23.500302829051005],[86.48642326668758,23.48893896586782],[86.44854136002162,23.48204192935843],[86.41,23.47972972972973],[86.37145863997837,23.48204192935843],[86.33357673331241,23.48893896586782],[86.297002449928,23.500302829051005],[86.26236158595417,23.51593908005826],[86.23024685617776,23.535580178299668],[86.20120775252913,23.558890059138772],[86.17574114212289,23.585469884051697],[86.15428276572374,23.614864864864863],[86.13719978210126,23.646572045306733],[86.12478448584154,23.68004890672905],[86.11724930610576,23.714722650751337],[86.11472317190834,23.75],[86.11724930610576,23.785277349248663],[86.12478448584154,23.81995109327095],[86.13719978210126,23.853427954693267],[86.15428276572374,23.885135135135137],[86.17574114212289,23.914530115948303],[86.20120775252913,23.941109940861228],[86.23024685617776,23.964419821700332],[86.26236158595417,23.98406091994174],[86.297002449928,23.999697170948995],[86.33357673331241,24.01106103413218],[86.37145863997837,24.01795807064157],[86.41,24.02027027027027]]]},"properties":{"zone_type":"mining","zone_label":"Mining / Quarry Area","zone_color":"#f97316","name":"Jharia Coalfield (Jharkhand)","state":"Jharkhand","subtype":"coal","area_sqkm":2827.43,"source":"curated_research","osm_id":""}},{"type":"Feature","geometry":{"type":"Polygon","coordinates":[[[87.11,23.865225225225227],[87.1420907502073,23.863298392201308],[87.17363241878131,23.85755086177682],[87.20408531902774,23.848080975790833],[87.23292839338022,23.835050766618117],[87.25966812883978,23.818683184750277],[87.28384700111904,23.799258284051025],[87.30505130300966,23.777108429956918],[87.32291822302734,23.752612612612612],[87.33714205321695,23.72618996224439],[87.34747941990035,23.698292577725795],[87.3537534478675,23.669397791040552],[87.35585678676043,23.64],[87.3537534478675,23.61060220895945],[87.34747941990035,23.581707422274206],[87.33714205321695,23.55381003775561],[87.32291822302734,23.52738738738739],[87.30505130300966,23.502891570043083],[87.28384700111904,23.480741715948977],[87.25966812883978,23.461316815249724],[87.23292839338022,23.444949233381884],[87.20408531902774,23.43191902420917],[87.17363241878131,23.422449138223183],[87.1420907502073,23.416701607798693],[87.11,23.414774774774774],[87.0779092497927,23.416701607798693],[87.04636758121869,23.422449138223183],[87.01591468097226,23.43191902420917],[86.98707160661978,23.444949233381884],[86.96033187116022,23.461316815249724],[86.93615299888096,23.480741715948977],[86.91494869699034,23.502891570043083],[86.89708177697266,23.52738738738739],[86.88285794678305,23.55381003775561],[86.87252058009965,23.581707422274206],[86.8662465521325,23.61060220895945],[86.86414321323957,23.64],[86.8662465521325,23.669397791040552],[86.87252058009965,23.698292577725795],[86.88285794678305,23.72618996224439],[86.89708177697266,23.752612612612612],[86.91494869699034,23.777108429956918],[86.93615299888096,23.799258284051025],[86.96033187116022,23.818683184750277],[86.98707160661978,23.835050766618117],[87.01591468097226,23.848080975790833],[87.04636758121869,23.85755086177682],[87.0779092497927,23.863298392201308],[87.11,23.865225225225227]]]},"properties":{"zone_type":"mining","zone_label":"Mining / Quarry Area","zone_color":"#f97316","name":"Raniganj Coalfield (WB)","state":"West Bengal","subtype":"coal","area_sqkm":1963.5,"source":"curated_research","osm_id":""}},{"type":"Feature","geometry":{"type":"Polygon","coordinates":[[[82.7,24.515315315315316],[82.74512224511558,24.51261774908183],[82.78947243610698,24.504571206487544],[82.83229172891014,24.49131336610716],[82.87284747355345,24.473071073265363],[82.9104457500019,24.45015645865039],[82.94444324132122,24.422961597671435],[82.97425824100907,24.391951801939687],[82.9993806061545,24.357657657657658],[83.01938048612465,24.320665947142146],[83.0339156774282,24.281609608816108],[83.04273747891203,24.241156907456773],[83.04569494710691,24.2],[83.04273747891203,24.158843092543226],[83.0339156774282,24.11839039118389],[83.01938048612465,24.079334052857853],[82.9993806061545,24.04234234234234],[82.97425824100907,24.00804819806031],[82.94444324132122,23.977038402328564],[82.9104457500019,23.94984354134961],[82.87284747355345,23.926928926734636],[82.83229172891014,23.908686633892838],[82.78947243610698,23.895428793512455],[82.74512224511558,23.88738225091817],[82.7,23.884684684684682],[82.65487775488442,23.88738225091817],[82.61052756389303,23.895428793512455],[82.56770827108987,23.908686633892838],[82.52715252644656,23.926928926734636],[82.48955424999811,23.94984354134961],[82.45555675867878,23.977038402328564],[82.42574175899094,24.00804819806031],[82.4006193938455,24.04234234234234],[82.38061951387536,24.079334052857853],[82.36608432257181,24.11839039118389],[82.35726252108797,24.158843092543226],[82.3543050528931,24.2],[82.35726252108797,24.241156907456773],[82.36608432257181,24.281609608816108],[82.38061951387536,24.320665947142146],[82.4006193938455,24.357657657657658],[82.42574175899094,24.391951801939687],[82.45555675867878,24.42296159767143],[82.48955424999811,24.45015645865039],[82.52715252644656,24.473071073265363],[82.56770827108987,24.49131336610716],[82.61052756389303,24.504571206487544],[82.65487775488442,24.51261774908183],[82.7,24.515315315315316]]]},"properties":{"zone_type":"mining","zone_label":"Mining / Quarry Area","zone_color":"#f97316","name":"Singrauli Coalfield (MP-UP)","state":"Madhya Pradesh","subtype":"coal","area_sqkm":3848.45,"source":"curated_research","osm_id":""}},{"type":"Feature","geometry":{"type":"Polygon","coordinates":[[[82.7,22.57522522522523],[82.73178558013937,22.57329839220131],[82.76302730018995,22.56755086177682],[82.79319060565979,22.558080975790833],[82.82175939402947,22.545050766618118],[82.84824484540924,22.528683184750278],[82.87219378638281,22.509258284051025],[82.89319644393024,22.48710842995692],[82.91089345675785,22.462612612612613],[82.92498202406962,22.43618996224439],[82.93522108657275,22.408292577725796],[82.94143545106903,22.379397791040553],[82.94351878805895,22.35],[82.94143545106903,22.32060220895945],[82.93522108657275,22.291707422274207],[82.92498202406962,22.26381003775561],[82.91089345675785,22.23738738738739],[82.89319644393024,22.212891570043084],[82.87219378638281,22.190741715948977],[82.84824484540924,22.171316815249725],[82.82175939402947,22.154949233381885],[82.79319060565979,22.14191902420917],[82.76302730018995,22.132449138223183],[82.73178558013937,22.126701607798694],[82.7,22.124774774774774],[82.66821441986063,22.126701607798694],[82.63697269981006,22.132449138223183],[82.60680939434022,22.14191902420917],[82.57824060597054,22.154949233381885],[82.55175515459077,22.171316815249725],[82.5278062136172,22.190741715948977],[82.50680355606977,22.212891570043084],[82.48910654324216,22.23738738738739],[82.47501797593038,22.26381003775561],[82.46477891342725,22.291707422274207],[82.45856454893098,22.32060220895945],[82.45648121194105,22.35],[82.45856454893098,22.379397791040553],[82.46477891342725,22.408292577725796],[82.47501797593038,22.43618996224439],[82.48910654324216,22.462612612612613],[82.50680355606977,22.48710842995692],[82.5278062136172,22.509258284051025],[82.55175515459077,22.528683184750278],[82.57824060597054,22.545050766618118],[82.60680939434022,22.558080975790833],[82.63697269981006,22.56755086177682],[82.66821441986063,22.57329839220131],[82.7,22.57522522522523]]]},"properties":{"zone_type":"mining","zone_label":"Mining / Quarry Area","zone_color":"#f97316","name":"Korba Coalfield (CG)","state":"Chhattisgarh","subtype":"coal","area_sqkm":1963.5,"source":"curated_research","osm_id":""}},{"type":"Feature","geometry":{"type":"Polygon","coordinates":[[[85.23,21.22027027027027],[85.26777451654159,21.21795807064157],[85.30490270063208,21.21106103413218],[85.34074927874781,21.199697170948994],[85.37470090599865,21.18406091994174],[85.40617666062919,21.16441982170033],[85.43463798375096,21.141109940861227],[85.45959789423439,21.114530115948302],[85.4806293210909,21.085135135135136],[85.49737241077598,21.053427954693266],[85.50954068438304,21.01995109327095],[85.51692593937699,20.985277349248662],[85.5194018119973,20.95],[85.51692593937699,20.914722650751337],[85.50954068438304,20.880048906729048],[85.49737241077598,20.846572045306733],[85.4806293210909,20.814864864864866],[85.45959789423439,20.785469884051697],[85.43463798375096,20.75889005913877],[85.40617666062919,20.735580178299667],[85.37470090599865,20.71593908005826],[85.34074927874781,20.700302829051004],[85.30490270063208,20.68893896586782],[85.26777451654159,20.68204192935843],[85.23,20.67972972972973],[85.19222548345842,20.68204192935843],[85.15509729936792,20.68893896586782],[85.1192507212522,20.700302829051004],[85.08529909400136,20.71593908005826],[85.05382333937082,20.735580178299667],[85.02536201624905,20.75889005913877],[85.00040210576562,20.785469884051697],[84.9793706789091,20.814864864864862],[84.96262758922403,20.846572045306733],[84.95045931561697,20.880048906729048],[84.94307406062302,20.914722650751337],[84.94059818800271,20.95],[84.94307406062302,20.985277349248662],[84.95045931561697,21.01995109327095],[84.96262758922403,21.053427954693266],[84.9793706789091,21.085135135135136],[85.00040210576562,21.114530115948302],[85.02536201624905,21.141109940861227],[85.05382333937082,21.16441982170033],[85.08529909400136,21.18406091994174],[85.1192507212522,21.199697170948994],[85.15509729936792,21.21106103413218],[85.19222548345842,21.21795807064157],[85.23,21.22027027027027]]]},"properties":{"zone_type":"mining","zone_label":"Mining / Quarry Area","zone_color":"#f97316","name":"Talcher Coalfield (Odisha)","state":"Odisha","subtype":"coal","area_sqkm":2827.43,"source":"curated_research","osm_id":""}},{"type":"Feature","geometry":{"type":"Polygon","coordinates":[[[83.8,21.88018018018018],[83.82531203140753,21.878638713761045],[83.85019096693988,21.874040689421452],[83.87421112111231,21.866464780632665],[83.8969615024273,21.856040613294493],[83.91805284555296,21.84294654780022],[83.93712427176077,21.82740662724082],[83.95384946366072,21.809686743965536],[83.9679422485823,21.79009009009009],[83.97916149506827,21.768951969795513],[83.98731523870065,21.746634062180632],[83.99226396666528,21.72351823283244],[83.99392300485461,21.7],[83.99226396666528,21.67648176716756],[83.98731523870065,21.653365937819366],[83.97916149506827,21.63104803020449],[83.9679422485823,21.60990990990991],[83.95384946366072,21.590313256034463],[83.93712427176077,21.57259337275918],[83.91805284555296,21.557053452199778],[83.8969615024273,21.543959386705506],[83.87421112111231,21.533535219367334],[83.85019096693988,21.525959310578546],[83.82531203140753,21.521361286238953],[83.8,21.51981981981982],[83.77468796859246,21.521361286238953],[83.74980903306012,21.525959310578546],[83.72578887888768,21.533535219367334],[83.70303849757269,21.543959386705506],[83.68194715444703,21.557053452199778],[83.66287572823923,21.57259337275918],[83.64615053633928,21.590313256034463],[83.63205775141769,21.60990990990991],[83.62083850493173,21.63104803020449],[83.61268476129935,21.653365937819366],[83.60773603333472,21.67648176716756],[83.60607699514539,21.7],[83.60773603333472,21.72351823283244],[83.61268476129935,21.746634062180632],[83.62083850493173,21.768951969795513],[83.63205775141769,21.79009009009009],[83.64615053633928,21.809686743965536],[83.66287572823923,21.82740662724082],[83.68194715444703,21.84294654780022],[83.70303849757269,21.856040613294493],[83.72578887888768,21.866464780632665],[83.74980903306012,21.874040689421452],[83.77468796859246,21.878638713761045],[83.8,21.88018018018018]]]},"properties":{"zone_type":"mining","zone_label":"Mining / Quarry Area","zone_color":"#f97316","name":"Ib Valley Coalfield (Odisha)","state":"Odisha","subtype":"coal","area_sqkm":1256.64,"source":"curated_research","osm_id":""}},{"type":"Feature","geometry":{"type":"Polygon","coordinates":[[[78.5,20.68018018018018],[78.52510828559062,20.678638713761046],[78.54978696145345,20.674040689421453],[78.57361376860227,20.666464780632666],[78.5961810237607,20.656040613294493],[78.61710259493617,20.64294654780022],[78.63602050824531,20.62740662724082],[78.65261107294637,20.609686743965536],[78.66659041987752,20.59009009009009],[78.67771935853699,20.568951969795513],[78.68580746969877,20.546634062180633],[78.69071636353844,20.52351823283244],[78.69236204752141,20.5],[78.69071636353844,20.47648176716756],[78.68580746969877,20.453365937819367],[78.67771935853699,20.431048030204487],[78.66659041987752,20.40990990990991],[78.65261107294637,20.390313256034464],[78.63602050824531,20.37259337275918],[78.61710259493617,20.35705345219978],[78.5961810237607,20.343959386705507],[78.57361376860227,20.333535219367334],[78.54978696145345,20.325959310578547],[78.52510828559062,20.321361286238954],[78.5,20.31981981981982],[78.47489171440938,20.321361286238954],[78.45021303854655,20.325959310578547],[78.42638623139773,20.333535219367334],[78.4038189762393,20.343959386705507],[78.38289740506383,20.35705345219978],[78.36397949175469,20.37259337275918],[78.34738892705363,20.390313256034464],[78.33340958012248,20.40990990990991],[78.32228064146301,20.43104803020449],[78.31419253030123,20.453365937819367],[78.30928363646156,20.47648176716756],[78.30763795247859,20.5],[78.30928363646156,20.52351823283244],[78.31419253030123,20.546634062180633],[78.32228064146301,20.568951969795513],[78.33340958012248,20.59009009009009],[78.34738892705363,20.609686743965536],[78.36397949175469,20.62740662724082],[78.38289740506383,20.64294654780022],[78.4038189762393,20.656040613294493],[78.42638623139773,20.666464780632666],[78.45021303854655,20.674040689421453],[78.47489171440938,20.678638713761046],[78.5,20.68018018018018]]]},"properties":{"zone_type":"mining","zone_label":"Mining / Quarry Area","zone_color":"#f97316","name":"Wardha Valley Coalfield (MH)","state":"Maharashtra","subtype":"coal","area_sqkm":1256.64,"source":"curated_research","osm_id":""}},{"type":"Feature","geometry":{"type":"Polygon","coordinates":[[[80.7,18.225225225225227],[80.7309106667552,18.223298392201308],[80.76129244343215,18.217550861776818],[80.7906254894085,18.208080975790832],[80.81840790813494,18.195050766618117],[80.84416433472433,18.178683184750277],[80.86745406957667,18.159258284051024],[80.88787861887151,18.137108429956918],[80.90508851290767,18.11261261261261],[80.9187892856267,18.08618996224439],[80.9287465130088,18.058292577725794],[80.93478982413282,18.02939779104055],[80.93681581626988,18.0],[80.93478982413282,17.97060220895945],[80.9287465130088,17.941707422274206],[80.9187892856267,17.91381003775561],[80.90508851290767,17.88738738738739],[80.88787861887151,17.862891570043082],[80.86745406957667,17.840741715948976],[80.84416433472433,17.821316815249723],[80.81840790813494,17.804949233381883],[80.7906254894085,17.791919024209168],[80.76129244343215,17.782449138223182],[80.7309106667552,17.776701607798692],[80.7,17.774774774774773],[80.66908933324481,17.776701607798692],[80.63870755656785,17.782449138223182],[80.60937451059151,17.791919024209168],[80.58159209186506,17.804949233381883],[80.55583566527568,17.821316815249723],[80.53254593042334,17.840741715948976],[80.5121213811285,17.862891570043082],[80.49491148709234,17.88738738738739],[80.4812107143733,17.91381003775561],[80.4712534869912,17.941707422274206],[80.46521017586718,17.97060220895945],[80.46318418373012,18.0],[80.46521017586718,18.02939779104055],[80.4712534869912,18.058292577725794],[80.4812107143733,18.08618996224439],[80.49491148709234,18.11261261261261],[80.5121213811285,18.137108429956918],[80.53254593042334,18.159258284051024],[80.55583566527568,18.178683184750277],[80.58159209186506,18.195050766618117],[80.60937451059151,18.208080975790832],[80.63870755656785,18.217550861776818],[80.66908933324481,18.223298392201308],[80.7,18.225225225225227]]]},"properties":{"zone_type":"mining","zone_label":"Mining / Quarry Area","zone_color":"#f97316","name":"Godavari Valley Coalfield (AP)","state":"Andhra Pradesh","subtype":"coal","area_sqkm":1963.5,"source":"curated_research","osm_id":""}},{"type":"Feature","geometry":{"type":"Polygon","coordinates":[[[78.05,15.965135135135135],[78.06833398560077,15.963979035320785],[78.08635427162477,15.96053051706609],[78.10375252598197,15.954848585474497],[78.1202310597166,15.94703045997087],[78.13550792054775,15.937209910850166],[78.14932171715105,15.925554970430614],[78.16143609163672,15.912265057974151],[78.17164376369855,15.897567567567569],[78.17977007723749,15.881713977346633],[78.18567598877583,15.864975546635476],[78.18926044652973,15.847638674624331],[78.1904621194332,15.83],[78.18926044652973,15.812361325375669],[78.18567598877583,15.795024453364524],[78.17977007723749,15.778286022653367],[78.17164376369855,15.762432432432433],[78.16143609163672,15.747734942025849],[78.14932171715105,15.734445029569386],[78.13550792054775,15.722790089149834],[78.1202310597166,15.71296954002913],[78.10375252598197,15.705151414525503],[78.08635427162477,15.69946948293391],[78.06833398560077,15.696020964679215],[78.05,15.694864864864865],[78.03166601439922,15.696020964679215],[78.01364572837522,15.69946948293391],[77.99624747401802,15.705151414525503],[77.97976894028339,15.71296954002913],[77.96449207945224,15.722790089149834],[77.95067828284894,15.734445029569386],[77.93856390836328,15.747734942025849],[77.92835623630144,15.762432432432432],[77.9202299227625,15.778286022653367],[77.91432401122417,15.795024453364524],[77.91073955347026,15.812361325375669],[77.90953788056679,15.83],[77.91073955347026,15.847638674624331],[77.91432401122417,15.864975546635476],[77.9202299227625,15.881713977346633],[77.92835623630144,15.897567567567569],[77.93856390836328,15.912265057974151],[77.95067828284894,15.925554970430614],[77.96449207945224,15.937209910850166],[77.97976894028339,15.94703045997087],[77.99624747401802,15.954848585474497],[78.01364572837522,15.96053051706609],[78.03166601439922,15.963979035320785],[78.05,15.965135135135135]]]},"properties":{"zone_type":"mining","zone_label":"Mining / Quarry Area","zone_color":"#f97316","name":"Kurnool Limestone Mines (AP)","state":"Andhra Pradesh","subtype":"limestone","area_sqkm":706.86,"source":"curated_research","osm_id":""}},{"type":"Feature","geometry":{"type":"Polygon","coordinates":[[[73.7,24.44009009009009],[73.71290730063099,24.439319356880524],[73.72559375376962,24.437020344710728],[73.73784229068531,24.433232390316334],[73.7494433355155,24.428020306647248],[73.76019839116674,24.421473273900112],[73.76992343565497,24.41370331362041],[73.77845207077272,24.404843371982768],[73.78563836920851,24.39504504504505],[73.79135937140371,24.384475984897758],[73.79551718942459,24.37331703109032],[73.79804068185204,24.361759116416223],[73.798886671031,24.35],[73.79804068185204,24.33824088358378],[73.79551718942459,24.326682968909683],[73.79135937140371,24.315524015102245],[73.78563836920851,24.304954954954958],[73.77845207077272,24.295156628017235],[73.76992343565497,24.286296686379593],[73.76019839116674,24.27852672609989],[73.7494433355155,24.271979693352755],[73.73784229068531,24.26676760968367],[73.72559375376962,24.262979655289275],[73.71290730063099,24.26068064311948],[73.7,24.25990990990991],[73.68709269936902,24.26068064311948],[73.67440624623039,24.262979655289275],[73.66215770931471,24.26676760968367],[73.65055666448451,24.271979693352755],[73.63980160883327,24.27852672609989],[73.63007656434503,24.286296686379593],[73.62154792922729,24.295156628017235],[73.61436163079149,24.304954954954955],[73.60864062859629,24.315524015102245],[73.60448281057542,24.326682968909683],[73.60195931814796,24.33824088358378],[73.601113328969,24.35],[73.60195931814796,24.361759116416223],[73.60448281057542,24.37331703109032],[73.60864062859629,24.384475984897758],[73.61436163079149,24.39504504504505],[73.62154792922729,24.404843371982768],[73.63007656434503,24.41370331362041],[73.63980160883327,24.421473273900112],[73.65055666448451,24.428020306647248],[73.66215770931471,24.433232390316334],[73.67440624623039,24.437020344710728],[73.68709269936902,24.439319356880524],[73.7,24.44009009009009]]]},"properties":{"zone_type":"mining","zone_label":"Mining / Quarry Area","zone_color":"#f97316","name":"Zawar Silver-Lead Mines (Raj)","state":"Rajasthan","subtype":"silver_lead","area_sqkm":314.16,"source":"curated_research","osm_id":""}},{"type":"Feature","geometry":{"type":"Polygon","coordinates":[[[73.83,25.52207207207207],[73.84041827605228,25.52145548550442],[73.8506582925128,25.51961627576858],[73.86054483986088,25.516585912253063],[73.86990875653031,25.512416245317798],[73.87858982331069,25.50717861912009],[73.8864395047426,25.500962650896327],[73.89332349060037,25.493874697586214],[73.89912399397738,25.486036036036037],[73.90374176665264,25.477580787918203],[73.9070977972554,25.468653624872253],[73.90913466317157,25.459407293132976],[73.9098175130606,25.45],[73.90913466317157,25.440592706867022],[73.9070977972554,25.431346375127745],[73.90374176665264,25.422419212081795],[73.89912399397738,25.413963963963962],[73.89332349060037,25.406125302413784],[73.8864395047426,25.399037349103672],[73.87858982331069,25.39282138087991],[73.86990875653031,25.3875837546822],[73.86054483986088,25.383414087746935],[73.8506582925128,25.380383724231418],[73.84041827605228,25.37854451449558],[73.83,25.377927927927928],[73.81958172394772,25.37854451449558],[73.80934170748719,25.380383724231418],[73.79945516013912,25.383414087746935],[73.79009124346969,25.3875837546822],[73.7814101766893,25.39282138087991],[73.7735604952574,25.399037349103672],[73.76667650939963,25.406125302413784],[73.76087600602261,25.413963963963962],[73.75625823334735,25.422419212081795],[73.7529022027446,25.431346375127745],[73.75086533682843,25.440592706867022],[73.7501824869394,25.45],[73.75086533682843,25.459407293132976],[73.7529022027446,25.468653624872253],[73.75625823334735,25.477580787918203],[73.76087600602261,25.486036036036037],[73.76667650939963,25.493874697586214],[73.7735604952574,25.500962650896327],[73.7814101766893,25.50717861912009],[73.79009124346969,25.512416245317798],[73.79945516013912,25.516585912253063],[73.80934170748719,25.51961627576858],[73.81958172394772,25.52145548550442],[73.83,25.52207207207207]]]},"properties":{"zone_type":"mining","zone_label":"Mining / Quarry Area","zone_color":"#f97316","name":"Rajpura Dariba Mines (Raj)","state":"Rajasthan","subtype":"silver_lead","area_sqkm":201.06,"source":"curated_research","osm_id":""}},{"type":"Feature","geometry":{"type":"Polygon","coordinates":[[[74.64,26.04207207207207],[74.65046390179752,26.041455485504418],[74.66074876333415,26.03961627576858],[74.67067860777749,26.036585912253063],[74.68008353273603,26.032416245317798],[74.68880261733622,26.02717861912009],[74.69668667562314,26.020962650896326],[74.70360080917362,26.013874697586214],[74.70942671524567,26.006036036036036],[74.71406471097114,25.997580787918203],[74.7174354389573,25.988653624872253],[74.71948122511371,25.979407293132976],[74.72016706547208,25.97],[74.71948122511371,25.960592706867022],[74.7174354389573,25.951346375127745],[74.71406471097114,25.942419212081795],[74.70942671524567,25.93396396396396],[74.70360080917362,25.926125302413784],[74.69668667562314,25.91903734910367],[74.68880261733622,25.912821380879908],[74.68008353273603,25.9075837546822],[74.67067860777749,25.903414087746935],[74.66074876333415,25.900383724231418],[74.65046390179752,25.89854451449558],[74.64,25.897927927927928],[74.62953609820248,25.89854451449558],[74.61925123666585,25.900383724231418],[74.60932139222251,25.903414087746935],[74.59991646726397,25.9075837546822],[74.59119738266378,25.912821380879908],[74.58331332437686,25.91903734910367],[74.57639919082638,25.926125302413784],[74.57057328475433,25.93396396396396],[74.56593528902886,25.942419212081795],[74.5625645610427,25.951346375127745],[74.56051877488629,25.960592706867022],[74.55983293452792,25.97],[74.56051877488629,25.979407293132976],[74.5625645610427,25.988653624872253],[74.56593528902886,25.997580787918203],[74.57057328475433,26.006036036036036],[74.57639919082638,26.013874697586214],[74.58331332437686,26.020962650896326],[74.59119738266378,26.02717861912009],[74.59991646726397,26.032416245317798],[74.60932139222251,26.036585912253063],[74.61925123666585,26.03961627576858],[74.62953609820248,26.041455485504418],[74.64,26.04207207207207]]]},"properties":{"zone_type":"mining","zone_label":"Mining / Quarry Area","zone_color":"#f97316","name":"Rampur Agucha Zinc (Raj)","state":"Rajasthan","subtype":"zinc","area_sqkm":201.06,"source":"curated_research","osm_id":""}},{"type":"Feature","geometry":{"type":"Polygon","coordinates":[[[76.6,15.278108108108109],[76.61462040762679,15.277183228256629],[76.62899065602554,15.274424413652872],[76.64286486626196,15.269878868379598],[76.65600564675226,15.263624367976696],[76.66818815509893,15.255767928680134],[76.67920394520652,15.24644397634449],[76.68886453385215,15.235812046379321],[76.69700462568566,15.224054054054054],[76.70348494147895,15.211371181877308],[76.70819460123207,15.19798043730838],[76.7110530213609,15.184110939699465],[76.71201129350452,15.17],[76.7110530213609,15.155889060300535],[76.70819460123207,15.142019562691619],[76.70348494147895,15.128628818122692],[76.69700462568566,15.115945945945946],[76.68886453385215,15.104187953620679],[76.67920394520652,15.093556023655509],[76.66818815509893,15.084232071319866],[76.65600564675226,15.076375632023304],[76.64286486626196,15.070121131620402],[76.62899065602554,15.065575586347128],[76.61462040762679,15.062816771743371],[76.6,15.061891891891891],[76.5853795923732,15.062816771743371],[76.57100934397445,15.065575586347128],[76.55713513373803,15.070121131620402],[76.54399435324773,15.076375632023304],[76.53181184490106,15.084232071319866],[76.52079605479346,15.093556023655509],[76.51113546614783,15.104187953620679],[76.50299537431432,15.115945945945946],[76.49651505852104,15.128628818122692],[76.49180539876792,15.142019562691619],[76.48894697863909,15.155889060300535],[76.48798870649547,15.17],[76.48894697863909,15.184110939699465],[76.49180539876792,15.19798043730838],[76.49651505852104,15.211371181877308],[76.50299537431432,15.224054054054054],[76.51113546614783,15.235812046379321],[76.52079605479346,15.24644397634449],[76.53181184490106,15.255767928680134],[76.54399435324773,15.263624367976696],[76.55713513373803,15.269878868379598],[76.57100934397445,15.274424413652872],[76.5853795923732,15.277183228256629],[76.6,15.278108108108109]]]},"properties":{"zone_type":"mining","zone_label":"Mining / Quarry Area","zone_color":"#f97316","name":"Donimalai Iron Ore (Karnataka)","state":"Karnataka","subtype":"iron_ore","area_sqkm":452.39,"source":"curated_research","osm_id":""}},{"type":"Feature","geometry":{"type":"Polygon","coordinates":[[[76.7,15.23018018018018],[76.72435357011918,15.228638713761047],[76.74829044390154,15.224040689421454],[76.7714010548001,15.216464780632664],[76.79328997385493,15.206040613294494],[76.81358267559222,15.192946547800224],[76.83193194625906,15.17740662724082],[76.84802382474696,15.159686743965535],[76.86158297455349,15.14009009009009],[76.87237739486615,15.118951969795512],[76.8802223901606,15.096634062180636],[76.8849837303923,15.073518232832443],[76.88657994770983,15.05],[76.8849837303923,15.026481767167558],[76.8802223901606,15.003365937819366],[76.87237739486615,14.981048030204489],[76.86158297455349,14.95990990990991],[76.84802382474696,14.940313256034466],[76.83193194625906,14.92259337275918],[76.81358267559222,14.907053452199778],[76.79328997385493,14.893959386705507],[76.7714010548001,14.883535219367337],[76.74829044390154,14.875959310578548],[76.72435357011918,14.871361286238955],[76.7,14.86981981981982],[76.67564642988083,14.871361286238955],[76.65170955609847,14.875959310578548],[76.62859894519991,14.883535219367337],[76.60671002614508,14.893959386705507],[76.58641732440779,14.907053452199778],[76.56806805374094,14.92259337275918],[76.55197617525305,14.940313256034466],[76.53841702544652,14.95990990990991],[76.52762260513386,14.981048030204489],[76.51977760983941,15.003365937819366],[76.5150162696077,15.026481767167558],[76.51342005229017,15.05],[76.5150162696077,15.073518232832443],[76.51977760983941,15.096634062180636],[76.52762260513386,15.118951969795512],[76.53841702544652,15.14009009009009],[76.55197617525305,15.159686743965535],[76.56806805374094,15.17740662724082],[76.58641732440779,15.192946547800224],[76.60671002614508,15.206040613294494],[76.62859894519991,15.216464780632664],[76.65170955609847,15.224040689421454],[76.67564642988083,15.228638713761047],[76.7,15.23018018018018]]]},"properties":{"zone_type":"mining","zone_label":"Mining / Quarry Area","zone_color":"#f97316","name":"Bellary-Hospet Iron Belt (KA)","state":"Karnataka","subtype":"iron_ore","area_sqkm":1256.64,"source":"curated_research","osm_id":""}},{"type":"Feature","geometry":{"type":"Polygon","coordinates":[[[75.2,13.365135135135136],[75.21811958275227,13.363979035320785],[75.23592913441995,13.36053051706609],[75.25312392863626,13.354848585474498],[75.26940975770486,13.34703045997087],[75.28450796657513,13.337209910850166],[75.29816022070725,13.325554970430614],[75.31013292624792,13.312265057974152],[75.32022122688588,13.297567567567569],[75.32825250900018,13.281713977346634],[75.33408935512719,13.264975546635476],[75.33763189521139,13.247638674624332],[75.33881951540974,13.23],[75.33763189521139,13.212361325375669],[75.33408935512719,13.195024453364525],[75.32825250900018,13.178286022653367],[75.32022122688588,13.162432432432432],[75.31013292624792,13.14773494202585],[75.29816022070725,13.134445029569386],[75.28450796657513,13.122790089149834],[75.26940975770486,13.11296954002913],[75.25312392863626,13.105151414525503],[75.23592913441995,13.09946948293391],[75.21811958275227,13.096020964679216],[75.2,13.094864864864865],[75.18188041724774,13.096020964679216],[75.16407086558006,13.09946948293391],[75.14687607136375,13.105151414525503],[75.13059024229514,13.11296954002913],[75.11549203342487,13.122790089149834],[75.10183977929276,13.134445029569386],[75.08986707375209,13.14773494202585],[75.07977877311413,13.162432432432432],[75.07174749099983,13.178286022653367],[75.06591064487282,13.195024453364525],[75.06236810478862,13.212361325375669],[75.06118048459027,13.23],[75.06236810478862,13.247638674624332],[75.06591064487282,13.264975546635476],[75.07174749099983,13.281713977346634],[75.07977877311413,13.297567567567569],[75.08986707375209,13.312265057974152],[75.10183977929276,13.325554970430614],[75.11549203342487,13.337209910850166],[75.13059024229514,13.34703045997087],[75.14687607136375,13.354848585474498],[75.16407086558006,13.36053051706609],[75.18188041724774,13.363979035320785],[75.2,13.365135135135136]]]},"properties":{"zone_type":"mining","zone_label":"Mining / Quarry Area","zone_color":"#f97316","name":"Kudremukh Iron Ore (Karnataka)","state":"Karnataka","subtype":"iron_ore","area_sqkm":706.86,"source":"curated_research","osm_id":""}},{"type":"Feature","geometry":{"type":"Polygon","coordinates":[[[81.32,18.712162162162162],[81.34232634361793,18.710774842384943],[81.36427067730654,18.70663662047931],[81.38545752743227,18.699818302569398],[81.40552438111538,18.690436551965046],[81.42412788892578,18.678651893020202],[81.44094973968696,18.66466596451674],[81.45570210686847,18.648718069568982],[81.46813257337774,18.63108108108108],[81.4780284504864,18.61205677281596],[81.48522041699349,18.591970655962573],[81.48958541635807,18.5711664095492],[81.49104876223079,18.55],[81.48958541635807,18.5288335904508],[81.48522041699349,18.50802934403743],[81.4780284504864,18.48794322718404],[81.46813257337774,18.46891891891892],[81.45570210686847,18.45128193043102],[81.44094973968696,18.43533403548326],[81.42412788892578,18.4213481069798],[81.40552438111538,18.409563448034955],[81.38545752743227,18.400181697430604],[81.36427067730654,18.393363379520693],[81.34232634361793,18.38922515761506],[81.32,18.38783783783784],[81.29767365638206,18.38922515761506],[81.27572932269345,18.393363379520693],[81.25454247256772,18.400181697430604],[81.2344756188846,18.409563448034955],[81.2158721110742,18.4213481069798],[81.19905026031303,18.43533403548326],[81.18429789313151,18.45128193043102],[81.17186742662224,18.46891891891892],[81.16197154951358,18.48794322718404],[81.1547795830065,18.50802934403743],[81.15041458364192,18.5288335904508],[81.1489512377692,18.55],[81.15041458364192,18.5711664095492],[81.1547795830065,18.591970655962573],[81.16197154951358,18.61205677281596],[81.17186742662224,18.63108108108108],[81.18429789313151,18.648718069568982],[81.19905026031303,18.66466596451674],[81.2158721110742,18.678651893020202],[81.2344756188846,18.690436551965046],[81.25454247256772,18.699818302569398],[81.27572932269345,18.70663662047931],[81.29767365638206,18.710774842384943],[81.32,18.712162162162162]]]},"properties":{"zone_type":"mining","zone_label":"Mining / Quarry Area","zone_color":"#f97316","name":"Bailadila Iron Ore (CG)","state":"Chhattisgarh","subtype":"iron_ore","area_sqkm":1017.88,"source":"curated_research","osm_id":""}},{"type":"Feature","geometry":{"type":"Polygon","coordinates":[[[85.38,22.28018018018018],[85.40538316901261,22.278638713761048],[85.43033202496586,22.274040689421454],[85.45441968601729,22.266464780632667],[85.47723400560791,22.256040613294495],[85.49838462440424,22.242946547800223],[85.51750964945458,22.22740662724082],[85.53428184627788,22.209686743965538],[85.54841423793634,22.19009009009009],[85.55966501529048,22.168951969795515],[85.56784167442045,22.146634062180635],[85.57280431042152,22.123518232832442],[85.57446801121583,22.1],[85.57280431042152,22.07648176716756],[85.56784167442045,22.05336593781937],[85.55966501529048,22.031048030204488],[85.54841423793634,22.00990990990991],[85.53428184627788,21.990313256034465],[85.51750964945458,21.97259337275918],[85.49838462440424,21.95705345219978],[85.47723400560791,21.943959386705508],[85.45441968601729,21.933535219367336],[85.43033202496586,21.92595931057855],[85.40538316901261,21.921361286238955],[85.38,21.91981981981982],[85.35461683098738,21.921361286238955],[85.32966797503413,21.92595931057855],[85.3055803139827,21.933535219367336],[85.28276599439208,21.943959386705508],[85.26161537559575,21.95705345219978],[85.24249035054541,21.97259337275918],[85.22571815372211,21.990313256034465],[85.21158576206365,22.00990990990991],[85.20033498470951,22.03104803020449],[85.19215832557954,22.05336593781937],[85.18719568957847,22.07648176716756],[85.18553198878416,22.1],[85.18719568957847,22.123518232832442],[85.19215832557954,22.146634062180635],[85.20033498470951,22.168951969795515],[85.21158576206365,22.19009009009009],[85.22571815372211,22.209686743965538],[85.24249035054541,22.22740662724082],[85.26161537559575,22.242946547800223],[85.28276599439208,22.256040613294495],[85.3055803139827,22.266464780632667],[85.32966797503413,22.274040689421454],[85.35461683098738,22.278638713761048],[85.38,22.28018018018018]]]},"properties":{"zone_type":"mining","zone_label":"Mining / Quarry Area","zone_color":"#f97316","name":"Barbil Iron Ore Region (Odisha)","state":"Odisha","subtype":"iron_ore","area_sqkm":1256.64,"source":"curated_research","osm_id":""}},{"type":"Feature","geometry":{"type":"Polygon","coordinates":[[[85.52,22.27810810810811],[85.5352374719854,22.27718322825663],[85.5502142266005,22.274424413652874],[85.5646740074215,22.2698788683796],[85.57836940358955,22.263624367976696],[85.59106608307913,22.255767928680136],[85.60254680218397,22.246443976344494],[85.61261512261716,22.235812046379323],[85.62109877262459,22.224054054054054],[85.62785259460256,22.211371181877308],[85.63276102878447,22.19798043730838],[85.63574009050063,22.184110939699465],[85.6367388071791,22.17],[85.63574009050063,22.155889060300538],[85.63276102878447,22.142019562691623],[85.62785259460256,22.128628818122696],[85.62109877262459,22.11594594594595],[85.61261512261716,22.10418795362068],[85.60254680218397,22.09355602365551],[85.59106608307913,22.084232071319867],[85.57836940358955,22.076375632023307],[85.5646740074215,22.070121131620404],[85.5502142266005,22.06557558634713],[85.5352374719854,22.062816771743375],[85.52,22.061891891891893],[85.5047625280146,22.062816771743375],[85.48978577339949,22.06557558634713],[85.47532599257849,22.070121131620404],[85.46163059641044,22.076375632023307],[85.44893391692086,22.084232071319867],[85.43745319781603,22.09355602365551],[85.42738487738283,22.10418795362068],[85.4189012273754,22.11594594594595],[85.41214740539743,22.128628818122696],[85.40723897121552,22.142019562691623],[85.40425990949936,22.155889060300538],[85.40326119282089,22.17],[85.40425990949936,22.184110939699465],[85.40723897121552,22.19798043730838],[85.41214740539743,22.211371181877308],[85.4189012273754,22.224054054054054],[85.42738487738283,22.235812046379323],[85.43745319781603,22.246443976344494],[85.44893391692086,22.255767928680136],[85.46163059641044,22.263624367976696],[85.47532599257849,22.2698788683796],[85.48978577339949,22.274424413652874],[85.5047625280146,22.27718322825663],[85.52,22.27810810810811]]]},"properties":{"zone_type":"mining","zone_label":"Mining / Quarry Area","zone_color":"#f97316","name":"Noamundi Iron Ore (Jharkhand)","state":"Jharkhand","subtype":"iron_ore","area_sqkm":452.39,"source":"curated_research","osm_id":""}},{"type":"Feature","geometry":{"type":"Polygon","coordinates":[[[85.6,22.635135135135137],[85.61909196383687,22.633979035320785],[85.6378572588792,22.63053051706609],[85.65597480572609,22.6248485854745],[85.67313460812785,22.61703045997087],[85.68904305710782,22.607209910850166],[85.70342795469327,22.595554970430616],[85.71604317129825,22.58226505797415],[85.72667285706909,22.56756756756757],[85.73513513513512,22.551713977346633],[85.74128521357247,22.534975546635476],[85.7450178628339,22.51763867462433],[85.74626921625573,22.5],[85.7450178628339,22.48236132537567],[85.74128521357247,22.465024453364524],[85.73513513513512,22.448286022653367],[85.72667285706909,22.43243243243243],[85.71604317129825,22.41773494202585],[85.70342795469327,22.404445029569384],[85.68904305710782,22.392790089149834],[85.67313460812785,22.38296954002913],[85.65597480572609,22.3751514145255],[85.6378572588792,22.36946948293391],[85.61909196383687,22.366020964679215],[85.6,22.364864864864863],[85.58090803616312,22.366020964679215],[85.5621427411208,22.36946948293391],[85.5440251942739,22.3751514145255],[85.52686539187214,22.38296954002913],[85.51095694289216,22.392790089149834],[85.49657204530672,22.404445029569384],[85.48395682870174,22.41773494202585],[85.4733271429309,22.43243243243243],[85.46486486486486,22.448286022653367],[85.45871478642752,22.465024453364524],[85.45498213716608,22.48236132537567],[85.45373078374426,22.5],[85.45498213716608,22.51763867462433],[85.45871478642752,22.534975546635476],[85.46486486486486,22.551713977346633],[85.4733271429309,22.56756756756757],[85.48395682870174,22.58226505797415],[85.49657204530672,22.595554970430616],[85.51095694289216,22.607209910850166],[85.52686539187214,22.61703045997087],[85.5440251942739,22.6248485854745],[85.5621427411208,22.63053051706609],[85.58090803616312,22.633979035320785],[85.6,22.635135135135137]]]},"properties":{"zone_type":"mining","zone_label":"Mining / Quarry Area","zone_color":"#f97316","name":"Kolhan Iron Ore Fields (JH)","state":"Jharkhand","subtype":"iron_ore","area_sqkm":706.86,"source":"curated_research","osm_id":""}},{"type":"Feature","geometry":{"type":"Polygon","coordinates":[[[74.1,15.27027027027027],[74.13652179938514,15.267958070641571],[74.17241870065705,15.261061034132181],[74.20707649788247,15.249697170948997],[74.2399021865419,15.23406091994174],[74.27033411000139,15.214419821700334],[74.2978515696132,15.19110994086123],[74.32198373401413,15.164530115948303],[74.34231769518055,15.135135135135135],[74.35850553339928,15.103427954693268],[74.37027027027027,15.069951093270952],[74.37741060788386,15.035277349248663],[74.3798043730838,15.0],[74.37741060788386,14.964722650751337],[74.37027027027027,14.930048906729048],[74.35850553339928,14.896572045306732],[74.34231769518055,14.864864864864865],[74.32198373401413,14.835469884051697],[74.2978515696132,14.80889005913877],[74.27033411000139,14.785580178299666],[74.2399021865419,14.76593908005826],[74.20707649788247,14.750302829051003],[74.17241870065706,14.738938965867819],[74.13652179938514,14.732041929358429],[74.1,14.72972972972973],[74.06347820061485,14.732041929358429],[74.02758129934294,14.738938965867819],[73.99292350211752,14.750302829051003],[73.96009781345809,14.76593908005826],[73.9296658899986,14.785580178299666],[73.90214843038679,14.80889005913877],[73.87801626598586,14.835469884051697],[73.85768230481943,14.864864864864865],[73.84149446660071,14.896572045306733],[73.82972972972972,14.930048906729048],[73.82258939211613,14.964722650751337],[73.82019562691619,15.0],[73.82258939211613,15.035277349248663],[73.82972972972972,15.069951093270952],[73.84149446660071,15.103427954693268],[73.85768230481943,15.135135135135135],[73.87801626598586,15.164530115948303],[73.90214843038679,15.19110994086123],[73.9296658899986,15.214419821700334],[73.96009781345809,15.23406091994174],[73.99292350211752,15.249697170948997],[74.02758129934294,15.261061034132181],[74.06347820061485,15.267958070641571],[74.1,15.27027027027027]]]},"properties":{"zone_type":"mining","zone_label":"Mining / Quarry Area","zone_color":"#f97316","name":"Goa Iron Ore Mining Zone","state":"Goa","subtype":"iron_ore","area_sqkm":2827.43,"source":"curated_research","osm_id":""}},{"type":"Feature","geometry":{"type":"Polygon","coordinates":[[[80.19,24.755045045045048],[80.19647218205567,24.754659678440262],[80.20283362328193,24.753510172355366],[80.2089754776557,24.751616195158167],[80.21479265634578,24.749010153323624],[80.22018562581195,24.745736636950056],[80.22506211085145,24.741851656810205],[80.22933867345323,24.737421685991386],[80.23294214044549,24.732522522522522],[80.2358108555089,24.727237992448877],[80.23789573413339,24.72165851554516],[80.23916110346765,24.715879558208112],[80.23958531269156,24.71],[80.23916110346765,24.70412044179189],[80.23789573413339,24.698341484454843],[80.2358108555089,24.692762007551124],[80.23294214044549,24.68747747747748],[80.22933867345323,24.682578314008616],[80.22506211085145,24.678148343189797],[80.22018562581195,24.674263363049945],[80.21479265634578,24.670989846676378],[80.2089754776557,24.668383804841834],[80.20283362328193,24.666489827644636],[80.19647218205567,24.66534032155974],[80.19,24.664954954954954],[80.18352781794432,24.66534032155974],[80.17716637671806,24.666489827644636],[80.1710245223443,24.668383804841834],[80.16520734365422,24.670989846676378],[80.15981437418804,24.674263363049945],[80.15493788914854,24.678148343189797],[80.15066132654677,24.682578314008616],[80.14705785955451,24.68747747747748],[80.1441891444911,24.692762007551124],[80.1421042658666,24.698341484454843],[80.14083889653234,24.70412044179189],[80.14041468730844,24.71],[80.14083889653234,24.715879558208112],[80.1421042658666,24.72165851554516],[80.1441891444911,24.727237992448877],[80.14705785955451,24.732522522522522],[80.15066132654677,24.737421685991386],[80.15493788914854,24.741851656810205],[80.15981437418804,24.745736636950056],[80.16520734365422,24.749010153323624],[80.1710245223443,24.751616195158167],[80.17716637671806,24.753510172355366],[80.18352781794432,24.754659678440262],[80.19,24.755045045045048]]]},"properties":{"zone_type":"mining","zone_label":"Mining / Quarry Area","zone_color":"#f97316","name":"Panna Diamond Mines (MP)","state":"Madhya Pradesh","subtype":"diamond","area_sqkm":78.54,"source":"curated_research","osm_id":""}},{"type":"Feature","geometry":{"type":"Polygon","coordinates":[[[83.5,20.79009009009009],[83.51257062531661,20.789319356880522],[83.52492616374882,20.787020344710726],[83.53685520860844,20.783232390316332],[83.54815365063058,20.778020306647246],[83.55862817033972,20.77147327390011],[83.56809954579954,20.763703313620407],[83.57640571914997,20.754843371982766],[83.58340456946209,20.745045045045046],[83.58897634446659,20.734475984897756],[83.59302570954836,20.723317031090318],[83.59548337894816,20.71175911641622],[83.59630730126116,20.7],[83.59548337894816,20.688240883583777],[83.59302570954836,20.67668296890968],[83.58897634446659,20.665524015102243],[83.58340456946209,20.654954954954952],[83.57640571914997,20.645156628017233],[83.56809954579954,20.63629668637959],[83.55862817033972,20.62852672609989],[83.54815365063058,20.621979693352753],[83.53685520860844,20.616767609683667],[83.52492616374882,20.612979655289273],[83.51257062531661,20.610680643119476],[83.5,20.60990990990991],[83.48742937468339,20.610680643119476],[83.47507383625118,20.612979655289273],[83.46314479139156,20.616767609683667],[83.45184634936942,20.621979693352753],[83.44137182966028,20.62852672609989],[83.43190045420046,20.63629668637959],[83.42359428085003,20.645156628017233],[83.41659543053791,20.654954954954952],[83.41102365553341,20.665524015102243],[83.40697429045164,20.67668296890968],[83.40451662105184,20.688240883583777],[83.40369269873884,20.7],[83.40451662105184,20.71175911641622],[83.40697429045164,20.723317031090318],[83.41102365553341,20.734475984897756],[83.41659543053791,20.745045045045046],[83.42359428085003,20.754843371982766],[83.43190045420046,20.763703313620407],[83.44137182966028,20.77147327390011],[83.45184634936942,20.778020306647246],[83.46314479139156,20.783232390316332],[83.47507383625118,20.787020344710726],[83.48742937468339,20.789319356880522],[83.5,20.79009009009009]]]},"properties":{"zone_type":"mining","zone_label":"Mining / Quarry Area","zone_color":"#f97316","name":"Balangir Chromite (Odisha)","state":"Odisha","subtype":"chromite","area_sqkm":314.16,"source":"curated_research","osm_id":""}},{"type":"Feature","geometry":{"type":"Polygon","coordinates":[[[85.9,20.99009009009009],[85.91258730474907,20.98931935688052],[85.92495923722403,20.987020344710725],[85.93690411023006,20.98323239031633],[85.94821754367831,20.978020306647245],[85.9587059615858,20.97147327390011],[85.96818990421419,20.963703313620407],[85.97650709867565,20.954843371982765],[85.98351523546701,20.945045045045045],[85.98909440342472,20.934475984897755],[85.99314914143821,20.923317031090317],[85.99561007181586,20.91175911641622],[85.99643508735662,20.9],[85.99561007181586,20.888240883583777],[85.99314914143821,20.87668296890968],[85.98909440342472,20.865524015102242],[85.98351523546701,20.854954954954955],[85.97650709867565,20.845156628017232],[85.96818990421419,20.83629668637959],[85.9587059615858,20.828526726099888],[85.94821754367831,20.821979693352752],[85.93690411023006,20.816767609683666],[85.92495923722403,20.812979655289272],[85.91258730474907,20.810680643119476],[85.9,20.80990990990991],[85.88741269525094,20.810680643119476],[85.87504076277598,20.812979655289272],[85.86309588976995,20.816767609683666],[85.8517824563217,20.821979693352752],[85.8412940384142,20.828526726099888],[85.83181009578583,20.83629668637959],[85.82349290132436,20.845156628017232],[85.816484764533,20.85495495495495],[85.8109055965753,20.865524015102242],[85.8068508585618,20.87668296890968],[85.80438992818415,20.888240883583777],[85.8035649126434,20.9],[85.80438992818415,20.91175911641622],[85.8068508585618,20.923317031090317],[85.8109055965753,20.934475984897755],[85.816484764533,20.945045045045045],[85.82349290132436,20.954843371982765],[85.83181009578583,20.963703313620407],[85.8412940384142,20.97147327390011],[85.8517824563217,20.978020306647245],[85.86309588976995,20.98323239031633],[85.87504076277598,20.987020344710725],[85.88741269525094,20.98931935688052],[85.9,20.99009009009009]]]},"properties":{"zone_type":"mining","zone_label":"Mining / Quarry Area","zone_color":"#f97316","name":"Sukinda Chromite Valley (Odisha)","state":"Odisha","subtype":"chromite","area_sqkm":314.16,"source":"curated_research","osm_id":""}},{"type":"Feature","geometry":{"type":"Polygon","coordinates":[[[82.7,18.935135135135138],[82.71863274537623,18.933979035320785],[82.7369466793131,18.930530517066092],[82.75462844532336,18.9248485854745],[82.77137550348829,18.91703045997087],[82.7869013069995,18.907209910850167],[82.80094020505435,18.895554970430616],[82.8132519882148,18.882265057974152],[82.82362599845752,18.86756756756757],[82.83188473359102,18.851713977346634],[82.83788688436744,18.834975546635476],[82.84152975232286,18.81763867462433],[82.84275100697657,18.8],[82.84152975232286,18.78236132537567],[82.83788688436744,18.765024453364525],[82.83188473359102,18.748286022653367],[82.82362599845752,18.732432432432432],[82.8132519882148,18.71773494202585],[82.80094020505435,18.704445029569385],[82.7869013069995,18.692790089149835],[82.77137550348829,18.68296954002913],[82.75462844532336,18.6751514145255],[82.7369466793131,18.66946948293391],[82.71863274537623,18.666020964679216],[82.7,18.664864864864864],[82.68136725462378,18.666020964679216],[82.6630533206869,18.66946948293391],[82.64537155467664,18.6751514145255],[82.62862449651172,18.68296954002913],[82.61309869300051,18.692790089149835],[82.59905979494566,18.704445029569385],[82.5867480117852,18.71773494202585],[82.57637400154249,18.732432432432432],[82.56811526640898,18.748286022653367],[82.56211311563257,18.765024453364525],[82.55847024767715,18.78236132537567],[82.55724899302344,18.8],[82.55847024767715,18.81763867462433],[82.56211311563257,18.834975546635476],[82.56811526640898,18.851713977346634],[82.57637400154249,18.86756756756757],[82.5867480117852,18.882265057974152],[82.59905979494566,18.895554970430616],[82.61309869300051,18.907209910850167],[82.62862449651172,18.91703045997087],[82.64537155467664,18.9248485854745],[82.6630533206869,18.930530517066092],[82.68136725462378,18.933979035320785],[82.7,18.935135135135138]]]},"properties":{"zone_type":"mining","zone_label":"Mining / Quarry Area","zone_color":"#f97316","name":"Bauxite Mines Koraput (Odisha)","state":"Odisha","subtype":"bauxite","area_sqkm":706.86,"source":"curated_research","osm_id":""}},{"type":"Feature","geometry":{"type":"Polygon","coordinates":[[[79.98,14.63018018018018],[80.00428651814602,14.628638713761045],[80.02815748723305,14.624040689421452],[80.05120446836175,14.616464780632663],[80.07303312129517,14.606040613294493],[80.09326995172958,14.592946547800222],[80.11156870188553,14.57740662724082],[80.12761627507449,14.559686743965534],[80.14113809286995,14.54009009009009],[80.15190279322049,14.518951969795511],[80.15972618911857,14.496634062180634],[80.16447442009132,14.473518232832442],[80.16606624259033,14.45],[80.16447442009132,14.426481767167557],[80.15972618911857,14.403365937819364],[80.15190279322049,14.381048030204488],[80.14113809286995,14.35990990990991],[80.12761627507449,14.340313256034465],[80.11156870188553,14.32259337275918],[80.09326995172958,14.307053452199776],[80.07303312129517,14.293959386705506],[80.05120446836175,14.283535219367336],[80.02815748723305,14.275959310578546],[80.00428651814602,14.271361286238953],[79.98,14.26981981981982],[79.95571348185399,14.271361286238953],[79.93184251276696,14.275959310578546],[79.90879553163826,14.283535219367336],[79.88696687870484,14.293959386705506],[79.86673004827043,14.307053452199776],[79.84843129811448,14.32259337275918],[79.83238372492552,14.340313256034465],[79.81886190713006,14.35990990990991],[79.80809720677952,14.381048030204488],[79.80027381088144,14.403365937819364],[79.79552557990868,14.426481767167557],[79.79393375740968,14.45],[79.79552557990868,14.473518232832442],[79.80027381088144,14.496634062180634],[79.80809720677952,14.518951969795511],[79.81886190713006,14.54009009009009],[79.83238372492552,14.559686743965534],[79.84843129811448,14.57740662724082],[79.86673004827043,14.592946547800222],[79.88696687870484,14.606040613294493],[79.90879553163826,14.616464780632663],[79.93184251276696,14.624040689421452],[79.95571348185399,14.628638713761045],[79.98,14.63018018018018]]]},"properties":{"zone_type":"mining","zone_label":"Mining / Quarry Area","zone_color":"#f97316","name":"Nellore Mica Belt (AP)","state":"Andhra Pradesh","subtype":"mica","area_sqkm":1256.64,"source":"curated_research","osm_id":""}},{"type":"Feature","geometry":{"type":"Polygon","coordinates":[[[81.5,22.20810810810811],[81.51522990140757,22.20718322825663],[81.53019921497952,22.204424413652873],[81.54465181161038,22.1998788683796],[81.55834040336475,22.193624367976696],[81.57103077464254,22.185767928680136],[81.58250578967275,22.176443976344494],[81.59256910776672,22.165812046379322],[81.60104854276182,22.154054054054054],[81.60779900917429,22.141371181877307],[81.61270500465227,22.12798043730838],[81.61568258625292,22.114110939699465],[81.6166808067295,22.1],[81.61568258625292,22.085889060300538],[81.61270500465227,22.072019562691622],[81.60779900917429,22.058628818122695],[81.60104854276182,22.04594594594595],[81.59256910776672,22.03418795362068],[81.58250578967275,22.02355602365551],[81.57103077464254,22.014232071319867],[81.55834040336475,22.006375632023307],[81.54465181161038,22.000121131620404],[81.53019921497952,21.99557558634713],[81.51522990140757,21.992816771743374],[81.5,21.991891891891893],[81.48477009859243,21.992816771743374],[81.46980078502048,21.99557558634713],[81.45534818838962,22.000121131620404],[81.44165959663525,22.006375632023307],[81.42896922535746,22.014232071319867],[81.41749421032725,22.02355602365551],[81.40743089223328,22.03418795362068],[81.39895145723818,22.04594594594595],[81.39220099082571,22.058628818122695],[81.38729499534773,22.072019562691622],[81.38431741374708,22.085889060300538],[81.3833191932705,22.1],[81.38431741374708,22.114110939699465],[81.38729499534773,22.12798043730838],[81.39220099082571,22.141371181877307],[81.39895145723818,22.154054054054054],[81.40743089223328,22.165812046379322],[81.41749421032725,22.176443976344494],[81.42896922535746,22.185767928680136],[81.44165959663525,22.193624367976696],[81.45534818838962,22.1998788683796],[81.46980078502048,22.204424413652873],[81.48477009859243,22.20718322825663],[81.5,22.20810810810811]]]},"properties":{"zone_type":"mining","zone_label":"Mining / Quarry Area","zone_color":"#f97316","name":"Mandav Hills Coal (CG)","state":"Chhattisgarh","subtype":"coal","area_sqkm":452.39,"source":"curated_research","osm_id":""}},{"type":"Feature","geometry":{"type":"Polygon","coordinates":[[[83.85,23.19009009009009],[83.8627841287146,23.189319356880524],[83.87534951744246,23.187020344710728],[83.88748116889867,23.183232390316334],[83.8989715071633,23.178020306647248],[83.90962392936287,23.171473273900112],[83.91925616960017,23.16370331362041],[83.9277034175742,23.154843371982768],[83.93482113853004,23.14504504504505],[83.9404875462888,23.134475984897758],[83.94460568704265,23.12331703109032],[83.94710509826156,23.111759116416223],[83.94794301432658,23.1],[83.94710509826156,23.08824088358378],[83.94460568704265,23.076682968909683],[83.9404875462888,23.065524015102245],[83.93482113853004,23.054954954954958],[83.9277034175742,23.045156628017235],[83.91925616960017,23.036296686379593],[83.90962392936287,23.02852672609989],[83.8989715071633,23.021979693352755],[83.88748116889867,23.01676760968367],[83.87534951744246,23.012979655289275],[83.8627841287146,23.01068064311948],[83.85,23.00990990990991],[83.8372158712854,23.01068064311948],[83.82465048255753,23.012979655289275],[83.81251883110131,23.01676760968367],[83.80102849283669,23.021979693352755],[83.79037607063712,23.02852672609989],[83.78074383039981,23.036296686379593],[83.7722965824258,23.045156628017235],[83.76517886146995,23.054954954954955],[83.7595124537112,23.065524015102245],[83.75539431295734,23.076682968909683],[83.75289490173843,23.08824088358378],[83.7520569856734,23.1],[83.75289490173843,23.111759116416223],[83.75539431295734,23.12331703109032],[83.7595124537112,23.134475984897758],[83.76517886146995,23.14504504504505],[83.7722965824258,23.154843371982768],[83.78074383039981,23.16370331362041],[83.79037607063712,23.171473273900112],[83.80102849283669,23.178020306647248],[83.81251883110131,23.183232390316334],[83.82465048255753,23.187020344710728],[83.8372158712854,23.189319356880524],[83.85,23.19009009009009]]]},"properties":{"zone_type":"mining","zone_label":"Mining / Quarry Area","zone_color":"#f97316","name":"Bisrampur Coal Area (CG)","state":"Chhattisgarh","subtype":"coal","area_sqkm":314.16,"source":"curated_research","osm_id":""}},{"type":"Feature","geometry":{"type":"Polygon","coordinates":[[[95.64,27.58009009009009],[95.65325581138946,27.57931935688052],[95.66628481217083,27.577020344710725],[95.67886407252844,27.57323239031633],[95.69077835782993,27.568020306647245],[95.70182381135054,27.56147327390011],[95.71181144231812,27.553703313620407],[95.72057035959776,27.544843371982765],[95.72795069568636,27.535045045045045],[95.73382617098721,27.524475984897755],[95.73809625448897,27.513317031090317],[95.74068788387898,27.50175911641622],[95.74155671565987,27.49],[95.74068788387898,27.478240883583776],[95.73809625448897,27.46668296890968],[95.73382617098721,27.45552401510224],[95.72795069568636,27.44495495495495],[95.72057035959776,27.435156628017232],[95.71181144231812,27.42629668637959],[95.70182381135054,27.418526726099888],[95.69077835782993,27.41197969335275],[95.67886407252844,27.406767609683666],[95.66628481217083,27.402979655289272],[95.65325581138946,27.400680643119475],[95.64,27.39990990990991],[95.62674418861054,27.400680643119475],[95.61371518782917,27.402979655289272],[95.60113592747156,27.406767609683666],[95.58922164217007,27.41197969335275],[95.57817618864946,27.418526726099888],[95.56818855768188,27.42629668637959],[95.55942964040224,27.435156628017232],[95.55204930431364,27.44495495495495],[95.54617382901279,27.45552401510224],[95.54190374551104,27.46668296890968],[95.53931211612102,27.478240883583776],[95.53844328434013,27.49],[95.53931211612102,27.50175911641622],[95.54190374551104,27.513317031090317],[95.54617382901279,27.524475984897755],[95.55204930431364,27.535045045045045],[95.55942964040224,27.544843371982765],[95.56818855768188,27.553703313620407],[95.57817618864946,27.56147327390011],[95.58922164217007,27.568020306647245],[95.60113592747156,27.57323239031633],[95.61371518782917,27.577020344710725],[95.62674418861054,27.57931935688052],[95.64,27.58009009009009]]]},"properties":{"zone_type":"mining","zone_label":"Mining / Quarry Area","zone_color":"#f97316","name":"Makum Coalfield (Assam)","state":"Assam","subtype":"coal","area_sqkm":314.16,"source":"curated_research","osm_id":""}},{"type":"Feature","geometry":{"type":"Polygon","coordinates":[[[86.2,22.872072072072072],[86.21020465252003,22.87145548550442],[86.22023470060617,22.869616275768582],[86.22991852735483,22.866585912253065],[86.23909043980545,22.8624162453178],[86.2475935039931,22.85717861912009],[86.25528223013201,22.850962650896328],[86.26202506198622,22.843874697586216],[86.26770662783326,22.836036036036038],[86.27222971450625,22.827580787918205],[86.27551693073818,22.818653624872255],[86.27751203134792,22.809407293132978],[86.27818087961091,22.8],[86.27751203134792,22.790592706867024],[86.27551693073818,22.781346375127747],[86.27222971450625,22.772419212081797],[86.26770662783326,22.763963963963963],[86.26202506198622,22.756125302413786],[86.25528223013201,22.749037349103673],[86.2475935039931,22.74282138087991],[86.23909043980545,22.737583754682202],[86.22991852735483,22.733414087746937],[86.22023470060617,22.73038372423142],[86.21020465252003,22.72854451449558],[86.2,22.72792792792793],[86.18979534747997,22.72854451449558],[86.17976529939384,22.73038372423142],[86.17008147264518,22.733414087746937],[86.16090956019455,22.737583754682202],[86.1524064960069,22.74282138087991],[86.144717769868,22.749037349103673],[86.13797493801378,22.756125302413786],[86.13229337216674,22.763963963963963],[86.12777028549375,22.772419212081797],[86.12448306926183,22.781346375127747],[86.12248796865208,22.790592706867024],[86.12181912038909,22.8],[86.12248796865208,22.809407293132978],[86.12448306926183,22.818653624872255],[86.12777028549375,22.827580787918205],[86.13229337216674,22.836036036036038],[86.13797493801378,22.843874697586216],[86.144717769868,22.850962650896328],[86.1524064960069,22.85717861912009],[86.16090956019455,22.8624162453178],[86.17008147264518,22.866585912253065],[86.17976529939384,22.869616275768582],[86.18979534747997,22.87145548550442],[86.2,22.872072072072072]]]},"properties":{"zone_type":"mining","zone_label":"Mining / Quarry Area","zone_color":"#f97316","name":"Subarnarekha Uranium (Jharkhand)","state":"Jharkhand","subtype":"uranium","area_sqkm":201.06,"source":"curated_research","osm_id":""}},{"type":"Feature","geometry":{"type":"Polygon","coordinates":[[[75.78,28.08810810810811],[75.79597866299873,28.087183228256627],[75.81168392664344,28.084424413652872],[75.82684706951882,28.0798788683796],[75.84120864604628,28.073624367976695],[75.85452292566964,28.065767928680135],[75.86656209737315,28.056443976344493],[75.87712016759104,28.04581204637932],[75.88601648481466,28.034054054054053],[75.89309883058978,28.021371181877306],[75.89824602401659,28.00798043730838],[75.90136999518847,27.994110939699464],[75.90241729209257,27.98],[75.90136999518847,27.965889060300537],[75.89824602401659,27.95201956269162],[75.89309883058978,27.938628818122694],[75.88601648481466,27.925945945945948],[75.87712016759104,27.91418795362068],[75.86656209737315,27.903556023655508],[75.85452292566964,27.894232071319866],[75.84120864604628,27.886375632023306],[75.82684706951882,27.880121131620403],[75.81168392664344,27.87557558634713],[75.79597866299873,27.872816771743373],[75.78,27.87189189189189],[75.76402133700127,27.872816771743373],[75.74831607335656,27.87557558634713],[75.73315293048118,27.880121131620403],[75.71879135395372,27.886375632023306],[75.70547707433036,27.894232071319866],[75.69343790262685,27.903556023655508],[75.68287983240896,27.91418795362068],[75.67398351518534,27.925945945945948],[75.66690116941022,27.938628818122694],[75.66175397598342,27.95201956269162],[75.65863000481153,27.965889060300537],[75.65758270790744,27.98],[75.65863000481153,27.994110939699464],[75.66175397598342,28.00798043730838],[75.66690116941022,28.021371181877306],[75.67398351518534,28.034054054054053],[75.68287983240896,28.04581204637932],[75.69343790262685,28.056443976344493],[75.70547707433036,28.065767928680135],[75.71879135395372,28.073624367976695],[75.73315293048118,28.0798788683796],[75.74831607335656,28.084424413652872],[75.76402133700127,28.087183228256627],[75.78,28.08810810810811]]]},"properties":{"zone_type":"mining","zone_label":"Mining / Quarry Area","zone_color":"#f97316","name":"Khetri Copper Belt (Rajasthan)","state":"Rajasthan","subtype":"copper","area_sqkm":452.39,"source":"curated_research","osm_id":""}},{"type":"Feature","geometry":{"type":"Polygon","coordinates":[[[86.45,22.66207207207207],[86.46018902271861,22.66145548550442],[86.47020370843357,22.65961627576858],[86.47987270309571,22.656585912253064],[86.4890305675256,22.6524162453178],[86.49752060812382,22.64717861912009],[86.50519755794183,22.640962650896327],[86.5119300622398,22.633874697586215],[86.5176029260026,22.626036036036037],[86.5221190849584,22.617580787918204],[86.5254012663754,22.608653624872254],[86.52739331121953,22.599407293132977],[86.5280611350512,22.59],[86.52739331121953,22.580592706867023],[86.5254012663754,22.571346375127746],[86.5221190849584,22.562419212081796],[86.5176029260026,22.553963963963962],[86.5119300622398,22.546125302413785],[86.50519755794183,22.539037349103673],[86.49752060812382,22.53282138087991],[86.4890305675256,22.5275837546822],[86.47987270309571,22.523414087746936],[86.47020370843357,22.52038372423142],[86.46018902271861,22.51854451449558],[86.45,22.51792792792793],[86.4398109772814,22.51854451449558],[86.42979629156643,22.52038372423142],[86.4201272969043,22.523414087746936],[86.4109694324744,22.5275837546822],[86.40247939187618,22.53282138087991],[86.39480244205818,22.539037349103673],[86.3880699377602,22.546125302413785],[86.38239707399741,22.553963963963962],[86.3778809150416,22.562419212081796],[86.37459873362461,22.571346375127746],[86.37260668878048,22.580592706867023],[86.3719388649488,22.59],[86.37260668878048,22.599407293132977],[86.37459873362461,22.608653624872254],[86.3778809150416,22.617580787918204],[86.38239707399741,22.626036036036037],[86.3880699377602,22.633874697586215],[86.39480244205818,22.640962650896327],[86.40247939187618,22.64717861912009],[86.4109694324744,22.6524162453178],[86.4201272969043,22.656585912253064],[86.42979629156643,22.65961627576858],[86.4398109772814,22.66145548550442],[86.45,22.66207207207207]]]},"properties":{"zone_type":"mining","zone_label":"Mining / Quarry Area","zone_color":"#f97316","name":"Ghatsila Copper Mines (JH)","state":"Jharkhand","subtype":"copper","area_sqkm":201.06,"source":"curated_research","osm_id":""}},{"type":"Feature","geometry":{"type":"Polygon","coordinates":[[[74.63,24.67009009009009],[74.64293089664457,24.66931935688052],[74.65564054206244,24.667020344710725],[74.66791147069671,24.66323239031633],[74.67953372355633,24.658020306647245],[74.69030844067254,24.65147327390011],[74.70005126364819,24.643703313620406],[74.70859549008095,24.634843371982765],[74.71579492588764,24.625045045045045],[74.72152638672553,24.614475984897755],[74.72569180571064,24.603317031090317],[74.72821991136927,24.59175911641622],[74.72906744711266,24.58],[74.72821991136927,24.568240883583776],[74.72569180571064,24.55668296890968],[74.72152638672553,24.54552401510224],[74.71579492588764,24.534954954954955],[74.70859549008095,24.525156628017232],[74.70005126364819,24.51629668637959],[74.69030844067254,24.508526726099888],[74.67953372355633,24.50197969335275],[74.66791147069671,24.496767609683666],[74.65564054206244,24.492979655289272],[74.64293089664457,24.490680643119475],[74.63,24.48990990990991],[74.61706910335542,24.490680643119475],[74.60435945793755,24.492979655289272],[74.59208852930328,24.496767609683666],[74.58046627644366,24.50197969335275],[74.56969155932745,24.508526726099888],[74.5599487363518,24.51629668637959],[74.55140450991904,24.525156628017232],[74.54420507411236,24.53495495495495],[74.53847361327446,24.54552401510224],[74.53430819428935,24.55668296890968],[74.53178008863073,24.568240883583776],[74.53093255288734,24.58],[74.53178008863073,24.59175911641622],[74.53430819428935,24.603317031090317],[74.53847361327446,24.614475984897755],[74.54420507411236,24.625045045045045],[74.55140450991904,24.634843371982765],[74.5599487363518,24.643703313620406],[74.56969155932745,24.65147327390011],[74.58046627644366,24.658020306647245],[74.59208852930328,24.66323239031633],[74.60435945793755,24.667020344710725],[74.61706910335542,24.66931935688052],[74.63,24.67009009009009]]]},"properties":{"zone_type":"mining","zone_label":"Mining / Quarry Area","zone_color":"#f97316","name":"Berach River Marble Mines (Raj)","state":"Rajasthan","subtype":"marble","area_sqkm":314.16,"source":"curated_research","osm_id":""}},{"type":"Feature","geometry":{"type":"Polygon","coordinates":[[[84.5,21.815315315315317],[84.54423487783667,21.81261774908183],[84.58771288464932,21.804571206487545],[84.62969009968702,21.79131336610716],[84.66944828116219,21.773071073265363],[84.70630715556673,21.75015645865039],[84.73963605734038,21.722961597671436],[84.76886471973326,21.691951801939688],[84.79349303222813,21.65765765765766],[84.81309959756993,21.620665947142147],[84.8273489419897,21.58160960881611],[84.83599725525376,21.541156907456774],[84.83889656232438,21.5],[84.83599725525376,21.458843092543226],[84.8273489419897,21.41839039118389],[84.81309959756993,21.379334052857853],[84.79349303222813,21.34234234234234],[84.76886471973326,21.308048198060312],[84.73963605734038,21.277038402328564],[84.70630715556673,21.24984354134961],[84.66944828116219,21.226928926734637],[84.62969009968702,21.20868663389284],[84.58771288464932,21.195428793512455],[84.54423487783667,21.18738225091817],[84.5,21.184684684684683],[84.45576512216333,21.18738225091817],[84.41228711535068,21.195428793512455],[84.37030990031298,21.20868663389284],[84.33055171883781,21.226928926734637],[84.29369284443327,21.24984354134961],[84.26036394265962,21.277038402328564],[84.23113528026674,21.308048198060312],[84.20650696777187,21.34234234234234],[84.18690040243007,21.379334052857853],[84.1726510580103,21.41839039118389],[84.16400274474624,21.458843092543226],[84.16110343767562,21.5],[84.16400274474624,21.541156907456774],[84.1726510580103,21.58160960881611],[84.18690040243007,21.620665947142147],[84.20650696777187,21.65765765765766],[84.23113528026674,21.691951801939688],[84.26036394265962,21.722961597671432],[84.29369284443327,21.75015645865039],[84.33055171883781,21.773071073265363],[84.37030990031298,21.79131336610716],[84.41228711535068,21.804571206487545],[84.45576512216333,21.81261774908183],[84.5,21.815315315315317]]]},"properties":{"zone_type":"mining","zone_label":"Mining / Quarry Area","zone_color":"#f97316","name":"Mahanadi Coalfields (Odisha)","state":"Odisha","subtype":"coal","area_sqkm":3848.45,"source":"curated_research","osm_id":""}},{"type":"Feature","geometry":{"type":"Polygon","coordinates":[[[82.8,24.09009009009009],[82.81287195543237,24.089319356880523],[82.82552366813852,24.087020344710727],[82.8377386638063,24.083232390316333],[82.84930794047324,24.078020306647247],[82.86003354460793,24.07147327390011],[82.86973195814994,24.063703313620408],[82.87823723855466,24.054843371982766],[82.88540385811623,24.045045045045047],[82.89110919398703,24.034475984897757],[82.89525562628846,24.02331703109032],[82.89777220841425,24.011759116416222],[82.8986158809465,24.0],[82.89777220841425,23.988240883583778],[82.89525562628846,23.97668296890968],[82.89110919398703,23.965524015102243],[82.88540385811623,23.954954954954957],[82.87823723855466,23.945156628017234],[82.86973195814994,23.936296686379592],[82.86003354460793,23.92852672609989],[82.84930794047324,23.921979693352753],[82.8377386638063,23.916767609683667],[82.82552366813852,23.912979655289273],[82.81287195543237,23.910680643119477],[82.8,23.90990990990991],[82.78712804456762,23.910680643119477],[82.77447633186148,23.912979655289273],[82.76226133619369,23.916767609683667],[82.75069205952676,23.921979693352753],[82.73996645539206,23.92852672609989],[82.73026804185005,23.936296686379592],[82.72176276144533,23.945156628017234],[82.71459614188376,23.954954954954953],[82.70889080601296,23.965524015102243],[82.70474437371153,23.97668296890968],[82.70222779158574,23.988240883583778],[82.7013841190535,24.0],[82.70222779158574,24.011759116416222],[82.70474437371153,24.02331703109032],[82.70889080601296,24.034475984897757],[82.71459614188376,24.045045045045047],[82.72176276144533,24.054843371982766],[82.73026804185005,24.063703313620408],[82.73996645539206,24.07147327390011],[82.75069205952676,24.078020306647247],[82.76226133619369,24.083232390316333],[82.77447633186148,24.087020344710727],[82.78712804456762,24.089319356880523],[82.8,24.09009009009009]]]},"properties":{"zone_type":"mining","zone_label":"Mining / Quarry Area","zone_color":"#f97316","name":"Sasan Ultra Mega Coal (MP)","state":"Madhya Pradesh","subtype":"coal","area_sqkm":314.16,"source":"curated_research","osm_id":""}}]}